{
"type": "FeatureCollection",
"name": "reach_zones",
"crs": { "type": "name", "properties": { "name": "urn:ogc:def:crs:OGC:1.3:CRS84" } },
"features": [
{ "type": "Feature", "properties": { "zone": "A", "alpha_deg": 16.2, "label": "Within reach of an open-slope debris flow (alpha 16.2 deg)" }, "geometry": { "type": "MultiPolygon", "coordinates": [ [ [ [ 98.135716147150731, 13.89515351485519 ], [ 98.135764152401947, 13.895153684746093 ], [ 98.135815715094822, 13.895135661224904 ], [ 98.1359609925006, 13.895068536343565 ], [ 98.135994153099759, 13.895056945248626 ], [ 98.135997813368377, 13.894069572376164 ], [ 98.136553099449756, 13.894071536179158 ], [ 98.136554104229148, 13.893800304890741 ], [ 98.137109389750805, 13.893802267391777 ], [ 98.13711039386267, 13.893531036057482 ], [ 98.137388036332837, 13.893532016814811 ], [ 98.13738904010016, 13.893260785454544 ], [ 98.137666682268915, 13.893261765876462 ], [ 98.137667685691724, 13.892990534490226 ], [ 98.13739004384594, 13.89298955408819 ], [ 98.13739104757019, 13.892718322715757 ], [ 98.137113406068906, 13.892717342018093 ], [ 98.137112402021714, 13.892988573370641 ], [ 98.136279476678368, 13.892985629324903 ], [ 98.136278471640708, 13.893256860611665 ], [ 98.135723187540393, 13.893254896297101 ], [ 98.135725198886007, 13.892712433797174 ], [ 98.134614633528216, 13.892708501541307 ], [ 98.13461362657435, 13.892979732714563 ], [ 98.134058343379195, 13.892977764653676 ], [ 98.134059350978973, 13.892706533520331 ], [ 98.13433699224278, 13.892707517688571 ], [ 98.134337999497987, 13.892436286529184 ], [ 98.134615640460453, 13.892437270361963 ], [ 98.134616647371089, 13.892166039176539 ], [ 98.135171928714968, 13.892168005855712 ], [ 98.135172934958121, 13.891896774624316 ], [ 98.135728215742517, 13.891898740001652 ], [ 98.135729221318186, 13.89162750872431 ], [ 98.136006861419844, 13.891628490919826 ], [ 98.136005856167117, 13.891899722217088 ], [ 98.136283496613274, 13.891900704117036 ], [ 98.136284501543074, 13.891629472799861 ], [ 98.136562141687861, 13.891630454364412 ], [ 98.136566159899644, 13.890545528955242 ], [ 98.136288521046509, 13.890544547470322 ], [ 98.136290530668788, 13.890002084769053 ], [ 98.136012892483024, 13.890001103008505 ], [ 98.136018922769381, 13.888373714878202 ], [ 98.135741286542398, 13.888372732921733 ], [ 98.135743297110892, 13.887830270202814 ], [ 98.135465661551194, 13.887829287970792 ], [ 98.135466667125897, 13.887558056622138 ], [ 98.134911396716944, 13.887556091251792 ], [ 98.13491340909286, 13.887013628615978 ], [ 98.135191043640887, 13.887014611418962 ], [ 98.135192049473631, 13.886743380071996 ], [ 98.134636781044776, 13.886741414190539 ], [ 98.134637787501532, 13.886470182877369 ], [ 98.134360153642319, 13.886469199483543 ], [ 98.134362167136558, 13.885926736878874 ], [ 98.134084533944559, 13.885925753209603 ], [ 98.134085540982014, 13.8856545219181 ], [ 98.133807908134429, 13.88565353795345 ], [ 98.13380891547304, 13.885382306675831 ], [ 98.133531282969855, 13.885381322415814 ], [ 98.133534305824213, 13.884567628606387 ], [ 98.133256674310942, 13.884566644090965 ], [ 98.133257682208523, 13.884295412828971 ], [ 98.132980051039667, 13.884294428018215 ], [ 98.132982067415369, 13.883751965515955 ], [ 98.132704436913613, 13.883750980429875 ], [ 98.132709479087509, 13.882394824167751 ], [ 98.132987107975708, 13.882395809153882 ], [ 98.132991140034235, 13.881310883954782 ], [ 98.132435884860953, 13.881308913827201 ], [ 98.132436893466789, 13.881037682552209 ], [ 98.132296620545759, 13.88103718465308 ], [ 98.132259768372208, 13.881049819060554 ], [ 98.132057426802021, 13.881141420553719 ], [ 98.131865052423279, 13.881251628913306 ], [ 98.131684432626656, 13.881379420175124 ], [ 98.131517245596839, 13.881523607008461 ], [ 98.131365044720781, 13.881682849747005 ], [ 98.131229244154866, 13.88185566883517 ], [ 98.13111110568552, 13.88204045857413 ], [ 98.131011727005031, 13.88223550203992 ], [ 98.130932031511591, 13.882438987034996 ], [ 98.130899756959565, 13.882553355409541 ], [ 98.130854916886804, 13.882622923633491 ], [ 98.130755099216614, 13.882816870382936 ], [ 98.130674786327177, 13.88301927761534 ], [ 98.130662943268646, 13.883053985707758 ], [ 98.130655680694247, 13.883078418925287 ], [ 98.130651596721236, 13.883085075463233 ], [ 98.13055452046531, 13.883285591074577 ], [ 98.130525131168824, 13.883365833328561 ], [ 98.130511846996242, 13.883371971400734 ], [ 98.130506784003288, 13.883374936072077 ], [ 98.130488161351309, 13.883383540837229 ], [ 98.130483098371485, 13.883386505500843 ], [ 98.130464475741249, 13.88339511025551 ], [ 98.130459412756665, 13.88339807492177 ], [ 98.130440790131146, 13.883406679673826 ], [ 98.130435727141773, 13.883409644342722 ], [ 98.130417104520959, 13.883418249092175 ], [ 98.130222360307798, 13.883532282790982 ], [ 98.13020650291368, 13.883543772250047 ], [ 98.13020475196906, 13.884013331520878 ], [ 98.130482382598359, 13.884014319464656 ], [ 98.130480360369987, 13.884556781594476 ], [ 98.130202729095203, 13.884555793610604 ], [ 98.130200706134445, 13.885098255676006 ], [ 98.129645442359049, 13.885096278682092 ], [ 98.129648478704112, 13.884282585695212 ], [ 98.129391424071642, 13.884281670088056 ], [ 98.129371035412561, 13.884308526887089 ], [ 98.129267583525447, 13.88441736407967 ], [ 98.12916671048221, 13.884535541757645 ], [ 98.129054626046184, 13.884634783768064 ], [ 98.129042783274684, 13.884646353094857 ], [ 98.128901384565353, 13.884797614104412 ], [ 98.128870593373236, 13.884833710317238 ], [ 98.128855727132702, 13.884844481352989 ], [ 98.128732305346219, 13.884953761762123 ], [ 98.128597241236747, 13.885000973207319 ], [ 98.128391994693885, 13.885095807225341 ], [ 98.128327425007853, 13.885133615561697 ], [ 98.128309094844781, 13.885142084990246 ], [ 98.128114350985896, 13.88525611582884 ], [ 98.127963124212314, 13.885365684242641 ], [ 98.127794594215985, 13.885464365706882 ], [ 98.127612228268134, 13.885596495356889 ], [ 98.12753331722368, 13.885666364966021 ], [ 98.127428045996126, 13.885726407030386 ], [ 98.127247781132226, 13.885853336581302 ], [ 98.127107868337433, 13.885973363795072 ], [ 98.127048482342431, 13.88600813723145 ], [ 98.126866114834556, 13.886140269858831 ], [ 98.126697882225855, 13.886289229048009 ], [ 98.126687718894175, 13.886300183825533 ], [ 98.126652956249416, 13.886325370379584 ], [ 98.126650555066334, 13.886327496441631 ], [ 98.126605584806313, 13.886360078713098 ], [ 98.126586656693348, 13.88637683809225 ], [ 98.12658641438729, 13.886441536420856 ], [ 98.127141680911592, 13.886443520553199 ], [ 98.127140665739205, 13.886714751325416 ], [ 98.127418299356862, 13.886715742938673 ], [ 98.127419314206435, 13.886444512146333 ], [ 98.128529847603701, 13.886448475365313 ], [ 98.128528834045326, 13.886719706238061 ], [ 98.128251200340543, 13.886718715886257 ], [ 98.128250186437583, 13.886989946732823 ], [ 98.127694918447744, 13.886987965042925 ], [ 98.127693903877386, 13.887259195843205 ], [ 98.127416269592317, 13.887258204505088 ], [ 98.127415254677359, 13.887529435279177 ], [ 98.126859985526963, 13.887527451616574 ], [ 98.126858969944564, 13.887798682344332 ], [ 98.126581335079251, 13.887797690019825 ], [ 98.126580319152197, 13.888068920721368 ], [ 98.126025048841356, 13.888066935085911 ], [ 98.126021998992229, 13.888880627033192 ], [ 98.125744362901003, 13.88887963368192 ], [ 98.12574232891339, 13.889422094909389 ], [ 98.125464692198264, 13.889421101202389 ], [ 98.125464338506134, 13.889515398002759 ], [ 98.125485755102446, 13.889573873961812 ], [ 98.125537515176774, 13.8896807887322 ], [ 98.125544967809873, 13.889701137416433 ], [ 98.125555230148208, 13.889722335132458 ], [ 98.125568652829102, 13.889758984440325 ], [ 98.125578915145482, 13.889780182105664 ], [ 98.125592337848403, 13.889816831464437 ], [ 98.125689413153722, 13.890017348344434 ], [ 98.125692451818225, 13.890022301159053 ], [ 98.125701259894441, 13.890040494772922 ], [ 98.125728587361252, 13.890085036230955 ], [ 98.125762074337487, 13.890154206231744 ], [ 98.125762512465045, 13.890155402494502 ], [ 98.125764541451034, 13.8901633160517 ], [ 98.125841031022745, 13.890372162887028 ], [ 98.125938106562387, 13.890572679768141 ], [ 98.126054833222625, 13.890762935586869 ], [ 98.126190086895207, 13.890941098050774 ], [ 98.126342565035458, 13.891105451330068 ], [ 98.12651079920559, 13.891254412583068 ], [ 98.126679369776767, 13.891376548945866 ], [ 98.126770383423462, 13.891496435294645 ], [ 98.126806232734523, 13.891535076247473 ], [ 98.126829592001684, 13.891565846058949 ], [ 98.126982070575195, 13.891730199356205 ], [ 98.127150305223367, 13.89187916062547 ], [ 98.127332675752214, 13.89201129525779 ], [ 98.127527425819252, 13.892125330694379 ], [ 98.127732679848464, 13.892220168683176 ], [ 98.12794646109424, 13.892294895856731 ], [ 98.128069791905673, 13.892325075828886 ], [ 98.128118972558724, 13.892378086387421 ], [ 98.128287207722778, 13.89252704769153 ], [ 98.128321857255855, 13.892552152593476 ], [ 98.128328813357612, 13.892690505916212 ], [ 98.128362126910645, 13.89290991751834 ], [ 98.128417294457336, 13.893125082686197 ], [ 98.128441438365314, 13.893191004443983 ], [ 98.1284353930333, 13.893230815120331 ], [ 98.128424249769594, 13.893452360326682 ], [ 98.128424249654742, 13.89346392972454 ], [ 98.128435388434426, 13.893685474077044 ], [ 98.128468701943689, 13.89390488506405 ], [ 98.128523869420022, 13.894120049652697 ], [ 98.128600359633182, 13.894328895699086 ], [ 98.128658110794163, 13.894448183723162 ], [ 98.1286581814595, 13.894448649138827 ], [ 98.128713349585269, 13.894663814688576 ], [ 98.12872300783134, 13.89469018502826 ], [ 98.128748876700854, 13.894791078140615 ], [ 98.128758689554189, 13.894817870596341 ], [ 98.128760719146541, 13.894825786357101 ], [ 98.128770531994803, 13.894852578794822 ], [ 98.12877256159139, 13.894860494570905 ], [ 98.128849052764465, 13.895069341488414 ], [ 98.128859313061028, 13.895090534489835 ], [ 98.12887273778361, 13.895127188512507 ], [ 98.128882998058188, 13.895148381463137 ], [ 98.128896422802796, 13.895185035536741 ], [ 98.128916426856463, 13.895226354584587 ], [ 98.128918681122855, 13.895235146602515 ], [ 98.128918714837681, 13.895235368654159 ], [ 98.128930523443344, 13.895281424198544 ], [ 98.128930557161496, 13.89528164627213 ], [ 98.128985725488349, 13.895496811821888 ], [ 98.128995538250152, 13.895523603945053 ], [ 98.128997567934064, 13.895531520038514 ], [ 98.129074059331714, 13.895740366956634 ], [ 98.129084319372936, 13.895761559368474 ], [ 98.129097744350773, 13.895798213980571 ], [ 98.129108003156986, 13.895819403836137 ], [ 98.129121426239706, 13.895856053622103 ], [ 98.129218502456681, 13.896056569156414 ], [ 98.129335229966443, 13.896246823893355 ], [ 98.129470484672751, 13.896424985583787 ], [ 98.12962296404433, 13.896589338436169 ], [ 98.129646649587343, 13.896612477401074 ], [ 98.129814888351262, 13.896761441091648 ], [ 98.129997263654644, 13.896893577929822 ], [ 98.130192019078109, 13.897007615313232 ], [ 98.130397278961212, 13.897102454951813 ], [ 98.130611066467253, 13.897177183446207 ], [ 98.130831322623152, 13.897231081085463 ], [ 98.130860589126357, 13.897235322158233 ], [ 98.130890540234006, 13.897242651246479 ], [ 98.131115141822065, 13.897275198386364 ], [ 98.131341927573743, 13.89728608249351 ], [ 98.131448513638816, 13.897286082553963 ], [ 98.131675299421957, 13.89727519870258 ], [ 98.131741893431567, 13.897265548626942 ], [ 98.131781884072993, 13.897263629396312 ], [ 98.132006485768002, 13.89723108253188 ], [ 98.132226740254453, 13.897177186067994 ], [ 98.132440526303697, 13.897102459068076 ], [ 98.132645784987972, 13.897007621210346 ], [ 98.132650855391901, 13.897004652321005 ], [ 98.132669479399112, 13.896996047174067 ], [ 98.13286423508211, 13.896882009894769 ], [ 98.133046610662063, 13.896749873108808 ], [ 98.13321484970939, 13.896600909416167 ], [ 98.133226692308668, 13.896589340120967 ], [ 98.133250377635633, 13.896566201405115 ], [ 98.133274063217527, 13.896543062440212 ], [ 98.133439790371099, 13.896362793184238 ], [ 98.133468304161127, 13.896324145299007 ], [ 98.133475318235767, 13.89631651575022 ], [ 98.133503832024289, 13.896277867866665 ], [ 98.133510846100776, 13.896270238315827 ], [ 98.133534887569027, 13.896237652262146 ], [ 98.133567336712034, 13.896194839109652 ], [ 98.133593744493396, 13.896166114089819 ], [ 98.133738766020429, 13.895969550229635 ], [ 98.133755864790643, 13.895940190196372 ], [ 98.133770621749733, 13.895929498405275 ], [ 98.133784682076822, 13.895921265577174 ], [ 98.133980083498997, 13.89585296437218 ], [ 98.134001782658089, 13.895842938435285 ], [ 98.134039301825766, 13.895829823778801 ], [ 98.134244560334722, 13.895734984889302 ], [ 98.134254193781189, 13.895729344118763 ], [ 98.134430112753023, 13.895667852477533 ], [ 98.134502750862893, 13.895634290344512 ], [ 98.134572221849055, 13.895610007193806 ], [ 98.134777479313144, 13.895515169267634 ], [ 98.134782545428052, 13.89551220286997 ], [ 98.134801164723271, 13.89550359993137 ], [ 98.134806230887179, 13.895500633505195 ], [ 98.134824850238331, 13.895492030540312 ], [ 98.134829918300284, 13.895489063002609 ], [ 98.134848540424301, 13.895480458710241 ], [ 98.134861772981452, 13.895472710513623 ], [ 98.134998561205478, 13.895424897038698 ], [ 98.135134099511504, 13.895362272402622 ], [ 98.135187430750577, 13.895349222078098 ], [ 98.135269284002732, 13.895320610807778 ], [ 98.135388758032946, 13.895291375134306 ], [ 98.135416185338912, 13.89528178809816 ], [ 98.135424286304726, 13.895279805764138 ], [ 98.135638070779194, 13.895205078689781 ], [ 98.135703162096974, 13.895175003631179 ], [ 98.13571608421131, 13.895170486766224 ], [ 98.135716147150731, 13.89515351485519 ] ], [ [ 98.13405733575776, 13.893248995780938 ], [ 98.13377969386967, 13.89324801125726 ], [ 98.13377868590365, 13.893519242358472 ], [ 98.133223401546388, 13.893517272324605 ], [ 98.133222392912757, 13.893788503379776 ], [ 98.132944750443627, 13.893787517869571 ], [ 98.132943741465354, 13.894058748898678 ], [ 98.132110813218958, 13.894055790414875 ], [ 98.132109803250046, 13.894327021377899 ], [ 98.131832160221592, 13.894326034565548 ], [ 98.131833170513502, 13.894054803622533 ], [ 98.131555527829732, 13.894053816514651 ], [ 98.131556538422927, 13.893782585585566 ], [ 98.132667107996141, 13.893786532043832 ], [ 98.132668117275728, 13.893515301028636 ], [ 98.132945759400229, 13.893516286834382 ], [ 98.132946768335174, 13.893245055793107 ], [ 98.133224410158348, 13.893246041263344 ], [ 98.13322541874868, 13.892974810196 ], [ 98.134058343379195, 13.892977764653676 ], [ 98.13405733575776, 13.893248995780938 ] ], [ [ 98.130725634529995, 13.893237160672548 ], [ 98.131003276179712, 13.89323814866693 ], [ 98.131002264983934, 13.893509379568133 ], [ 98.130724623011233, 13.893508391553711 ], [ 98.130725634529995, 13.893237160672548 ] ], [ [ 98.128513628057732, 13.890788168599228 ], [ 98.128235989510117, 13.890787177946031 ], [ 98.128237003717899, 13.89051594718463 ], [ 98.127959365514954, 13.890514956236071 ], [ 98.12796038002385, 13.890243725488689 ], [ 98.127405104329114, 13.890241742685429 ], [ 98.127406119462009, 13.889970511972185 ], [ 98.12879430724773, 13.889975466513979 ], [ 98.128793293729288, 13.890246697327726 ], [ 98.129070931674633, 13.890247687309845 ], [ 98.129069918457319, 13.890518918137586 ], [ 98.129347556747305, 13.890519907824332 ], [ 98.129346543831161, 13.890791138666069 ], [ 98.12962418246579, 13.890792128057427 ], [ 98.129623169850802, 13.891063358913144 ], [ 98.13128900405242, 13.891069288756912 ], [ 98.131287993353197, 13.891340519726819 ], [ 98.131010353942386, 13.891339532188162 ], [ 98.131008331833016, 13.891881994069665 ], [ 98.13073069179805, 13.891881006175458 ], [ 98.130728668955953, 13.892423467992549 ], [ 98.130451028296832, 13.892422479742777 ], [ 98.130450016520257, 13.892693710622149 ], [ 98.129339452809162, 13.892689754387833 ], [ 98.129343504952217, 13.891604831154758 ], [ 98.128788225810666, 13.891602851305196 ], [ 98.128789239437907, 13.891331620521868 ], [ 98.128511600222694, 13.891330630143957 ], [ 98.128513628057732, 13.890788168599228 ] ], [ [ 98.132399560620868, 13.891073235676755 ], [ 98.132954839035136, 13.891075207243874 ], [ 98.132953830273451, 13.891346438333823 ], [ 98.133231469835977, 13.891347423664165 ], [ 98.133229452893474, 13.891889885865778 ], [ 98.132674172498326, 13.89188791480967 ], [ 98.132676190732553, 13.891345452688006 ], [ 98.132120911715774, 13.891343480449953 ], [ 98.13212293115501, 13.890801018383959 ], [ 98.132400570006737, 13.890802004620713 ], [ 98.132399560620868, 13.891073235676755 ] ], [ [ 98.131851352059769, 13.889172645607808 ], [ 98.132128988952488, 13.889173632039963 ], [ 98.132127979373749, 13.889444863112505 ], [ 98.131850342158174, 13.889443876660337 ], [ 98.131851352059769, 13.889172645607808 ] ] ], [ [ [ 98.125749447487934, 13.887523480506784 ], [ 98.125750464339816, 13.887252249853502 ], [ 98.126305732670062, 13.887254235998869 ], [ 98.126307765017074, 13.886711774593472 ], [ 98.126208736586022, 13.886711420483593 ], [ 98.12605838022462, 13.886844549252144 ], [ 98.126046537453163, 13.886856118578921 ], [ 98.12589405700119, 13.887020470271564 ], [ 98.125758800323084, 13.887198631595393 ], [ 98.12564207005353, 13.887388886757662 ], [ 98.12557720528477, 13.887522864143563 ], [ 98.125749447487934, 13.887523480506784 ] ] ] ] } },
{ "type": "Feature", "properties": { "zone": "B", "alpha_deg": 13.2, "label": "Within reach only of a channelised flow (alpha 13.2 deg)" }, "geometry": { "type": "MultiPolygon", "coordinates": [ [ [ [ 98.137008065883492, 13.894615613976111 ], [ 98.13714210211046, 13.894568762248149 ], [ 98.137250763279113, 13.894518555831814 ], [ 98.137259096141975, 13.894516516751084 ], [ 98.137288361679751, 13.894512275839 ], [ 98.137384495496789, 13.894488751552432 ], [ 98.13738502490159, 13.894345710859113 ], [ 98.137107381462428, 13.894344730042116 ], [ 98.137108385617395, 13.89407349871999 ], [ 98.13683074252279, 13.894072517607341 ], [ 98.136831746979198, 13.893801286299025 ], [ 98.136554104229148, 13.893800304890741 ], [ 98.136553099449756, 13.894071536179158 ], [ 98.135997813368377, 13.894069572376164 ], [ 98.135994153099759, 13.895056945248626 ], [ 98.1359609925006, 13.895068536343565 ], [ 98.136099938686357, 13.895019968472289 ], [ 98.136272233009095, 13.89494036077463 ], [ 98.136273446128797, 13.894613016954187 ], [ 98.137008065883492, 13.894615613976111 ] ] ], [ [ [ 98.13738703254397, 13.893803248168993 ], [ 98.137388036332837, 13.893532016814811 ], [ 98.13711039386267, 13.893531036057482 ], [ 98.137109389750805, 13.893802267391777 ], [ 98.13738703254397, 13.893803248168993 ] ] ], [ [ [ 98.137665678824575, 13.893532997256616 ], [ 98.137666682268915, 13.893261765876462 ], [ 98.13738904010016, 13.893260785454544 ], [ 98.137388036332837, 13.893532016814811 ], [ 98.137665678824575, 13.893532997256616 ] ] ], [ [ [ 98.137944324459198, 13.893262745982859 ], [ 98.137945327559038, 13.89299151457675 ], [ 98.137667685691724, 13.892990534490226 ], [ 98.137666682268915, 13.893261765876462 ], [ 98.137944324459198, 13.893262745982859 ] ] ], [ [ [ 98.13766868909299, 13.892719303097907 ], [ 98.13739104757019, 13.892718322715757 ], [ 98.13739004384594, 13.89298955408819 ], [ 98.137667685691724, 13.892990534490226 ], [ 98.13766868909299, 13.892719303097907 ] ] ], [ [ [ 98.137114410094554, 13.892446110659462 ], [ 98.137947333694115, 13.892449051746274 ], [ 98.137949339743074, 13.891906588891468 ], [ 98.138226980340107, 13.891907568582994 ], [ 98.138227983009358, 13.891636337126599 ], [ 98.13850562330498, 13.891637316482774 ], [ 98.138506625629759, 13.891366085000426 ], [ 98.137951345705901, 13.891364126012325 ], [ 98.137956360236174, 13.890007968708025 ], [ 98.137678721921077, 13.890006988840135 ], [ 98.13767972508542, 13.889735757380905 ], [ 98.137402087114751, 13.889734777217457 ], [ 98.137403090580449, 13.889463545772026 ], [ 98.137680728228233, 13.88946452591559 ], [ 98.137681731349502, 13.889193294444192 ], [ 98.137404094024589, 13.889192314320507 ], [ 98.137406100848253, 13.888649851399229 ], [ 98.136850827554511, 13.888647890285155 ], [ 98.136853839565489, 13.887834195976973 ], [ 98.137131475233048, 13.887835176632032 ], [ 98.137135489654611, 13.886750250723061 ], [ 98.136857855278336, 13.886749270147584 ], [ 98.136858859152653, 13.88647803867503 ], [ 98.136581225120736, 13.886477057804083 ], [ 98.136579216704931, 13.887019520703303 ], [ 98.136301582048972, 13.887018539477179 ], [ 98.136300577485898, 13.887289770897759 ], [ 98.135745307593055, 13.887287807459565 ], [ 98.135747317988873, 13.886745344691992 ], [ 98.135469683720459, 13.886744362539677 ], [ 98.135470689208802, 13.886473131166694 ], [ 98.135193055284773, 13.886472148718946 ], [ 98.135194061074316, 13.886200917359812 ], [ 98.136304595608735, 13.88620484517895 ], [ 98.136305600085535, 13.885933613734045 ], [ 98.136027966742333, 13.885932632272207 ], [ 98.136029976276745, 13.885390169403975 ], [ 98.135752343600686, 13.885389187666629 ], [ 98.135753348658298, 13.885117956243311 ], [ 98.135475716326596, 13.885116974210558 ], [ 98.135476721685393, 13.884845742801085 ], [ 98.135199089698048, 13.884844760472932 ], [ 98.135200095357987, 13.884573529077313 ], [ 98.135477727022575, 13.884574511385532 ], [ 98.13547973763221, 13.884032048536186 ], [ 98.135202106613093, 13.884031066267834 ], [ 98.135205123333776, 13.883217372008007 ], [ 98.13492749330446, 13.883216389484167 ], [ 98.134929504989003, 13.88267392665376 ], [ 98.134651875626702, 13.882672943854528 ], [ 98.134654893959578, 13.881859249623151 ], [ 98.134932522353822, 13.881860232362548 ], [ 98.134934533822332, 13.881317769471345 ], [ 98.134656906073459, 13.881316786771832 ], [ 98.134657912097978, 13.881045555337057 ], [ 98.134380284693364, 13.88104457234226 ], [ 98.134382032124392, 13.880573589620449 ], [ 98.134189735382108, 13.880686188062878 ], [ 98.134150312427195, 13.880714751302962 ], [ 98.133958132326853, 13.880803548433244 ], [ 98.133923756012265, 13.880823677336174 ], [ 98.133855439815306, 13.880847557911538 ], [ 98.133848859605322, 13.880850598397048 ], [ 98.133749622427075, 13.880885287708818 ], [ 98.133585967711966, 13.880893142133642 ], [ 98.133547960429283, 13.880891419420927 ], [ 98.133547402609281, 13.881041621466483 ], [ 98.132714520719944, 13.881038667753623 ], [ 98.132714955727437, 13.880921647585941 ], [ 98.132686757991095, 13.880925660224513 ], [ 98.132470197143306, 13.880977675518245 ], [ 98.132296620545759, 13.88103718465308 ], [ 98.132436893466789, 13.881037682552209 ], [ 98.132435884860953, 13.881308913827201 ], [ 98.132991140034235, 13.881310883954782 ], [ 98.132987107975708, 13.882395809153882 ], [ 98.132709479087509, 13.882394824167751 ], [ 98.132704436913613, 13.883750980429875 ], [ 98.132982067415369, 13.883751965515955 ], [ 98.132980051039667, 13.884294428018215 ], [ 98.133257682208523, 13.884295412828971 ], [ 98.133256674310942, 13.884566644090965 ], [ 98.133534305824213, 13.884567628606387 ], [ 98.133531282969855, 13.885381322415814 ], [ 98.13380891547304, 13.885382306675831 ], [ 98.133807908134429, 13.88565353795345 ], [ 98.134085540982014, 13.8856545219181 ], [ 98.134084533944559, 13.885925753209603 ], [ 98.134362167136558, 13.885926736878874 ], [ 98.134360153642319, 13.886469199483543 ], [ 98.134637787501532, 13.886470182877369 ], [ 98.134636781044776, 13.886741414190539 ], [ 98.135192049473631, 13.886743380071996 ], [ 98.135191043640887, 13.887014611418962 ], [ 98.13491340909286, 13.887013628615978 ], [ 98.134911396716944, 13.887556091251792 ], [ 98.135466667125897, 13.887558056622138 ], [ 98.135465661551194, 13.887829287970792 ], [ 98.135743297110892, 13.887830270202814 ], [ 98.135741286542398, 13.888372732921733 ], [ 98.136018922769381, 13.888373714878202 ], [ 98.136012892483024, 13.890001103008505 ], [ 98.136290530668788, 13.890002084769053 ], [ 98.136288521046509, 13.890544547470322 ], [ 98.136566159899644, 13.890545528955242 ], [ 98.136562141687861, 13.891630454364412 ], [ 98.136284501543074, 13.891629472799861 ], [ 98.136283496613274, 13.891900704117036 ], [ 98.136005856167117, 13.891899722217088 ], [ 98.136006861419844, 13.891628490919826 ], [ 98.135729221318186, 13.89162750872431 ], [ 98.135728215742517, 13.891898740001652 ], [ 98.135172934958121, 13.891896774624316 ], [ 98.135171928714968, 13.892168005855712 ], [ 98.134616647371089, 13.892166039176539 ], [ 98.134615640460453, 13.892437270361963 ], [ 98.134337999497987, 13.892436286529184 ], [ 98.13433699224278, 13.892707517688571 ], [ 98.134059350978973, 13.892706533520331 ], [ 98.134058343379195, 13.892977764653676 ], [ 98.13461362657435, 13.892979732714563 ], [ 98.134614633528216, 13.892708501541307 ], [ 98.135725198886007, 13.892712433797174 ], [ 98.135723187540393, 13.893254896297101 ], [ 98.136278471640708, 13.893256860611665 ], [ 98.136279476678368, 13.892985629324903 ], [ 98.136834760219031, 13.892987592337576 ], [ 98.136835764589193, 13.892716361004924 ], [ 98.137113406068906, 13.892717342018093 ], [ 98.137114410094554, 13.892446110659462 ] ] ], [ [ [ 98.130039994595194, 13.883664415550562 ], [ 98.129871763642754, 13.88381337488808 ], [ 98.129811947444978, 13.883877849810226 ], [ 98.129803158608894, 13.883884217588536 ], [ 98.129763596888068, 13.883919246447876 ], [ 98.129732080646519, 13.883942081436995 ], [ 98.129563849506724, 13.884091040760149 ], [ 98.129411373290864, 13.88425539212961 ], [ 98.129371035412561, 13.884308526887089 ], [ 98.129391424071642, 13.884281670088056 ], [ 98.129648478704112, 13.884282585695212 ], [ 98.129645442359049, 13.885096278682092 ], [ 98.130200706134445, 13.885098255676006 ], [ 98.130202729095203, 13.884555793610604 ], [ 98.130480360369987, 13.884556781594476 ], [ 98.130482382598359, 13.884014319464656 ], [ 98.13020475196906, 13.884013331520878 ], [ 98.13020650291368, 13.883543772250047 ], [ 98.130039994595194, 13.883664415550562 ] ] ], [ [ [ 98.126584606557401, 13.886378653328734 ], [ 98.126546370471686, 13.886406356491575 ], [ 98.126378138248512, 13.886555312962098 ], [ 98.126366295477055, 13.886566882288875 ], [ 98.126288446520562, 13.886650792161243 ], [ 98.126226612687802, 13.886695592580175 ], [ 98.126208736586022, 13.886711420483593 ], [ 98.126307765017074, 13.886711774593472 ], [ 98.126306748854475, 13.886983005299211 ], [ 98.126584382729504, 13.886983997878692 ], [ 98.12658641438729, 13.886441536420856 ], [ 98.126586656693348, 13.88637683809225 ], [ 98.126605584806313, 13.886360078713098 ], [ 98.126584606557401, 13.886378653328734 ] ] ], [ [ [ 98.135764152401947, 13.895153684746093 ], [ 98.135716147150731, 13.89515351485519 ], [ 98.13571608421131, 13.895170486766224 ], [ 98.135703162096974, 13.895175003631179 ], [ 98.135764152401947, 13.895153684746093 ] ] ], [ [ [ 98.129620131875399, 13.891877051443787 ], [ 98.129342491949075, 13.891876061972157 ], [ 98.129339452809162, 13.892689754387833 ], [ 98.12961709370434, 13.892690743919669 ], [ 98.129620131875399, 13.891877051443787 ] ] ], [ [ [ 98.128793293729288, 13.890246697327726 ], [ 98.12879430724773, 13.889975466513979 ], [ 98.127406119462009, 13.889970511972185 ], [ 98.127405104329114, 13.890241742685429 ], [ 98.12796038002385, 13.890243725488689 ], [ 98.127959365514954, 13.890514956236071 ], [ 98.128237003717899, 13.89051594718463 ], [ 98.128235989510117, 13.890787177946031 ], [ 98.128513628057732, 13.890788168599228 ], [ 98.128511600222694, 13.891330630143957 ], [ 98.128789239437907, 13.891331620521868 ], [ 98.128793293729288, 13.890246697327726 ] ] ], [ [ [ 98.136605319382753, 13.879967501116321 ], [ 98.136604315703124, 13.880238732714892 ], [ 98.13632668911535, 13.88023775198644 ], [ 98.136325685091535, 13.880508983559023 ], [ 98.136880938933928, 13.880510944740525 ], [ 98.13687792866898, 13.881324639541234 ], [ 98.137710812498156, 13.881327579128317 ], [ 98.137711814973358, 13.881056347474502 ], [ 98.138267070321831, 13.881058305583284 ], [ 98.138266068491944, 13.881329537276848 ], [ 98.138821324571822, 13.881331494164415 ], [ 98.138823326919393, 13.880789030691783 ], [ 98.138933685173996, 13.880789419461966 ], [ 98.138926425755699, 13.880777587486554 ], [ 98.138926231589465, 13.88077733172854 ], [ 98.138890896796681, 13.880719740291607 ], [ 98.138755638779543, 13.880541576697997 ], [ 98.138603156971854, 13.880377223529688 ], [ 98.138591314180971, 13.880365654202878 ], [ 98.138547402671463, 13.880326774032062 ], [ 98.13854670097821, 13.88051682071975 ], [ 98.137991446877336, 13.880514863320888 ], [ 98.137992448965278, 13.880243631628957 ], [ 98.138455344235396, 13.880245263497839 ], [ 98.138423086734463, 13.880216701986493 ], [ 98.138240725817369, 13.880084575769798 ], [ 98.138045987555003, 13.879970547901397 ], [ 98.137840747255041, 13.879875716443969 ], [ 98.137626981349342, 13.879800994600982 ], [ 98.137406748362281, 13.879747101923535 ], [ 98.137182169088831, 13.879714557381876 ], [ 98.136955406173442, 13.879703674368422 ], [ 98.136908035507474, 13.879703674395124 ], [ 98.136883920958311, 13.879704831791441 ], [ 98.136882945669456, 13.87996848150966 ], [ 98.136605319382753, 13.879967501116321 ] ] ], [ [ [ 98.140205466648197, 13.882421308135678 ], [ 98.140483096118572, 13.882422284609671 ], [ 98.140482096762696, 13.882693516431548 ], [ 98.140759726577215, 13.882694492610089 ], [ 98.140760771981022, 13.882410671264495 ], [ 98.140650502662865, 13.882265423248741 ], [ 98.14049802099116, 13.882101070299852 ], [ 98.140486178081858, 13.88208950085733 ], [ 98.140474335174048, 13.882077931416285 ], [ 98.140462492383179, 13.882066362089482 ], [ 98.140374244750916, 13.881984570220428 ], [ 98.140255817009503, 13.881880446324404 ], [ 98.140253921443303, 13.881879007921594 ], [ 98.140207465940918, 13.88187884451332 ], [ 98.140205466648197, 13.882421308135678 ] ] ], [ [ [ 98.12547080244785, 13.887791954626826 ], [ 98.125470157575293, 13.887793715283378 ], [ 98.125470795836208, 13.88779371756792 ], [ 98.12547080244785, 13.887791954626826 ] ] ], [ [ [ 98.13322541874868, 13.892974810196 ], [ 98.133224410158348, 13.893246041263344 ], [ 98.132946768335174, 13.893245055793107 ], [ 98.132945759400229, 13.893516286834382 ], [ 98.132668117275728, 13.893515301028636 ], [ 98.132667107996141, 13.893786532043832 ], [ 98.131556538422927, 13.893782585585566 ], [ 98.131555527829732, 13.894053816514651 ], [ 98.131833170513502, 13.894054803622533 ], [ 98.131832160221592, 13.894326034565548 ], [ 98.132109803250046, 13.894327021377899 ], [ 98.132110813218958, 13.894055790414875 ], [ 98.132943741465354, 13.894058748898678 ], [ 98.132944750443627, 13.893787517869571 ], [ 98.133222392912757, 13.893788503379776 ], [ 98.133223401546388, 13.893517272324605 ], [ 98.13377868590365, 13.893519242358472 ], [ 98.13377969386967, 13.89324801125726 ], [ 98.13405733575776, 13.893248995780938 ], [ 98.134058343379195, 13.892977764653676 ], [ 98.13322541874868, 13.892974810196 ] ] ], [ [ [ 98.130724623011233, 13.893508391553711 ], [ 98.131002264983934, 13.893509379568133 ], [ 98.131003276179712, 13.89323814866693 ], [ 98.130725634529995, 13.893237160672548 ], [ 98.130724623011233, 13.893508391553711 ] ] ], [ [ [ 98.132400570006737, 13.890802004620713 ], [ 98.13212293115501, 13.890801018383959 ], [ 98.132120911715774, 13.891343480449953 ], [ 98.132676190732553, 13.891345452688006 ], [ 98.132674172498326, 13.89188791480967 ], [ 98.133229452893474, 13.891889885865778 ], [ 98.133231469835977, 13.891347423664165 ], [ 98.132953830273451, 13.891346438333823 ], [ 98.132954839035136, 13.891075207243874 ], [ 98.132399560620868, 13.891073235676755 ], [ 98.132400570006737, 13.890802004620713 ] ] ] ] } }
]
}
