{
"type": "FeatureCollection",
"name": "buildings",
"crs": { "type": "name", "properties": { "name": "urn:ogc:def:crs:OGC:1.3:CRS84" } },
"features": [
{ "type": "Feature", "properties": { "bid": "TZW-B0000", "source": "OSM", "src_id": "581536222", "area_m2": 107.1, "overlap": 0.0, "overlap_outwash": 0.458, "dist_m": 196.1, "landslide": "", "f_veg": 0.009, "f_soil": 0.286, "f_grey": 0.681, "f_dark": 0.024, "status": "clear", "status_auto": "outwash", "note": "Chip review: roof standing; the pale yard around it was already bare sand on 10 Jan, no fresh sediment against it.", "reach": "B" }, "geometry": { "type": "Polygon", "coordinates": [ [ [ 98.098042159504558, 13.908993141296913 ], [ 98.098134159507438, 13.909009141303219 ], [ 98.098151559515102, 13.908914741304917 ], [ 98.098059559512208, 13.908898741298605 ], [ 98.098042159504558, 13.908993141296913 ] ] ] } },
{ "type": "Feature", "properties": { "bid": "TZW-B0001", "source": "OSM", "src_id": "581536274", "area_m2": 293.7, "overlap": null, "overlap_outwash": null, "dist_m": null, "landslide": null, "f_veg": null, "f_soil": null, "f_grey": null, "f_dark": null, "status": "not_surveyed", "status_auto": "not_surveyed", "note": "", "reach": "" }, "geometry": { "type": "Polygon", "coordinates": [ [ [ 98.0974267, 13.9064773 ], [ 98.0976691, 13.9064898 ], [ 98.0976747, 13.9063887 ], [ 98.0974323, 13.9063762 ], [ 98.0974267, 13.9064773 ] ] ] } },
{ "type": "Feature", "properties": { "bid": "TZW-B0002", "source": "OSM", "src_id": "581536276", "area_m2": 23.2, "overlap": null, "overlap_outwash": null, "dist_m": null, "landslide": null, "f_veg": null, "f_soil": null, "f_grey": null, "f_dark": null, "status": "not_surveyed", "status_auto": "not_surveyed", "note": "", "reach": "" }, "geometry": { "type": "Polygon", "coordinates": [ [ [ 98.097766, 13.9064708 ], [ 98.0978049, 13.9064728 ], [ 98.0978076, 13.9064229 ], [ 98.0977688, 13.9064209 ], [ 98.097766, 13.9064708 ] ] ] } },
{ "type": "Feature", "properties": { "bid": "TZW-B0003", "source": "OSM", "src_id": "581536278", "area_m2": 209.9, "overlap": 0.0, "overlap_outwash": 0.0, "dist_m": 64.8, "landslide": "", "f_veg": 0.0, "f_soil": 0.122, "f_grey": 0.878, "f_dark": 0.0, "status": "clear", "status_auto": "clear", "note": "", "reach": "" }, "geometry": { "type": "Polygon", "coordinates": [ [ [ 98.097822259676335, 13.906501541294435 ], [ 98.09780575966407, 13.906660041292474 ], [ 98.097915459668116, 13.906670841300039 ], [ 98.097931859680386, 13.906512241301998 ], [ 98.097822259676335, 13.906501541294435 ] ] ] } },
{ "type": "Feature", "properties": { "bid": "TZW-B0004", "source": "OSM", "src_id": "581536280", "area_m2": 69.2, "overlap": 0.0, "overlap_outwash": 0.0, "dist_m": 77.3, "landslide": "", "f_veg": 0.0, "f_soil": 0.035, "f_grey": 0.965, "f_dark": 0.0, "status": "clear", "status_auto": "clear", "note": "", "reach": "" }, "geometry": { "type": "Polygon", "coordinates": [ [ [ 98.097725659657684, 13.906699441286708 ], [ 98.097880959663414, 13.90671464129742 ], [ 98.097884859666266, 13.90667774129788 ], [ 98.097729459660528, 13.906662541287158 ], [ 98.097725659657684, 13.906699441286708 ] ] ] } },
{ "type": "Feature", "properties": { "bid": "TZW-B0005", "source": "OSM", "src_id": "581536281", "area_m2": 268.9, "overlap": null, "overlap_outwash": null, "dist_m": null, "landslide": null, "f_veg": null, "f_soil": null, "f_grey": null, "f_dark": null, "status": "not_surveyed", "status_auto": "not_surveyed", "note": "", "reach": "" }, "geometry": { "type": "Polygon", "coordinates": [ [ [ 98.0974888, 13.9066986 ], [ 98.0977196, 13.9067264 ], [ 98.0977319, 13.9066304 ], [ 98.0975011, 13.9066026 ], [ 98.0974888, 13.9066986 ] ] ] } },
{ "type": "Feature", "properties": { "bid": "TZW-B0006", "source": "OSM", "src_id": "581536282", "area_m2": 49.9, "overlap": 0.0, "overlap_outwash": 0.0, "dist_m": 44.9, "landslide": "", "f_veg": 0.014, "f_soil": 0.264, "f_grey": 0.715, "f_dark": 0.007, "status": "clear", "status_auto": "clear", "note": "", "reach": "A" }, "geometry": { "type": "Polygon", "coordinates": [ [ [ 98.098464659340124, 13.911506241313361 ], [ 98.09851425934022, 13.911534841316664 ], [ 98.098552359346428, 13.911472641319634 ], [ 98.098502759346331, 13.911444041316335 ], [ 98.098464659340124, 13.911506241313361 ] ] ] } },
{ "type": "Feature", "properties": { "bid": "TZW-B0007", "source": "OSM", "src_id": "581536283", "area_m2": 83.4, "overlap": 0.0, "overlap_outwash": 0.354, "dist_m": 39.5, "landslide": "", "f_veg": 0.22, "f_soil": 0.514, "f_grey": 0.266, "f_dark": 0.0, "status": "outwash", "status_auto": "outwash", "note": "", "reach": "A" }, "geometry": { "type": "Polygon", "coordinates": [ [ [ 98.098971559370469, 13.911396241349163 ], [ 98.099053359379781, 13.911318141355251 ], [ 98.099009459380994, 13.911274741352422 ], [ 98.098927659371697, 13.911352841346337 ], [ 98.098971559370469, 13.911396241349163 ] ] ] } },
{ "type": "Feature", "properties": { "bid": "TZW-B0008", "source": "OSM", "src_id": "581536284", "area_m2": 49.4, "overlap": 0.0, "overlap_outwash": 0.048, "dist_m": 73.2, "landslide": "", "f_veg": 0.073, "f_soil": 0.0, "f_grey": 0.927, "f_dark": 0.0, "status": "clear", "status_auto": "clear", "note": "", "reach": "A" }, "geometry": { "type": "Polygon", "coordinates": [ [ [ 98.098766359381628, 13.911118941336328 ], [ 98.098851559391633, 13.911033041342691 ], [ 98.098826559392236, 13.91100974134107 ], [ 98.098741359382217, 13.911095641334709 ], [ 98.098766359381628, 13.911118941336328 ] ] ] } },
{ "type": "Feature", "properties": { "bid": "TZW-B0009", "source": "OSM", "src_id": "581536285", "area_m2": 77.2, "overlap": 0.0, "overlap_outwash": 0.163, "dist_m": 78.1, "landslide": "", "f_veg": 0.011, "f_soil": 0.0, "f_grey": 0.989, "f_dark": 0.0, "status": "clear", "status_auto": "clear", "note": "", "reach": "A" }, "geometry": { "type": "Polygon", "coordinates": [ [ [ 98.098711459384901, 13.911040741332915 ], [ 98.098751959384074, 13.911076541335543 ], [ 98.09883375939404, 13.910989341341677 ], [ 98.098793259394867, 13.910953541339046 ], [ 98.098711459384901, 13.911040741332915 ] ] ] } },
{ "type": "Feature", "properties": { "bid": "TZW-B0010", "source": "OSM", "src_id": "581536286", "area_m2": 137.9, "overlap": 0.0, "overlap_outwash": 0.195, "dist_m": 89.7, "landslide": "", "f_veg": 0.0, "f_soil": 0.021, "f_grey": 0.979, "f_dark": 0.0, "status": "clear", "status_auto": "clear", "note": "", "reach": "A" }, "geometry": { "type": "Polygon", "coordinates": [ [ [ 98.098630559388567, 13.910941641327797 ], [ 98.098690159387971, 13.910985841331708 ], [ 98.098786259401123, 13.910863541339021 ], [ 98.098726559401698, 13.910819341335095 ], [ 98.098630559388567, 13.910941641327797 ] ] ] } },
{ "type": "Feature", "properties": { "bid": "TZW-B0011", "source": "OSM", "src_id": "581536287", "area_m2": 94.3, "overlap": 0.0, "overlap_outwash": 0.342, "dist_m": 119.4, "landslide": "", "f_veg": 0.007, "f_soil": 0.237, "f_grey": 0.756, "f_dark": 0.0, "status": "outwash", "status_auto": "outwash", "note": "", "reach": "B" }, "geometry": { "type": "Polygon", "coordinates": [ [ [ 98.098806959418837, 13.910632741341646 ], [ 98.098853659417557, 13.910678641344658 ], [ 98.098940759427464, 13.910595341351135 ], [ 98.098894159428752, 13.910549341348135 ], [ 98.098806959418837, 13.910632741341646 ] ] ] } },
{ "type": "Feature", "properties": { "bid": "TZW-B0012", "source": "OSM", "src_id": "581536288", "area_m2": 82.9, "overlap": 0.0, "overlap_outwash": 0.492, "dist_m": 132.8, "landslide": "", "f_veg": 0.0, "f_soil": 0.339, "f_grey": 0.661, "f_dark": 0.0, "status": "outwash", "status_auto": "outwash", "note": "", "reach": "B" }, "geometry": { "type": "Polygon", "coordinates": [ [ [ 98.098714759423018, 13.91051944133582 ], [ 98.098766459421824, 13.910567341339167 ], [ 98.098835459429978, 13.910497041344325 ], [ 98.098783759431186, 13.910449141340976 ], [ 98.098714759423018, 13.91051944133582 ] ] ] } },
{ "type": "Feature", "properties": { "bid": "TZW-B0013", "source": "OSM", "src_id": "581536289", "area_m2": 49.4, "overlap": 0.0, "overlap_outwash": 0.002, "dist_m": 126.2, "landslide": "", "f_veg": 0.124, "f_soil": 0.054, "f_grey": 0.713, "f_dark": 0.109, "status": "clear", "status_auto": "clear", "note": "", "reach": "A" }, "geometry": { "type": "Polygon", "coordinates": [ [ [ 98.098444459399076, 13.910684841316186 ], [ 98.098487459399152, 13.910709641319043 ], [ 98.098531059406241, 13.910638741322439 ], [ 98.098488059406151, 13.910613841319575 ], [ 98.098444459399076, 13.910684841316186 ] ] ] } },
{ "type": "Feature", "properties": { "bid": "TZW-B0014", "source": "OSM", "src_id": "581536290", "area_m2": 73.1, "overlap": 0.0, "overlap_outwash": 0.507, "dist_m": 139.6, "landslide": "", "f_veg": 0.001, "f_soil": 0.067, "f_grey": 0.932, "f_dark": 0.0, "status": "clear", "status_auto": "outwash", "note": "Chip review: roof standing; the pale yard around it was already bare sand on 10 Jan, no fresh sediment against it.", "reach": "A" }, "geometry": { "type": "Polygon", "coordinates": [ [ [ 98.098303659399505, 13.910593641306862 ], [ 98.09835785939876, 13.910636641310411 ], [ 98.098414859406205, 13.910568941314718 ], [ 98.09836065940695, 13.910526041311172 ], [ 98.098303659399505, 13.910593641306862 ] ] ] } },
{ "type": "Feature", "properties": { "bid": "TZW-B0015", "source": "OSM", "src_id": "581536291", "area_m2": 81.9, "overlap": 0.0, "overlap_outwash": 0.275, "dist_m": 158.5, "landslide": "", "f_veg": 0.011, "f_soil": 0.235, "f_grey": 0.745, "f_dark": 0.01, "status": "clear", "status_auto": "clear", "note": "", "reach": "B" }, "geometry": { "type": "Polygon", "coordinates": [ [ [ 98.098364659413136, 13.91044334131187 ], [ 98.098409659419616, 13.910381541315321 ], [ 98.098335659420059, 13.910330841310437 ], [ 98.098290759413587, 13.910392641306997 ], [ 98.098364659413136, 13.91044334131187 ] ] ] } },
{ "type": "Feature", "properties": { "bid": "TZW-B0016", "source": "OSM", "src_id": "581536292", "area_m2": 150.7, "overlap": 0.0, "overlap_outwash": 0.476, "dist_m": 233.3, "landslide": "", "f_veg": 0.003, "f_soil": 0.182, "f_grey": 0.799, "f_dark": 0.016, "status": "clear", "status_auto": "outwash", "note": "Chip review: roof standing; the pale yard around it was already bare sand on 10 Jan, no fresh sediment against it.", "reach": "B" }, "geometry": { "type": "Polygon", "coordinates": [ [ [ 98.097943959444905, 13.909752741286184 ], [ 98.098021459444908, 13.909799841291333 ], [ 98.098096859456732, 13.909682941297168 ], [ 98.098019359456757, 13.909635841292026 ], [ 98.097943959444905, 13.909752741286184 ] ] ] } },
{ "type": "Feature", "properties": { "bid": "TZW-B0017", "source": "OSM", "src_id": "581536293", "area_m2": 94.6, "overlap": 0.0, "overlap_outwash": 0.086, "dist_m": 245.2, "landslide": "", "f_veg": 0.107, "f_soil": 0.008, "f_grey": 0.755, "f_dark": 0.131, "status": "clear", "status_auto": "clear", "note": "", "reach": "" }, "geometry": { "type": "Polygon", "coordinates": [ [ [ 98.097735759450472, 13.909550341272746 ], [ 98.097802759450303, 13.909593241277189 ], [ 98.097858759458774, 13.909510941281502 ], [ 98.097791659458935, 13.909468041277055 ], [ 98.097735759450472, 13.909550341272746 ] ] ] } },
{ "type": "Feature", "properties": { "bid": "TZW-B0018", "source": "OSM", "src_id": "581536294", "area_m2": 76.6, "overlap": 0.0, "overlap_outwash": 0.349, "dist_m": 219.4, "landslide": "", "f_veg": 0.0, "f_soil": 0.556, "f_grey": 0.382, "f_dark": 0.062, "status": "outwash", "status_auto": "outwash", "note": "", "reach": "B" }, "geometry": { "type": "Polygon", "coordinates": [ [ [ 98.098168259471947, 13.909517141302979 ], [ 98.098216659471916, 13.909546941306195 ], [ 98.098278359481512, 13.909452541310964 ], [ 98.098229959481557, 13.909422741307752 ], [ 98.098168259471947, 13.909517141302979 ] ] ] } },
{ "type": "Feature", "properties": { "bid": "TZW-B0019", "source": "OSM", "src_id": "581536295", "area_m2": 66.3, "overlap": 0.0, "overlap_outwash": 0.272, "dist_m": 231.7, "landslide": "", "f_veg": 0.004, "f_soil": 0.43, "f_grey": 0.529, "f_dark": 0.037, "status": "clear", "status_auto": "clear", "note": "", "reach": "B" }, "geometry": { "type": "Polygon", "coordinates": [ [ [ 98.098079759472228, 13.909459841297123 ], [ 98.09812505947248, 13.909483841300156 ], [ 98.098178059481697, 13.90938944130432 ], [ 98.098132659481436, 13.909365441301288 ], [ 98.098079759472228, 13.909459841297123 ] ] ] } },
{ "type": "Feature", "properties": { "bid": "TZW-B0020", "source": "OSM", "src_id": "581536296", "area_m2": 61.8, "overlap": 0.0, "overlap_outwash": 0.146, "dist_m": 238.9, "landslide": "", "f_veg": 0.033, "f_soil": 0.755, "f_grey": 0.188, "f_dark": 0.024, "status": "clear", "status_auto": "clear", "note": "", "reach": "B" }, "geometry": { "type": "Polygon", "coordinates": [ [ [ 98.097993259473455, 13.909390841291467 ], [ 98.098042659473521, 13.909419741294755 ], [ 98.098090259481197, 13.909342941298457 ], [ 98.098040859481145, 13.909314041295172 ], [ 98.097993259473455, 13.909390841291467 ] ] ] } },
{ "type": "Feature", "properties": { "bid": "TZW-B0021", "source": "OSM", "src_id": "581536297", "area_m2": 56.3, "overlap": 0.0, "overlap_outwash": 0.464, "dist_m": 233.3, "landslide": "", "f_veg": 0.0, "f_soil": 0.0, "f_grey": 1.0, "f_dark": 0.0, "status": "clear", "status_auto": "outwash", "note": "Chip review: roof standing; the pale yard around it was already bare sand on 10 Jan, no fresh sediment against it.", "reach": "B" }, "geometry": { "type": "Polygon", "coordinates": [ [ [ 98.097951659477403, 13.909311441288986 ], [ 98.097993459477536, 13.909334841291772 ], [ 98.098043759485918, 13.909250241295702 ], [ 98.098001959485771, 13.909226841292915 ], [ 98.097951659477403, 13.909311441288986 ] ] ] } },
{ "type": "Feature", "properties": { "bid": "TZW-B0022", "source": "OSM", "src_id": "581536298", "area_m2": 128.4, "overlap": 0.0, "overlap_outwash": 0.328, "dist_m": 233.0, "landslide": "", "f_veg": 0.015, "f_soil": 0.769, "f_grey": 0.195, "f_dark": 0.021, "status": "outwash", "status_auto": "outwash", "note": "", "reach": "B" }, "geometry": { "type": "Polygon", "coordinates": [ [ [ 98.097878559475262, 13.909296441283979 ], [ 98.097947659486607, 13.909182541289372 ], [ 98.097877559486435, 13.909142541284702 ], [ 98.097808559475098, 13.909256441279323 ], [ 98.097878559475262, 13.909296441283979 ] ] ] } },
{ "type": "Feature", "properties": { "bid": "TZW-B0023", "source": "OSM", "src_id": "581536299", "area_m2": 105.6, "overlap": 0.0, "overlap_outwash": 0.437, "dist_m": 206.1, "landslide": "", "f_veg": 0.0, "f_soil": 0.202, "f_grey": 0.794, "f_dark": 0.005, "status": "clear", "status_auto": "outwash", "note": "Chip review: roof standing; the pale yard around it was already bare sand on 10 Jan, no fresh sediment against it.", "reach": "B" }, "geometry": { "type": "Polygon", "coordinates": [ [ [ 98.098126759494306, 13.909184941301806 ], [ 98.098192359497418, 13.909182241306384 ], [ 98.098186459506934, 13.90904794130666 ], [ 98.098120759503828, 13.909050641302079 ], [ 98.098126759494306, 13.909184941301806 ] ] ] } },
{ "type": "Feature", "properties": { "bid": "TZW-B0024", "source": "OSM", "src_id": "581536300", "area_m2": 107.6, "overlap": 0.0, "overlap_outwash": 0.355, "dist_m": 212.6, "landslide": "", "f_veg": 0.077, "f_soil": 0.031, "f_grey": 0.842, "f_dark": 0.051, "status": "clear", "status_auto": "outwash", "note": "Chip review: roof standing; the pale yard around it was already bare sand on 10 Jan, no fresh sediment against it.", "reach": "B" }, "geometry": { "type": "Polygon", "coordinates": [ [ [ 98.097783359491032, 13.90902244127877 ], [ 98.097849759492377, 13.909044141283276 ], [ 98.097892059503096, 13.90892244128684 ], [ 98.097825559501743, 13.908900741282331 ], [ 98.097783359491032, 13.90902244127877 ] ] ] } },
{ "type": "Feature", "properties": { "bid": "TZW-B0025", "source": "OSM", "src_id": "581536301", "area_m2": 55.8, "overlap": 0.0, "overlap_outwash": 0.082, "dist_m": 237.5, "landslide": "", "f_veg": 0.057, "f_soil": 0.0, "f_grey": 0.924, "f_dark": 0.019, "status": "clear", "status_auto": "clear", "note": "", "reach": "B" }, "geometry": { "type": "Polygon", "coordinates": [ [ [ 98.09755175947582, 13.909091041262325 ], [ 98.097600759477146, 13.909102641265665 ], [ 98.097623459484709, 13.909012641267713 ], [ 98.097574459483383, 13.909001041264364 ], [ 98.09755175947582, 13.909091041262325 ] ] ] } },
{ "type": "Feature", "properties": { "bid": "TZW-B0026", "source": "OSM", "src_id": "581536302", "area_m2": 35.7, "overlap": 0.0, "overlap_outwash": 0.065, "dist_m": 251.2, "landslide": "", "f_veg": 0.066, "f_soil": 0.046, "f_grey": 0.864, "f_dark": 0.025, "status": "clear", "status_auto": "clear", "note": "", "reach": "B" }, "geometry": { "type": "Polygon", "coordinates": [ [ [ 98.097447359468404, 13.909129841254869 ], [ 98.097490259468756, 13.909150941257741 ], [ 98.097519259474069, 13.909095541260044 ], [ 98.097476359473703, 13.909074441257168 ], [ 98.097447359468404, 13.909129841254869 ] ] ] } },
{ "type": "Feature", "properties": { "bid": "TZW-B0027", "source": "OSM", "src_id": "581536303", "area_m2": 73.5, "overlap": 0.0, "overlap_outwash": 0.132, "dist_m": 237.6, "landslide": "", "f_veg": 0.0, "f_soil": 0.492, "f_grey": 0.476, "f_dark": 0.032, "status": "clear", "status_auto": "clear", "note": "", "reach": "B" }, "geometry": { "type": "Polygon", "coordinates": [ [ [ 98.097448159473529, 13.909060141255281 ], [ 98.097494459474319, 13.909077041258415 ], [ 98.097539559484773, 13.908960841262143 ], [ 98.097493159483975, 13.90894384125901 ], [ 98.097448159473529, 13.909060141255281 ] ] ] } },
{ "type": "Feature", "properties": { "bid": "TZW-B0028", "source": "OSM", "src_id": "581536304", "area_m2": 74.8, "overlap": 0.0, "overlap_outwash": 0.213, "dist_m": 238.5, "landslide": "", "f_veg": 0.038, "f_soil": 0.329, "f_grey": 0.523, "f_dark": 0.11, "status": "clear", "status_auto": "clear", "note": "", "reach": "B" }, "geometry": { "type": "Polygon", "coordinates": [ [ [ 98.09730855947555, 13.908947541246157 ], [ 98.097372459477256, 13.908962841250519 ], [ 98.097395859485033, 13.908870441252621 ], [ 98.097332059483321, 13.908855141248269 ], [ 98.09730855947555, 13.908947541246157 ] ] ] } },
{ "type": "Feature", "properties": { "bid": "TZW-B0029", "source": "OSM", "src_id": "581536305", "area_m2": 62.5, "overlap": 0.0, "overlap_outwash": 0.238, "dist_m": 252.2, "landslide": "", "f_veg": 0.046, "f_soil": 0.215, "f_grey": 0.736, "f_dark": 0.004, "status": "clear", "status_auto": "clear", "note": "", "reach": "B" }, "geometry": { "type": "Polygon", "coordinates": [ [ [ 98.097112059468259, 13.908928741232595 ], [ 98.097174859469675, 13.908947441236865 ], [ 98.097198959476287, 13.908871341238937 ], [ 98.097136259474894, 13.908852541234671 ], [ 98.097112059468259, 13.908928741232595 ] ] ] } },
{ "type": "Feature", "properties": { "bid": "TZW-B0030", "source": "OSM", "src_id": "581536306", "area_m2": 105.8, "overlap": 0.0, "overlap_outwash": 0.236, "dist_m": 245.4, "landslide": "", "f_veg": 0.057, "f_soil": 0.287, "f_grey": 0.654, "f_dark": 0.002, "status": "clear", "status_auto": "clear", "note": "", "reach": "B" }, "geometry": { "type": "Polygon", "coordinates": [ [ [ 98.096965959432396, 13.909332941220363 ], [ 98.097043059433375, 13.909366141225554 ], [ 98.097086859442285, 13.909270241229086 ], [ 98.097009659441312, 13.909237041223895 ], [ 98.096965959432396, 13.909332941220363 ] ] ] } },
{ "type": "Feature", "properties": { "bid": "TZW-B0031", "source": "OSM", "src_id": "581536307", "area_m2": 109.8, "overlap": 0.0, "overlap_outwash": 0.202, "dist_m": 262.5, "landslide": "", "f_veg": 0.34, "f_soil": 0.015, "f_grey": 0.641, "f_dark": 0.004, "status": "clear", "status_auto": "clear", "note": "", "reach": "B" }, "geometry": { "type": "Polygon", "coordinates": [ [ [ 98.09703375944629, 13.909183141225844 ], [ 98.097093759446494, 13.909216741229844 ], [ 98.097162059457858, 13.909102041235181 ], [ 98.097101959457675, 13.909068341231178 ], [ 98.09703375944629, 13.909183141225844 ] ] ] } },
{ "type": "Feature", "properties": { "bid": "TZW-B0032", "source": "OSM", "src_id": "581536308", "area_m2": 135.7, "overlap": 0.0, "overlap_outwash": 0.122, "dist_m": 267.9, "landslide": "", "f_veg": 0.018, "f_soil": 0.041, "f_grey": 0.926, "f_dark": 0.015, "status": "clear", "status_auto": "clear", "note": "", "reach": "B" }, "geometry": { "type": "Polygon", "coordinates": [ [ [ 98.096914959445655, 13.909120041217914 ], [ 98.096996059446568, 13.909156541223361 ], [ 98.097051059457385, 13.909041341227777 ], [ 98.096969859456465, 13.909004841222322 ], [ 98.096914959445655, 13.909120041217914 ] ] ] } },
{ "type": "Feature", "properties": { "bid": "TZW-B0033", "source": "OSM", "src_id": "581536309", "area_m2": 111.1, "overlap": 0.0, "overlap_outwash": 0.058, "dist_m": 271.1, "landslide": "", "f_veg": 0.064, "f_soil": 0.116, "f_grey": 0.82, "f_dark": 0.001, "status": "clear", "status_auto": "clear", "note": "", "reach": "B" }, "geometry": { "type": "Polygon", "coordinates": [ [ [ 98.096838559444478, 13.90909014121276 ], [ 98.096903259445043, 13.909121341217089 ], [ 98.096962259456035, 13.909006141221786 ], [ 98.096897559455456, 13.908974941217449 ], [ 98.096838559444478, 13.90909014121276 ] ] ] } },
{ "type": "Feature", "properties": { "bid": "TZW-B0034", "source": "OSM", "src_id": "581536310", "area_m2": 45.9, "overlap": 0.0, "overlap_outwash": 0.186, "dist_m": 260.2, "landslide": "", "f_veg": 0.134, "f_soil": 0.011, "f_grey": 0.855, "f_dark": 0.0, "status": "clear", "status_auto": "clear", "note": "", "reach": "B" }, "geometry": { "type": "Polygon", "coordinates": [ [ [ 98.096835159469947, 13.908738641214331 ], [ 98.096882059471753, 13.908741941217572 ], [ 98.096888059477948, 13.908660541218406 ], [ 98.096841159476128, 13.908657241215163 ], [ 98.096835159469947, 13.908738641214331 ] ] ] } },
{ "type": "Feature", "properties": { "bid": "TZW-B0035", "source": "OSM", "src_id": "581536311", "area_m2": 34.0, "overlap": 0.0, "overlap_outwash": 0.008, "dist_m": 271.0, "landslide": "", "f_veg": 0.945, "f_soil": 0.002, "f_grey": 0.052, "f_dark": 0.001, "status": "clear", "status_auto": "clear", "note": "", "reach": "B" }, "geometry": { "type": "Polygon", "coordinates": [ [ [ 98.096785559464038, 13.908789441210619 ], [ 98.096839859464069, 13.90882194121423 ], [ 98.096863959467882, 13.908784041216098 ], [ 98.096809659467866, 13.908751441212493 ], [ 98.096785559464038, 13.908789441210619 ] ] ] } },
{ "type": "Feature", "properties": { "bid": "TZW-B0036", "source": "OSM", "src_id": "581536312", "area_m2": 96.3, "overlap": 0.0, "overlap_outwash": 0.16, "dist_m": 275.6, "landslide": "", "f_veg": 0.624, "f_soil": 0.183, "f_grey": 0.146, "f_dark": 0.047, "status": "clear", "status_auto": "clear", "note": "", "reach": "B" }, "geometry": { "type": "Polygon", "coordinates": [ [ [ 98.096544759432646, 13.909074741192413 ], [ 98.096612259435119, 13.909081541197073 ], [ 98.09662485944429, 13.908963541198551 ], [ 98.096557259441809, 13.908956741193888 ], [ 98.096544759432646, 13.909074741192413 ] ] ] } },
{ "type": "Feature", "properties": { "bid": "TZW-B0037", "source": "OSM", "src_id": "581536313", "area_m2": 45.8, "overlap": 0.0, "overlap_outwash": 0.077, "dist_m": 285.3, "landslide": "", "f_veg": 0.404, "f_soil": 0.061, "f_grey": 0.505, "f_dark": 0.03, "status": "clear", "status_auto": "clear", "note": "", "reach": "B" }, "geometry": { "type": "Polygon", "coordinates": [ [ [ 98.096446259434487, 13.908989941186006 ], [ 98.096493159435667, 13.909002241189205 ], [ 98.096514459442147, 13.908926241191072 ], [ 98.096467459440944, 13.90891384118787 ], [ 98.096446259434487, 13.908989941186006 ] ] ] } },
{ "type": "Feature", "properties": { "bid": "TZW-B0038", "source": "OSM", "src_id": "581536314", "area_m2": 69.1, "overlap": 0.0, "overlap_outwash": 0.0, "dist_m": 304.1, "landslide": "", "f_veg": 1.0, "f_soil": 0.0, "f_grey": 0.0, "f_dark": 0.0, "status": "clear", "status_auto": "clear", "note": "", "reach": "B" }, "geometry": { "type": "Polygon", "coordinates": [ [ [ 98.095821959409506, 13.90895544114279 ], [ 98.095892359412701, 13.908954141147687 ], [ 98.095890759418609, 13.908872041147998 ], [ 98.095820359415413, 13.908873341143099 ], [ 98.095821959409506, 13.90895544114279 ] ] ] } },
{ "type": "Feature", "properties": { "bid": "TZW-B0039", "source": "OSM", "src_id": "581536315", "area_m2": 70.5, "overlap": 0.0, "overlap_outwash": 0.0, "dist_m": 286.1, "landslide": "", "f_veg": 0.003, "f_soil": 0.022, "f_grey": 0.912, "f_dark": 0.062, "status": "clear", "status_auto": "clear", "note": "", "reach": "B" }, "geometry": { "type": "Polygon", "coordinates": [ [ [ 98.095909159403007, 13.909097341148119 ], [ 98.095975559405829, 13.909098641152726 ], [ 98.095977359412387, 13.909009841153308 ], [ 98.095910959409551, 13.909008541148703 ], [ 98.095909159403007, 13.909097341148119 ] ] ] } },
{ "type": "Feature", "properties": { "bid": "TZW-B0040", "source": "OSM", "src_id": "581536316", "area_m2": 100.2, "overlap": 0.0, "overlap_outwash": 0.085, "dist_m": 283.3, "landslide": "", "f_veg": 0.083, "f_soil": 0.0, "f_grey": 0.917, "f_dark": 0.0, "status": "clear", "status_auto": "clear", "note": "", "reach": "B" }, "geometry": { "type": "Polygon", "coordinates": [ [ [ 98.096087559412339, 13.909077141160623 ], [ 98.096161259415666, 13.909075841165752 ], [ 98.096159159423877, 13.908962141166191 ], [ 98.096085359420513, 13.908963441161054 ], [ 98.096087559412339, 13.909077141160623 ] ] ] } },
{ "type": "Feature", "properties": { "bid": "TZW-B0041", "source": "OSM", "src_id": "581536317", "area_m2": 115.0, "overlap": 0.0, "overlap_outwash": 0.179, "dist_m": 289.0, "landslide": "", "f_veg": 0.235, "f_soil": 0.008, "f_grey": 0.748, "f_dark": 0.009, "status": "clear", "status_auto": "clear", "note": "", "reach": "B" }, "geometry": { "type": "Polygon", "coordinates": [ [ [ 98.096200459423684, 13.90898954116892 ], [ 98.096278559426423, 13.9089992411743 ], [ 98.096294559435947, 13.908878041176038 ], [ 98.0962163594332, 13.908868441170647 ], [ 98.096200459423684, 13.90898954116892 ] ] ] } },
{ "type": "Feature", "properties": { "bid": "TZW-B0042", "source": "OSM", "src_id": "581536318", "area_m2": 86.5, "overlap": 0.0, "overlap_outwash": 0.109, "dist_m": 286.6, "landslide": "", "f_veg": 0.007, "f_soil": 0.208, "f_grey": 0.786, "f_dark": 0.0, "status": "clear", "status_auto": "clear", "note": "", "reach": "B" }, "geometry": { "type": "Polygon", "coordinates": [ [ [ 98.0963805594305, 13.909004841181359 ], [ 98.096418759439544, 13.908903941184537 ], [ 98.096355559438393, 13.908881441180258 ], [ 98.096317359429349, 13.908982341177081 ], [ 98.0963805594305, 13.909004841181359 ] ] ] } },
{ "type": "Feature", "properties": { "bid": "TZW-B0043", "source": "OSM", "src_id": "581536319", "area_m2": 30.4, "overlap": 0.0, "overlap_outwash": 0.124, "dist_m": 304.1, "landslide": "", "f_veg": 0.0, "f_soil": 0.039, "f_grey": 0.961, "f_dark": 0.001, "status": "clear", "status_auto": "clear", "note": "", "reach": "B" }, "geometry": { "type": "Polygon", "coordinates": [ [ [ 98.096396659443798, 13.908832341183373 ], [ 98.096439059445288, 13.908837241186291 ], [ 98.09644625944992, 13.908778041187098 ], [ 98.096403759448393, 13.908773241184168 ], [ 98.096396659443798, 13.908832341183373 ] ] ] } },
{ "type": "Feature", "properties": { "bid": "TZW-B0044", "source": "OSM", "src_id": "581536320", "area_m2": 107.6, "overlap": 0.0, "overlap_outwash": 0.0, "dist_m": 308.9, "landslide": "", "f_veg": 0.314, "f_soil": 0.0, "f_grey": 0.686, "f_dark": 0.0, "status": "clear", "status_auto": "clear", "note": "", "reach": "B" }, "geometry": { "type": "Polygon", "coordinates": [ [ [ 98.096260459440501, 13.908795241174092 ], [ 98.096346259443536, 13.908805041180008 ], [ 98.096358759451647, 13.908701441181407 ], [ 98.096273059448578, 13.908691641175501 ], [ 98.096260459440501, 13.908795241174092 ] ] ] } },
{ "type": "Feature", "properties": { "bid": "TZW-B0045", "source": "OSM", "src_id": "581536321", "area_m2": 58.5, "overlap": 0.0, "overlap_outwash": 0.177, "dist_m": 257.5, "landslide": "", "f_veg": 0.472, "f_soil": 0.304, "f_grey": 0.214, "f_dark": 0.01, "status": "clear", "status_auto": "clear", "note": "", "reach": "B" }, "geometry": { "type": "Polygon", "coordinates": [ [ [ 98.096700359478405, 13.908540741205979 ], [ 98.09675795948047, 13.908547341209943 ], [ 98.096768159487013, 13.908463541211084 ], [ 98.096710559484961, 13.908456941207115 ], [ 98.096700359478405, 13.908540741205979 ] ] ] } },
{ "type": "Feature", "properties": { "bid": "TZW-B0046", "source": "OSM", "src_id": "581536322", "area_m2": 88.2, "overlap": 0.0, "overlap_outwash": 0.1, "dist_m": 207.3, "landslide": "", "f_veg": 0.059, "f_soil": 0.255, "f_grey": 0.656, "f_dark": 0.03, "status": "clear", "status_auto": "clear", "note": "", "reach": "B" }, "geometry": { "type": "Polygon", "coordinates": [ [ [ 98.097348159501294, 13.908618241250604 ], [ 98.097455159505714, 13.90862234125802 ], [ 98.097457959510862, 13.908553441258569 ], [ 98.097350959506429, 13.908549341251156 ], [ 98.097348159501294, 13.908618241250604 ] ] ] } },
{ "type": "Feature", "properties": { "bid": "TZW-B0047", "source": "OSM", "src_id": "581536323", "area_m2": 68.3, "overlap": 0.0, "overlap_outwash": 0.175, "dist_m": 168.6, "landslide": "", "f_veg": 0.039, "f_soil": 0.375, "f_grey": 0.572, "f_dark": 0.014, "status": "clear", "status_auto": "clear", "note": "", "reach": "B" }, "geometry": { "type": "Polygon", "coordinates": [ [ [ 98.097673359530788, 13.908409941274275 ], [ 98.097761559534433, 13.908413341280388 ], [ 98.097764259539261, 13.908348641280913 ], [ 98.097675959535607, 13.908345241274789 ], [ 98.097673359530788, 13.908409941274275 ] ] ] } },
{ "type": "Feature", "properties": { "bid": "TZW-B0048", "source": "OSM", "src_id": "581536324", "area_m2": 124.4, "overlap": 0.0, "overlap_outwash": 0.178, "dist_m": 167.1, "landslide": "", "f_veg": 0.382, "f_soil": 0.151, "f_grey": 0.465, "f_dark": 0.003, "status": "clear", "status_auto": "clear", "note": "", "reach": "B" }, "geometry": { "type": "Polygon", "coordinates": [ [ [ 98.097372259538574, 13.908120941254838 ], [ 98.097375259534246, 13.908182241254728 ], [ 98.097544859542282, 13.908174341266557 ], [ 98.097541859546624, 13.908113141266666 ], [ 98.097372259538574, 13.908120941254838 ] ] ] } },
{ "type": "Feature", "properties": { "bid": "TZW-B0049", "source": "OSM", "src_id": "581536325", "area_m2": 98.4, "overlap": 0.0, "overlap_outwash": 0.171, "dist_m": 174.4, "landslide": "", "f_veg": 0.0, "f_soil": 0.128, "f_grey": 0.824, "f_dark": 0.048, "status": "clear", "status_auto": "clear", "note": "", "reach": "B" }, "geometry": { "type": "Polygon", "coordinates": [ [ [ 98.097403759529485, 13.90826484125629 ], [ 98.097530159534699, 13.908269641265044 ], [ 98.097532859539555, 13.908204641265572 ], [ 98.097406459534341, 13.908199741256807 ], [ 98.097403759529485, 13.90826484125629 ] ] ] } },
{ "type": "Feature", "properties": { "bid": "TZW-B0050", "source": "OSM", "src_id": "581536326", "area_m2": 78.5, "overlap": 0.0, "overlap_outwash": 0.333, "dist_m": 181.0, "landslide": "", "f_veg": 0.0, "f_soil": 0.019, "f_grey": 0.977, "f_dark": 0.003, "status": "clear", "status_auto": "outwash", "note": "Chip review: roof standing; the pale yard around it was already bare sand on 10 Jan, no fresh sediment against it.", "reach": "B" }, "geometry": { "type": "Polygon", "coordinates": [ [ [ 98.097409159528212, 13.908285641256555 ], [ 98.097406959524164, 13.908339741256125 ], [ 98.097528059529154, 13.908344441264518 ], [ 98.097530359533224, 13.908290341264953 ], [ 98.097409159528212, 13.908285641256555 ] ] ] } },
{ "type": "Feature", "properties": { "bid": "TZW-B0051", "source": "OSM", "src_id": "581536327", "area_m2": 65.1, "overlap": 0.0, "overlap_outwash": 0.585, "dist_m": 190.4, "landslide": "", "f_veg": 0.025, "f_soil": 0.0, "f_grey": 0.911, "f_dark": 0.063, "status": "clear", "status_auto": "outwash", "note": "Chip review: roof standing; the pale yard around it was already bare sand on 10 Jan, no fresh sediment against it.", "reach": "B" }, "geometry": { "type": "Polygon", "coordinates": [ [ [ 98.097394359517224, 13.908427541254799 ], [ 98.097492759521273, 13.908431341261617 ], [ 98.097494959525406, 13.908376041262049 ], [ 98.097396659521351, 13.908372241255242 ], [ 98.097394359517224, 13.908427541254799 ] ] ] } },
{ "type": "Feature", "properties": { "bid": "TZW-B0052", "source": "OSM", "src_id": "581536328", "area_m2": 25.0, "overlap": 0.0, "overlap_outwash": 0.0, "dist_m": 232.1, "landslide": "", "f_veg": 1.0, "f_soil": 0.0, "f_grey": 0.0, "f_dark": 0.0, "status": "clear", "status_auto": "clear", "note": "", "reach": "B" }, "geometry": { "type": "Polygon", "coordinates": [ [ [ 98.09701625949711, 13.90847504122827 ], [ 98.097014659494221, 13.908513541227963 ], [ 98.097068959496468, 13.908515641231727 ], [ 98.097070559499343, 13.908477141232037 ], [ 98.09701625949711, 13.90847504122827 ] ] ] } },
{ "type": "Feature", "properties": { "bid": "TZW-B0053", "source": "OSM", "src_id": "581536329", "area_m2": 65.3, "overlap": 0.0, "overlap_outwash": 0.031, "dist_m": 220.0, "landslide": "", "f_veg": 0.796, "f_soil": 0.01, "f_grey": 0.192, "f_dark": 0.003, "status": "clear", "status_auto": "clear", "note": "", "reach": "B" }, "geometry": { "type": "Polygon", "coordinates": [ [ [ 98.097013559502969, 13.908393041228505 ], [ 98.097083659505842, 13.908395741233365 ], [ 98.097086859511663, 13.908317941233991 ], [ 98.097016759508762, 13.908315241229127 ], [ 98.097013559502969, 13.908393041228505 ] ] ] } },
{ "type": "Feature", "properties": { "bid": "TZW-B0054", "source": "OSM", "src_id": "581536330", "area_m2": 76.7, "overlap": 0.0, "overlap_outwash": 0.223, "dist_m": 207.6, "landslide": "", "f_veg": 0.131, "f_soil": 0.002, "f_grey": 0.868, "f_dark": 0.0, "status": "clear", "status_auto": "clear", "note": "", "reach": "B" }, "geometry": { "type": "Polygon", "coordinates": [ [ [ 98.097126159514914, 13.908296741236827 ], [ 98.097123259509644, 13.908367741236264 ], [ 98.097213459513355, 13.90837114124251 ], [ 98.097216359518654, 13.908300141243082 ], [ 98.097126159514914, 13.908296741236827 ] ] ] } },
{ "type": "Feature", "properties": { "bid": "TZW-B0055", "source": "OSM", "src_id": "581536331", "area_m2": 77.1, "overlap": 0.0, "overlap_outwash": 0.43, "dist_m": 198.0, "landslide": "", "f_veg": 0.0, "f_soil": 0.0, "f_grey": 1.0, "f_dark": 0.0, "status": "clear", "status_auto": "outwash", "note": "Chip review: roof standing; the pale yard around it was already bare sand on 10 Jan, no fresh sediment against it.", "reach": "B" }, "geometry": { "type": "Polygon", "coordinates": [ [ [ 98.097140959523557, 13.908187341238422 ], [ 98.097138359518908, 13.908249441237921 ], [ 98.097242059523182, 13.908253441245103 ], [ 98.097244659527817, 13.908191341245605 ], [ 98.097140959523557, 13.908187341238422 ] ] ] } },
{ "type": "Feature", "properties": { "bid": "TZW-B0056", "source": "OSM", "src_id": "581536332", "area_m2": 186.2, "overlap": 0.0, "overlap_outwash": 0.345, "dist_m": 205.2, "landslide": "", "f_veg": 0.115, "f_soil": 0.036, "f_grey": 0.805, "f_dark": 0.044, "status": "clear", "status_auto": "outwash", "note": "Chip review: roof standing; the pale yard around it was already bare sand on 10 Jan, no fresh sediment against it.", "reach": "B" }, "geometry": { "type": "Polygon", "coordinates": [ [ [ 98.096975959514296, 13.908214641226813 ], [ 98.097091259519061, 13.908219141234801 ], [ 98.097096759529109, 13.908084141235875 ], [ 98.096981459524358, 13.908079741227889 ], [ 98.096975959514296, 13.908214641226813 ] ] ] } },
{ "type": "Feature", "properties": { "bid": "TZW-B0057", "source": "OSM", "src_id": "581536333", "area_m2": 105.1, "overlap": 0.0, "overlap_outwash": 0.29, "dist_m": 142.5, "landslide": "", "f_veg": 0.786, "f_soil": 0.005, "f_grey": 0.208, "f_dark": 0.002, "status": "clear", "status_auto": "clear", "note": "", "reach": "B" }, "geometry": { "type": "Polygon", "coordinates": [ [ [ 98.097399059581235, 13.907551441259624 ], [ 98.097387659573855, 13.907645941258354 ], [ 98.097479459577116, 13.907656441264674 ], [ 98.097490859584525, 13.907561941265953 ], [ 98.097399059581235, 13.907551441259624 ] ] ] } },
{ "type": "Feature", "properties": { "bid": "TZW-B0058", "source": "OSM", "src_id": "581536334", "area_m2": 89.0, "overlap": 0.0, "overlap_outwash": 0.361, "dist_m": 157.0, "landslide": "", "f_veg": 0.002, "f_soil": 0.15, "f_grey": 0.847, "f_dark": 0.0, "status": "clear", "status_auto": "outwash", "note": "Chip review: roof standing; the pale yard around it was already bare sand on 10 Jan, no fresh sediment against it.", "reach": "B" }, "geometry": { "type": "Polygon", "coordinates": [ [ [ 98.097238859568677, 13.907626941248104 ], [ 98.097347859573176, 13.907631141255662 ], [ 98.097350659578268, 13.907562941256209 ], [ 98.097241659573768, 13.907558741248653 ], [ 98.097238859568677, 13.907626941248104 ] ] ] } },
{ "type": "Feature", "properties": { "bid": "TZW-B0059", "source": "OSM", "src_id": "581536335", "area_m2": 119.2, "overlap": 0.0, "overlap_outwash": 0.09, "dist_m": 157.7, "landslide": "", "f_veg": 0.032, "f_soil": 0.022, "f_grey": 0.94, "f_dark": 0.006, "status": "clear", "status_auto": "clear", "note": "", "reach": "B" }, "geometry": { "type": "Polygon", "coordinates": [ [ [ 98.09735685955971, 13.907821541255307 ], [ 98.097352559551879, 13.90792624125447 ], [ 98.097447659555797, 13.90792994126106 ], [ 98.097451959563628, 13.907825141261895 ], [ 98.09735685955971, 13.907821541255307 ] ] ] } },
{ "type": "Feature", "properties": { "bid": "TZW-B0060", "source": "OSM", "src_id": "581536336", "area_m2": 153.8, "overlap": 0.0, "overlap_outwash": 0.15, "dist_m": 178.7, "landslide": "", "f_veg": 0.096, "f_soil": 0.012, "f_grey": 0.878, "f_dark": 0.014, "status": "clear", "status_auto": "clear", "note": "", "reach": "B" }, "geometry": { "type": "Polygon", "coordinates": [ [ [ 98.097094459543968, 13.907878841236771 ], [ 98.097187259547226, 13.907890441243167 ], [ 98.097205259557967, 13.907753941245117 ], [ 98.097112559554702, 13.907742341238734 ], [ 98.097094459543968, 13.907878841236771 ] ] ] } },
{ "type": "Feature", "properties": { "bid": "TZW-B0061", "source": "OSM", "src_id": "581536337", "area_m2": 86.2, "overlap": 0.0, "overlap_outwash": 0.142, "dist_m": 235.7, "landslide": "", "f_veg": 0.077, "f_soil": 0.103, "f_grey": 0.771, "f_dark": 0.049, "status": "clear", "status_auto": "clear", "note": "", "reach": "B" }, "geometry": { "type": "Polygon", "coordinates": [ [ [ 98.096686159500976, 13.908222141206631 ], [ 98.096771059504249, 13.908228641212498 ], [ 98.096772159505292, 13.908214841212644 ], [ 98.096799159506332, 13.90821694121451 ], [ 98.096805559512262, 13.908139441215356 ], [ 98.096748959510094, 13.908135041211445 ], [ 98.096744959506395, 13.908183441210918 ], [ 98.096689759504258, 13.908179141207102 ], [ 98.096686159500976, 13.908222141206631 ] ] ] } },
{ "type": "Feature", "properties": { "bid": "TZW-B0062", "source": "OSM", "src_id": "581536338", "area_m2": 89.5, "overlap": 0.0, "overlap_outwash": 0.076, "dist_m": 221.9, "landslide": "", "f_veg": 0.223, "f_soil": 0.002, "f_grey": 0.771, "f_dark": 0.005, "status": "clear", "status_auto": "clear", "note": "", "reach": "B" }, "geometry": { "type": "Polygon", "coordinates": [ [ [ 98.096793559515831, 13.908083241214809 ], [ 98.096866059518845, 13.908085841219835 ], [ 98.096869959526515, 13.907982641220636 ], [ 98.096797459523515, 13.907980041215614 ], [ 98.096793559515831, 13.908083241214809 ] ] ] } },
{ "type": "Feature", "properties": { "bid": "TZW-B0063", "source": "OSM", "src_id": "581536339", "area_m2": 95.6, "overlap": 0.0, "overlap_outwash": 0.0, "dist_m": 216.6, "landslide": "", "f_veg": 0.188, "f_soil": 0.192, "f_grey": 0.619, "f_dark": 0.001, "status": "clear", "status_auto": "clear", "note": "", "reach": "B" }, "geometry": { "type": "Polygon", "coordinates": [ [ [ 98.0967593595268, 13.907912041213311 ], [ 98.096829759528717, 13.907928241218126 ], [ 98.096856159537694, 13.907820741220515 ], [ 98.096785759535791, 13.907804441215704 ], [ 98.0967593595268, 13.907912041213311 ] ] ] } },
{ "type": "Feature", "properties": { "bid": "TZW-B0064", "source": "OSM", "src_id": "581536340", "area_m2": 83.1, "overlap": 0.0, "overlap_outwash": 0.2, "dist_m": 195.0, "landslide": "", "f_veg": 0.096, "f_soil": 0.011, "f_grey": 0.881, "f_dark": 0.013, "status": "clear", "status_auto": "clear", "note": "", "reach": "B" }, "geometry": { "type": "Polygon", "coordinates": [ [ [ 98.096923659545212, 13.907758441225521 ], [ 98.096996959546999, 13.907778441230514 ], [ 98.097022459554509, 13.907690541232737 ], [ 98.09694915955275, 13.907670541227748 ], [ 98.096923659545212, 13.907758441225521 ] ] ] } },
{ "type": "Feature", "properties": { "bid": "TZW-B0065", "source": "OSM", "src_id": "581536341", "area_m2": 78.4, "overlap": 0.0, "overlap_outwash": 0.139, "dist_m": 201.9, "landslide": "", "f_veg": 0.0, "f_soil": 0.0, "f_grey": 0.999, "f_dark": 0.001, "status": "clear", "status_auto": "clear", "note": "", "reach": "B" }, "geometry": { "type": "Polygon", "coordinates": [ [ [ 98.096907559544832, 13.907753841224428 ], [ 98.096940459554887, 13.907636041227319 ], [ 98.096888559553591, 13.907622441223783 ], [ 98.09685565954355, 13.907740241220894 ], [ 98.096907559544832, 13.907753841224428 ] ] ] } },
{ "type": "Feature", "properties": { "bid": "TZW-B0066", "source": "OSM", "src_id": "581536342", "area_m2": 114.9, "overlap": 0.0, "overlap_outwash": 0.153, "dist_m": 210.0, "landslide": "", "f_veg": 0.39, "f_soil": 0.043, "f_grey": 0.567, "f_dark": 0.0, "status": "clear", "status_auto": "clear", "note": "", "reach": "B" }, "geometry": { "type": "Polygon", "coordinates": [ [ [ 98.096762759540027, 13.907732341214476 ], [ 98.096843359542788, 13.907743241220018 ], [ 98.096860059552071, 13.907626041221784 ], [ 98.096779559549304, 13.907615241216243 ], [ 98.096762759540027, 13.907732341214476 ] ] ] } },
{ "type": "Feature", "properties": { "bid": "TZW-B0067", "source": "OSM", "src_id": "581536343", "area_m2": 116.9, "overlap": 0.0, "overlap_outwash": 0.202, "dist_m": 182.2, "landslide": "", "f_veg": 0.195, "f_soil": 0.0, "f_grey": 0.805, "f_dark": 0.0, "status": "clear", "status_auto": "clear", "note": "", "reach": "B" }, "geometry": { "type": "Polygon", "coordinates": [ [ [ 98.096912259566679, 13.907457041226278 ], [ 98.097027659569775, 13.907484341234163 ], [ 98.097047759576483, 13.907404341235971 ], [ 98.096932459573381, 13.907377041228093 ], [ 98.096912259566679, 13.907457041226278 ] ] ] } },
{ "type": "Feature", "properties": { "bid": "TZW-B0068", "source": "OSM", "src_id": "581536344", "area_m2": 82.0, "overlap": null, "overlap_outwash": null, "dist_m": null, "landslide": null, "f_veg": null, "f_soil": null, "f_grey": null, "f_dark": null, "status": "not_surveyed", "status_auto": "not_surveyed", "note": "", "reach": "" }, "geometry": { "type": "Polygon", "coordinates": [ [ [ 98.0969071, 13.9070325 ], [ 98.0970043, 13.9070722 ], [ 98.0970303, 13.9070122 ], [ 98.096933, 13.9069725 ], [ 98.0969071, 13.9070325 ] ] ] } },
{ "type": "Feature", "properties": { "bid": "TZW-B0069", "source": "OSM", "src_id": "581536345", "area_m2": 46.5, "overlap": null, "overlap_outwash": null, "dist_m": null, "landslide": null, "f_veg": null, "f_soil": null, "f_grey": null, "f_dark": null, "status": "not_surveyed", "status_auto": "not_surveyed", "note": "", "reach": "" }, "geometry": { "type": "Polygon", "coordinates": [ [ [ 98.0969191, 13.9071685 ], [ 98.096832, 13.9071217 ], [ 98.0968125, 13.9071558 ], [ 98.0968996, 13.9072027 ], [ 98.0969191, 13.9071685 ] ] ] } },
{ "type": "Feature", "properties": { "bid": "TZW-B0070", "source": "OSM", "src_id": "581536346", "area_m2": 44.2, "overlap": null, "overlap_outwash": null, "dist_m": null, "landslide": null, "f_veg": null, "f_soil": null, "f_grey": null, "f_dark": null, "status": "not_surveyed", "status_auto": "not_surveyed", "note": "", "reach": "B" }, "geometry": { "type": "Polygon", "coordinates": [ [ [ 98.0968802, 13.9072375 ], [ 98.0968939, 13.9072061 ], [ 98.096794, 13.9071651 ], [ 98.09678030000002, 13.9071965 ], [ 98.0968802, 13.9072375 ] ] ] } },
{ "type": "Feature", "properties": { "bid": "TZW-B0071", "source": "OSM", "src_id": "581536347", "area_m2": 123.3, "overlap": 0.0, "overlap_outwash": 0.126, "dist_m": 207.5, "landslide": "", "f_veg": 0.666, "f_soil": 0.0, "f_grey": 0.328, "f_dark": 0.007, "status": "clear", "status_auto": "clear", "note": "", "reach": "B" }, "geometry": { "type": "Polygon", "coordinates": [ [ [ 98.09663065955796, 13.907406241206969 ], [ 98.096762759560846, 13.907446641215946 ], [ 98.096785759567013, 13.907375541217911 ], [ 98.09665365956414, 13.907335241208932 ], [ 98.09663065955796, 13.907406241206969 ] ] ] } },
{ "type": "Feature", "properties": { "bid": "TZW-B0072", "source": "OSM", "src_id": "581536348", "area_m2": 81.2, "overlap": 0.0, "overlap_outwash": 0.074, "dist_m": 231.2, "landslide": "", "f_veg": 0.608, "f_soil": 0.0, "f_grey": 0.391, "f_dark": 0.001, "status": "clear", "status_auto": "clear", "note": "", "reach": "B" }, "geometry": { "type": "Polygon", "coordinates": [ [ [ 98.09653275953815, 13.907619141199069 ], [ 98.096614459536895, 13.907685741204412 ], [ 98.096656659542319, 13.907636941207588 ], [ 98.09657495954356, 13.907570341202259 ], [ 98.09653275953815, 13.907619141199069 ] ] ] } },
{ "type": "Feature", "properties": { "bid": "TZW-B0073", "source": "OSM", "src_id": "581536349", "area_m2": 57.5, "overlap": null, "overlap_outwash": null, "dist_m": null, "landslide": null, "f_veg": null, "f_soil": null, "f_grey": null, "f_dark": null, "status": "not_surveyed", "status_auto": "not_surveyed", "note": "", "reach": "B" }, "geometry": { "type": "Polygon", "coordinates": [ [ [ 98.0963465, 13.907533 ], [ 98.0964243, 13.9075558 ], [ 98.096441900000016, 13.9074991 ], [ 98.0963641, 13.9074763 ], [ 98.0963465, 13.907533 ] ] ] } },
{ "type": "Feature", "properties": { "bid": "TZW-B0074", "source": "OSM", "src_id": "581536350", "area_m2": 87.1, "overlap": null, "overlap_outwash": null, "dist_m": null, "landslide": null, "f_veg": null, "f_soil": null, "f_grey": null, "f_dark": null, "status": "not_surveyed", "status_auto": "not_surveyed", "note": "", "reach": "B" }, "geometry": { "type": "Polygon", "coordinates": [ [ [ 98.0960984, 13.9074595 ], [ 98.0962077, 13.9074914 ], [ 98.0962266, 13.9074302 ], [ 98.0961173, 13.9073983 ], [ 98.0960984, 13.9074595 ] ] ] } },
{ "type": "Feature", "properties": { "bid": "TZW-B0075", "source": "OSM", "src_id": "581536351", "area_m2": 91.8, "overlap": null, "overlap_outwash": null, "dist_m": null, "landslide": null, "f_veg": null, "f_soil": null, "f_grey": null, "f_dark": null, "status": "not_surveyed", "status_auto": "not_surveyed", "note": "", "reach": "B" }, "geometry": { "type": "Polygon", "coordinates": [ [ [ 98.0961929, 13.9076411 ], [ 98.0962935, 13.9076762 ], [ 98.0963186, 13.9076087 ], [ 98.096218, 13.9075735 ], [ 98.0961929, 13.9076411 ] ] ] } },
{ "type": "Feature", "properties": { "bid": "TZW-B0076", "source": "OSM", "src_id": "581536352", "area_m2": 87.7, "overlap": 0.0, "overlap_outwash": 0.168, "dist_m": 256.1, "landslide": "", "f_veg": 0.633, "f_soil": 0.01, "f_grey": 0.357, "f_dark": 0.001, "status": "clear", "status_auto": "clear", "note": "", "reach": "B" }, "geometry": { "type": "Polygon", "coordinates": [ [ [ 98.096338959514242, 13.907830041184514 ], [ 98.096445559516482, 13.907863841191753 ], [ 98.096466559521943, 13.907801641193531 ], [ 98.096359959519688, 13.907767841186294 ], [ 98.096338959514242, 13.907830041184514 ] ] ] } },
{ "type": "Feature", "properties": { "bid": "TZW-B0077", "source": "OSM", "src_id": "581536353", "area_m2": 55.1, "overlap": 0.0, "overlap_outwash": 0.084, "dist_m": 245.8, "landslide": "", "f_veg": 0.437, "f_soil": 0.003, "f_grey": 0.56, "f_dark": 0.0, "status": "clear", "status_auto": "clear", "note": "", "reach": "B" }, "geometry": { "type": "Polygon", "coordinates": [ [ [ 98.096510359514483, 13.907930541195913 ], [ 98.096499359511185, 13.907969041194949 ], [ 98.096610559513906, 13.907998941202521 ], [ 98.096621559517189, 13.907960441203487 ], [ 98.096510359514483, 13.907930541195913 ] ] ] } },
{ "type": "Feature", "properties": { "bid": "TZW-B0078", "source": "OSM", "src_id": "581536354", "area_m2": 28.5, "overlap": 0.0, "overlap_outwash": 0.0, "dist_m": 253.2, "landslide": "", "f_veg": 0.02, "f_soil": 0.001, "f_grey": 0.978, "f_dark": 0.0, "status": "clear", "status_auto": "clear", "note": "", "reach": "B" }, "geometry": { "type": "Polygon", "coordinates": [ [ [ 98.096492159507079, 13.908021041194182 ], [ 98.096554559508448, 13.908039941198421 ], [ 98.096565759511478, 13.908005141199377 ], [ 98.096503359510095, 13.907986241195143 ], [ 98.096492159507079, 13.908021041194182 ] ] ] } },
{ "type": "Feature", "properties": { "bid": "TZW-B0079", "source": "OSM", "src_id": "581536355", "area_m2": 17.0, "overlap": 0.0, "overlap_outwash": 0.063, "dist_m": 261.2, "landslide": "", "f_veg": 0.23, "f_soil": 0.0, "f_grey": 0.769, "f_dark": 0.002, "status": "clear", "status_auto": "clear", "note": "", "reach": "B" }, "geometry": { "type": "Polygon", "coordinates": [ [ [ 98.096512659498615, 13.908149641194941 ], [ 98.096518359503804, 13.908081941195688 ], [ 98.096497459503013, 13.908080241194245 ], [ 98.096491759497823, 13.9081479411935 ], [ 98.096512659498615, 13.908149641194941 ] ] ] } },
{ "type": "Feature", "properties": { "bid": "TZW-B0080", "source": "OSM", "src_id": "581536356", "area_m2": 52.8, "overlap": 0.0, "overlap_outwash": 0.182, "dist_m": 263.6, "landslide": "", "f_veg": 0.092, "f_soil": 0.027, "f_grey": 0.877, "f_dark": 0.004, "status": "clear", "status_auto": "clear", "note": "", "reach": "B" }, "geometry": { "type": "Polygon", "coordinates": [ [ [ 98.096393259496224, 13.908110241186851 ], [ 98.096484159499184, 13.908124541193096 ], [ 98.096492059502992, 13.908077141193885 ], [ 98.096401159500047, 13.908062841187641 ], [ 98.096393259496224, 13.908110241186851 ] ] ] } },
{ "type": "Feature", "properties": { "bid": "TZW-B0081", "source": "OSM", "src_id": "581536357", "area_m2": 113.1, "overlap": 0.0, "overlap_outwash": 0.276, "dist_m": 297.5, "landslide": "", "f_veg": 0.602, "f_soil": 0.0, "f_grey": 0.398, "f_dark": 0.0, "status": "clear", "status_auto": "clear", "note": "", "reach": "B" }, "geometry": { "type": "Polygon", "coordinates": [ [ [ 98.096085459472746, 13.908246541164747 ], [ 98.096166759475736, 13.908254641170361 ], [ 98.096178859484667, 13.908139341171797 ], [ 98.096097559481677, 13.908131341166188 ], [ 98.096085459472746, 13.908246541164747 ] ] ] } },
{ "type": "Feature", "properties": { "bid": "TZW-B0082", "source": "OSM", "src_id": "581536358", "area_m2": 64.2, "overlap": 0.0, "overlap_outwash": 0.206, "dist_m": 309.9, "landslide": "", "f_veg": 0.436, "f_soil": 0.0, "f_grey": 0.564, "f_dark": 0.0, "status": "clear", "status_auto": "clear", "note": "", "reach": "B" }, "geometry": { "type": "Polygon", "coordinates": [ [ [ 98.095990259470156, 13.908224441158252 ], [ 98.096046559472313, 13.908229041162143 ], [ 98.096054759479557, 13.908134441163197 ], [ 98.09599835947742, 13.908129841159303 ], [ 98.095990259470156, 13.908224441158252 ] ] ] } },
{ "type": "Feature", "properties": { "bid": "TZW-B0083", "source": "OSM", "src_id": "581536359", "area_m2": 144.6, "overlap": null, "overlap_outwash": null, "dist_m": null, "landslide": null, "f_veg": null, "f_soil": null, "f_grey": null, "f_dark": null, "status": "not_surveyed", "status_auto": "not_surveyed", "note": "", "reach": "B" }, "geometry": { "type": "Polygon", "coordinates": [ [ [ 98.0957799, 13.9081195 ], [ 98.09586, 13.9081452 ], [ 98.0959063, 13.9080091 ], [ 98.0958261, 13.9079834 ], [ 98.0957799, 13.9081195 ] ] ] } },
{ "type": "Feature", "properties": { "bid": "TZW-B0084", "source": "OSM", "src_id": "581536360", "area_m2": 140.1, "overlap": 0.0, "overlap_outwash": 0.248, "dist_m": 346.2, "landslide": "", "f_veg": 0.026, "f_soil": 0.086, "f_grey": 0.821, "f_dark": 0.067, "status": "clear", "status_auto": "clear", "note": "", "reach": "B" }, "geometry": { "type": "Polygon", "coordinates": [ [ [ 98.09562015944428, 13.908355941131855 ], [ 98.095716059446829, 13.908378741138399 ], [ 98.095745059456519, 13.908263341141007 ], [ 98.095649259453964, 13.908240541134463 ], [ 98.09562015944428, 13.908355941131855 ] ] ] } },
{ "type": "Feature", "properties": { "bid": "TZW-B0085", "source": "OSM", "src_id": "581536361", "area_m2": 98.9, "overlap": 0.0, "overlap_outwash": 0.402, "dist_m": 279.5, "landslide": "", "f_veg": 0.408, "f_soil": 0.026, "f_grey": 0.471, "f_dark": 0.096, "status": "clear", "status_auto": "outwash", "note": "Chip review: roof standing; the pale yard around it was already bare sand on 10 Jan, no fresh sediment against it.", "reach": "B" }, "geometry": { "type": "Polygon", "coordinates": [ [ [ 98.096310759475557, 13.908344241179909 ], [ 98.096389259477164, 13.908369641185237 ], [ 98.096421859485503, 13.908274741187991 ], [ 98.096343359483896, 13.908249341182666 ], [ 98.096310759475557, 13.908344241179909 ] ] ] } },
{ "type": "Feature", "properties": { "bid": "TZW-B0086", "source": "OSM", "src_id": "581536362", "area_m2": 120.6, "overlap": 0.0, "overlap_outwash": 0.148, "dist_m": 275.0, "landslide": "", "f_veg": 0.144, "f_soil": 0.0, "f_grey": 0.803, "f_dark": 0.053, "status": "clear", "status_auto": "clear", "note": "", "reach": "B" }, "geometry": { "type": "Polygon", "coordinates": [ [ [ 98.096422759469263, 13.9084984411869 ], [ 98.096499259470292, 13.908530341192055 ], [ 98.096548559480595, 13.90841894119605 ], [ 98.096472159479546, 13.908387041190906 ], [ 98.096422759469263, 13.9084984411869 ] ] ] } },
{ "type": "Feature", "properties": { "bid": "TZW-B0087", "source": "OSM", "src_id": "581536363", "area_m2": 71.6, "overlap": 0.0, "overlap_outwash": 0.218, "dist_m": 311.1, "landslide": "", "f_veg": 0.366, "f_soil": 0.0, "f_grey": 0.513, "f_dark": 0.121, "status": "clear", "status_auto": "clear", "note": "", "reach": "B" }, "geometry": { "type": "Polygon", "coordinates": [ [ [ 98.096157259448091, 13.908628641167775 ], [ 98.09622495944916, 13.908654641172349 ], [ 98.096256159456104, 13.908578241174911 ], [ 98.096188459455021, 13.908552141170341 ], [ 98.096157259448091, 13.908628641167775 ] ] ] } },
{ "type": "Feature", "properties": { "bid": "TZW-B0088", "source": "OSM", "src_id": "581536364", "area_m2": 89.8, "overlap": 0.0, "overlap_outwash": 0.427, "dist_m": 327.2, "landslide": "", "f_veg": 0.36, "f_soil": 0.224, "f_grey": 0.392, "f_dark": 0.023, "status": "clear", "status_auto": "outwash", "note": "Chip review: roof standing; the pale yard around it was already bare sand on 10 Jan, no fresh sediment against it.", "reach": "B" }, "geometry": { "type": "Polygon", "coordinates": [ [ [ 98.095988959436951, 13.908679441155817 ], [ 98.09605265943884, 13.908692441160181 ], [ 98.096077159448129, 13.908579441162459 ], [ 98.096013459446269, 13.908566441158101 ], [ 98.095988959436951, 13.908679441155817 ] ] ] } },
{ "type": "Feature", "properties": { "bid": "TZW-B0089", "source": "OSM", "src_id": "581536365", "area_m2": 125.7, "overlap": 0.0, "overlap_outwash": 0.204, "dist_m": 344.6, "landslide": "", "f_veg": 0.821, "f_soil": 0.002, "f_grey": 0.146, "f_dark": 0.031, "status": "clear", "status_auto": "clear", "note": "", "reach": "B" }, "geometry": { "type": "Polygon", "coordinates": [ [ [ 98.095656959428865, 13.908589641133204 ], [ 98.095803859434781, 13.908597441143373 ], [ 98.095807859440157, 13.908526041144018 ], [ 98.095661059434264, 13.908518241133851 ], [ 98.095656959428865, 13.908589641133204 ] ] ] } },
{ "type": "Feature", "properties": { "bid": "TZW-B0090", "source": "OSM", "src_id": "581536366", "area_m2": 80.4, "overlap": 0.0, "overlap_outwash": 0.38, "dist_m": 309.2, "landslide": "", "f_veg": 0.045, "f_soil": 0.274, "f_grey": 0.679, "f_dark": 0.002, "status": "clear", "status_auto": "outwash", "note": "Chip review: roof standing; the pale yard around it was already bare sand on 10 Jan, no fresh sediment against it.", "reach": "B" }, "geometry": { "type": "Polygon", "coordinates": [ [ [ 98.095549059393832, 13.909005541123557 ], [ 98.095616559396674, 13.909007241128245 ], [ 98.095619259404046, 13.908907641128943 ], [ 98.095551759401204, 13.908905941124264 ], [ 98.095549059393832, 13.909005541123557 ] ] ] } },
{ "type": "Feature", "properties": { "bid": "TZW-B0091", "source": "OSM", "src_id": "581536367", "area_m2": 69.7, "overlap": 0.0, "overlap_outwash": 0.229, "dist_m": 305.4, "landslide": "", "f_veg": 0.006, "f_soil": 0.276, "f_grey": 0.715, "f_dark": 0.003, "status": "clear", "status_auto": "clear", "note": "", "reach": "B" }, "geometry": { "type": "Polygon", "coordinates": [ [ [ 98.095334459373902, 13.909149341107904 ], [ 98.095422359378659, 13.909137041114077 ], [ 98.095412659382973, 13.909072041113738 ], [ 98.095324759378201, 13.909084441107565 ], [ 98.095334459373902, 13.909149341107904 ] ] ] } },
{ "type": "Feature", "properties": { "bid": "TZW-B0092", "source": "OSM", "src_id": "581536368", "area_m2": 57.7, "overlap": 0.0, "overlap_outwash": 0.551, "dist_m": 313.7, "landslide": "", "f_veg": 0.0, "f_soil": 0.893, "f_grey": 0.107, "f_dark": 0.0, "status": "clear", "status_auto": "outwash", "note": "Chip review: roof standing; the pale yard around it was already bare sand on 10 Jan, no fresh sediment against it.", "reach": "B" }, "geometry": { "type": "Polygon", "coordinates": [ [ [ 98.095205059368354, 13.909147441098918 ], [ 98.095258059371019, 13.909142841102627 ], [ 98.095249759377225, 13.909052441102512 ], [ 98.095196759374574, 13.909056941098804 ], [ 98.095205059368354, 13.909147441098918 ] ] ] } },
{ "type": "Feature", "properties": { "bid": "TZW-B0093", "source": "OSM", "src_id": "581536369", "area_m2": 110.3, "overlap": null, "overlap_outwash": null, "dist_m": null, "landslide": null, "f_veg": null, "f_soil": null, "f_grey": null, "f_dark": null, "status": "not_surveyed", "status_auto": "not_surveyed", "note": "", "reach": "B" }, "geometry": { "type": "Polygon", "coordinates": [ [ [ 98.0943254, 13.90975 ], [ 98.09442940000001, 13.9097096 ], [ 98.0943978, 13.9096331 ], [ 98.0942939, 13.9096734 ], [ 98.0943254, 13.90975 ] ] ] } },
{ "type": "Feature", "properties": { "bid": "TZW-B0094", "source": "OSM", "src_id": "581536370", "area_m2": 29.4, "overlap": null, "overlap_outwash": null, "dist_m": null, "landslide": null, "f_veg": null, "f_soil": null, "f_grey": null, "f_dark": null, "status": "not_surveyed", "status_auto": "not_surveyed", "note": "", "reach": "B" }, "geometry": { "type": "Polygon", "coordinates": [ [ [ 98.0942859, 13.9095261 ], [ 98.0943228, 13.9095078 ], [ 98.094295, 13.9094549 ], [ 98.0942581, 13.9094731 ], [ 98.0942859, 13.9095261 ] ] ] } },
{ "type": "Feature", "properties": { "bid": "TZW-B0095", "source": "OSM", "src_id": "581536374", "area_m2": 44.1, "overlap": 0.0, "overlap_outwash": 0.0, "dist_m": 310.1, "landslide": "", "f_veg": 0.812, "f_soil": 0.005, "f_grey": 0.077, "f_dark": 0.106, "status": "clear", "status_auto": "clear", "note": "", "reach": "B" }, "geometry": { "type": "Polygon", "coordinates": [ [ [ 98.094894559342379, 13.909316041076465 ], [ 98.094898459339248, 13.909361441076497 ], [ 98.09497905934326, 13.90935504108214 ], [ 98.094975259346413, 13.909309541082109 ], [ 98.094894559342379, 13.909316041076465 ] ] ] } },
{ "type": "Feature", "properties": { "bid": "TZW-B0096", "source": "OSM", "src_id": "581536375", "area_m2": 115.4, "overlap": 0.0, "overlap_outwash": 0.091, "dist_m": 325.5, "landslide": "", "f_veg": 0.397, "f_soil": 0.232, "f_grey": 0.351, "f_dark": 0.019, "status": "clear", "status_auto": "clear", "note": "", "reach": "B" }, "geometry": { "type": "Polygon", "coordinates": [ [ [ 98.094823559346281, 13.909219641072026 ], [ 98.094942959352224, 13.909210141080377 ], [ 98.094936159357786, 13.909129841080317 ], [ 98.094816759351829, 13.909139341071965 ], [ 98.094823559346281, 13.909219641072026 ] ] ] } },
{ "type": "Feature", "properties": { "bid": "TZW-B0097", "source": "OSM", "src_id": "581536376", "area_m2": 113.8, "overlap": null, "overlap_outwash": null, "dist_m": null, "landslide": null, "f_veg": null, "f_soil": null, "f_grey": null, "f_dark": null, "status": "not_surveyed", "status_auto": "not_surveyed", "note": "", "reach": "B" }, "geometry": { "type": "Polygon", "coordinates": [ [ [ 98.0947553, 13.9090145 ], [ 98.094835, 13.9090081 ], [ 98.094825, 13.9088895 ], [ 98.0947452, 13.9088958 ], [ 98.0947553, 13.9090145 ] ] ] } },
{ "type": "Feature", "properties": { "bid": "TZW-B0098", "source": "OSM", "src_id": "581536377", "area_m2": 140.3, "overlap": 0.0, "overlap_outwash": 0.076, "dist_m": 346.9, "landslide": "", "f_veg": 0.904, "f_soil": 0.001, "f_grey": 0.05, "f_dark": 0.045, "status": "clear", "status_auto": "clear", "note": "", "reach": "B" }, "geometry": { "type": "Polygon", "coordinates": [ [ [ 98.094838259362675, 13.909003541074158 ], [ 98.094911959366343, 13.908997641079313 ], [ 98.094898659377279, 13.908839541079203 ], [ 98.094824859373588, 13.908845441074044 ], [ 98.094838259362675, 13.909003541074158 ] ] ] } },
{ "type": "Feature", "properties": { "bid": "TZW-B0099", "source": "OSM", "src_id": "581536378", "area_m2": 100.5, "overlap": 0.0, "overlap_outwash": 0.039, "dist_m": 359.5, "landslide": "", "f_veg": 0.991, "f_soil": 0.0, "f_grey": 0.0, "f_dark": 0.009, "status": "clear", "status_auto": "clear", "note": "", "reach": "B" }, "geometry": { "type": "Polygon", "coordinates": [ [ [ 98.094965659384968, 13.908774441084196 ], [ 98.095077859390543, 13.908765541092043 ], [ 98.0950716593957, 13.908691141091991 ], [ 98.094959359390103, 13.908700041084144 ], [ 98.094965659384968, 13.908774441084196 ] ] ] } },
{ "type": "Feature", "properties": { "bid": "TZW-B0100", "source": "OSM", "src_id": "581536382", "area_m2": 244.9, "overlap": null, "overlap_outwash": null, "dist_m": null, "landslide": null, "f_veg": null, "f_soil": null, "f_grey": null, "f_dark": null, "status": "not_surveyed", "status_auto": "not_surveyed", "note": "", "reach": "B" }, "geometry": { "type": "Polygon", "coordinates": [ [ [ 98.0944039, 13.9095378 ], [ 98.0945937, 13.9094303 ], [ 98.0945453, 13.9093498 ], [ 98.09435550000002, 13.9094572 ], [ 98.0944039, 13.9095378 ] ] ] } },
{ "type": "Feature", "properties": { "bid": "TZW-B0101", "source": "OSM", "src_id": "581536383", "area_m2": 450.3, "overlap": null, "overlap_outwash": null, "dist_m": null, "landslide": null, "f_veg": null, "f_soil": null, "f_grey": null, "f_dark": null, "status": "not_surveyed", "status_auto": "not_surveyed", "note": "", "reach": "B" }, "geometry": { "type": "Polygon", "coordinates": [ [ [ 98.0941991, 13.9093872 ], [ 98.094288, 13.909336 ], [ 98.094342200000014, 13.9094246 ], [ 98.0943774, 13.9094043 ], [ 98.0943237, 13.9093165 ], [ 98.0943849, 13.9092813 ], [ 98.0943252, 13.9091836 ], [ 98.0940769, 13.9093267 ], [ 98.0941356, 13.9094228 ], [ 98.0941668, 13.9094049 ], [ 98.0941802, 13.9094267 ], [ 98.094212, 13.9094084 ], [ 98.0941991, 13.9093872 ] ] ] } },
{ "type": "Feature", "properties": { "bid": "TZW-B0102", "source": "OSM", "src_id": "1564142942", "area_m2": 115.3, "overlap": 0.0, "overlap_outwash": 0.229, "dist_m": 304.4, "landslide": "", "f_veg": 0.087, "f_soil": 0.006, "f_grey": 0.894, "f_dark": 0.012, "status": "clear", "status_auto": "clear", "note": "", "reach": "B" }, "geometry": { "type": "Polygon", "coordinates": [ [ [ 98.0962163594332, 13.908868441170647 ], [ 98.096230159441461, 13.908763541172151 ], [ 98.096139659438293, 13.908752341165917 ], [ 98.096125859430046, 13.908857141164418 ], [ 98.0962163594332, 13.908868441170647 ] ] ] } },
{ "type": "Feature", "properties": { "bid": "TZW-B0103", "source": "OSM", "src_id": "1564142943", "area_m2": 104.8, "overlap": 0.0, "overlap_outwash": 0.278, "dist_m": 307.7, "landslide": "", "f_veg": 0.115, "f_soil": 0.205, "f_grey": 0.68, "f_dark": 0.001, "status": "clear", "status_auto": "clear", "note": "", "reach": "B" }, "geometry": { "type": "Polygon", "coordinates": [ [ [ 98.096040559427053, 13.908846641158542 ], [ 98.096125859430046, 13.908857141164418 ], [ 98.096139159438025, 13.908755941165863 ], [ 98.096053859435017, 13.908745441159986 ], [ 98.096040559427053, 13.908846641158542 ] ] ] } },
{ "type": "Feature", "properties": { "bid": "TZW-B0104", "source": "OSM", "src_id": "1564142944", "area_m2": 125.5, "overlap": null, "overlap_outwash": null, "dist_m": null, "landslide": null, "f_veg": null, "f_soil": null, "f_grey": null, "f_dark": null, "status": "not_surveyed", "status_auto": "not_surveyed", "note": "", "reach": "B" }, "geometry": { "type": "Polygon", "coordinates": [ [ [ 98.0950951, 13.9085528 ], [ 98.0951675, 13.90855 ], [ 98.0951615, 13.9084052 ], [ 98.0950891, 13.908408 ], [ 98.0950951, 13.9085528 ] ] ] } },
{ "type": "Feature", "properties": { "bid": "TZW-B0105", "source": "OSM", "src_id": "1564142946", "area_m2": 83.5, "overlap": null, "overlap_outwash": null, "dist_m": null, "landslide": null, "f_veg": null, "f_soil": null, "f_grey": null, "f_dark": null, "status": "not_surveyed", "status_auto": "not_surveyed", "note": "", "reach": "B" }, "geometry": { "type": "Polygon", "coordinates": [ [ [ 98.0952643, 13.908266 ], [ 98.0953173, 13.9082734 ], [ 98.0953365, 13.9081444 ], [ 98.0952834, 13.908137 ], [ 98.0952643, 13.908266 ] ] ] } },
{ "type": "Feature", "properties": { "bid": "TZW-B0106", "source": "OSM", "src_id": "1565214745", "area_m2": 22.7, "overlap": 0.0, "overlap_outwash": 0.0, "dist_m": 289.8, "landslide": "", "f_veg": 0.961, "f_soil": 0.0, "f_grey": 0.033, "f_dark": 0.006, "status": "clear", "status_auto": "clear", "note": "", "reach": "B" }, "geometry": { "type": "Polygon", "coordinates": [ [ [ 98.095072959340669, 13.90944744108819 ], [ 98.095093959338342, 13.909491841089416 ], [ 98.095129259341064, 13.90947614109195 ], [ 98.095108259343363, 13.909431741090723 ], [ 98.095072959340669, 13.90944744108819 ] ] ] } },
{ "type": "Feature", "properties": { "bid": "TZW-B0107", "source": "OSM", "src_id": "1565214746", "area_m2": 25.7, "overlap": 0.0, "overlap_outwash": 0.0, "dist_m": 291.5, "landslide": "", "f_veg": 0.014, "f_soil": 0.046, "f_grey": 0.887, "f_dark": 0.053, "status": "clear", "status_auto": "clear", "note": "", "reach": "B" }, "geometry": { "type": "Polygon", "coordinates": [ [ [ 98.09521775935491, 13.909339441098808 ], [ 98.095238259352655, 13.909382541100014 ], [ 98.095279459355822, 13.909364141102971 ], [ 98.095259059358085, 13.909321041101784 ], [ 98.09521775935491, 13.909339441098808 ] ] ] } },
{ "type": "Feature", "properties": { "bid": "TZW-B0108", "source": "OSM", "src_id": "1565214750", "area_m2": 20.0, "overlap": 0.0, "overlap_outwash": 0.318, "dist_m": 107.8, "landslide": "", "f_veg": 0.377, "f_soil": 0.0, "f_grey": 0.266, "f_dark": 0.357, "status": "outwash", "status_auto": "outwash", "note": "", "reach": "" }, "geometry": { "type": "Polygon", "coordinates": [ [ [ 98.099245159507618, 13.909679141377001 ], [ 98.099217559505078, 13.909697041374988 ], [ 98.099246459503291, 13.909739041376783 ], [ 98.099274059505817, 13.90972124137879 ], [ 98.099245159507618, 13.909679141377001 ] ] ] } },
{ "type": "Feature", "properties": { "bid": "TZW-B0109", "source": "OSM", "src_id": "1565214751", "area_m2": 29.3, "overlap": 0.0, "overlap_outwash": 0.636, "dist_m": 116.6, "landslide": "", "f_veg": 0.0, "f_soil": 0.248, "f_grey": 0.752, "f_dark": 0.0, "status": "destroyed", "status_auto": "outwash", "note": "Chip review: a small dark roof under the footprint on 10 Jan; only bare sand of the WV-01 fan now.", "reach": "" }, "geometry": { "type": "Polygon", "coordinates": [ [ [ 98.099156659506264, 13.909644041371024 ], [ 98.099126259503493, 13.909663641368811 ], [ 98.099164659501113, 13.909719541371192 ], [ 98.099194959503876, 13.909699941373404 ], [ 98.099156659506264, 13.909644041371024 ] ] ] } },
{ "type": "Feature", "properties": { "bid": "TZW-B0110", "source": "OSM", "src_id": "1565214765", "area_m2": 125.6, "overlap": null, "overlap_outwash": null, "dist_m": null, "landslide": null, "f_veg": null, "f_soil": null, "f_grey": null, "f_dark": null, "status": "not_surveyed", "status_auto": "not_surveyed", "note": "", "reach": "" }, "geometry": { "type": "Polygon", "coordinates": [ [ [ 98.0979404, 13.9061713 ], [ 98.097918, 13.9062498 ], [ 98.0980423, 13.9062833 ], [ 98.0980647, 13.9062048 ], [ 98.0979404, 13.9061713 ] ] ] } },
{ "type": "Feature", "properties": { "bid": "TZW-B0111", "source": "OSM", "src_id": "1565214766", "area_m2": 69.6, "overlap": 0.0, "overlap_outwash": 0.259, "dist_m": 163.5, "landslide": "", "f_veg": 0.288, "f_soil": 0.101, "f_grey": 0.574, "f_dark": 0.037, "status": "clear", "status_auto": "clear", "note": "", "reach": "B" }, "geometry": { "type": "Polygon", "coordinates": [ [ [ 98.097387659552524, 13.907938741256844 ], [ 98.097369259546994, 13.908003441255234 ], [ 98.097452759549043, 13.908025941260922 ], [ 98.097471259554581, 13.907961141262541 ], [ 98.097387659552524, 13.907938741256844 ] ] ] } },
{ "type": "Feature", "properties": { "bid": "TZW-B0112", "source": "OSM", "src_id": "1565214767", "area_m2": 66.0, "overlap": 0.0, "overlap_outwash": 0.361, "dist_m": 189.3, "landslide": "", "f_veg": 0.081, "f_soil": 0.009, "f_grey": 0.882, "f_dark": 0.028, "status": "clear", "status_auto": "outwash", "note": "Chip review: roof standing; the pale yard around it was already bare sand on 10 Jan, no fresh sediment against it.", "reach": "B" }, "geometry": { "type": "Polygon", "coordinates": [ [ [ 98.097016259544034, 13.907830641231591 ], [ 98.097065859545239, 13.907844041234963 ], [ 98.097095359554061, 13.907740841237548 ], [ 98.097045659552862, 13.90772744123416 ], [ 98.097016259544034, 13.907830641231591 ] ] ] } },
{ "type": "Feature", "properties": { "bid": "TZW-B0113", "source": "OSM", "src_id": "1565214768", "area_m2": 69.4, "overlap": 0.0, "overlap_outwash": 0.377, "dist_m": 194.2, "landslide": "", "f_veg": 0.134, "f_soil": 0.067, "f_grey": 0.799, "f_dark": 0.0, "status": "clear", "status_auto": "outwash", "note": "Chip review: roof standing; the pale yard around it was already bare sand on 10 Jan, no fresh sediment against it.", "reach": "B" }, "geometry": { "type": "Polygon", "coordinates": [ [ [ 98.096861959562659, 13.907481741222655 ], [ 98.096848359558578, 13.907529541221466 ], [ 98.09696125956134, 13.90755984122916 ], [ 98.096974859565407, 13.907512141230352 ], [ 98.096861959562659, 13.907481741222655 ] ] ] } },
{ "type": "Feature", "properties": { "bid": "TZW-B0114", "source": "OSM", "src_id": "1565214771", "area_m2": 96.8, "overlap": null, "overlap_outwash": null, "dist_m": null, "landslide": null, "f_veg": null, "f_soil": null, "f_grey": null, "f_dark": null, "status": "not_surveyed", "status_auto": "not_surveyed", "note": "", "reach": "B" }, "geometry": { "type": "Polygon", "coordinates": [ [ [ 98.0944723, 13.9090978 ], [ 98.0944785, 13.9091715 ], [ 98.0945876, 13.9091629 ], [ 98.0945814, 13.9090891 ], [ 98.0944723, 13.9090978 ] ] ] } },
{ "type": "Feature", "properties": { "bid": "TZW-B0115", "source": "OSM", "src_id": "1565214802", "area_m2": 38.0, "overlap": 0.0, "overlap_outwash": 0.0, "dist_m": 99.5, "landslide": "", "f_veg": 0.016, "f_soil": 0.0, "f_grey": 0.979, "f_dark": 0.005, "status": "clear", "status_auto": "clear", "note": "", "reach": "" }, "geometry": { "type": "Polygon", "coordinates": [ [ [ 98.097625059639128, 13.906893341278714 ], [ 98.097618959635341, 13.906941441278045 ], [ 98.097684059637643, 13.90694934128253 ], [ 98.097690259641425, 13.90690124128321 ], [ 98.097625059639128, 13.906893341278714 ] ] ] } },
{ "type": "Feature", "properties": { "bid": "TZW-B0116", "source": "OSM", "src_id": "1565214803", "area_m2": 72.2, "overlap": 0.0, "overlap_outwash": 0.0, "dist_m": 114.6, "landslide": "", "f_veg": 0.228, "f_soil": 0.021, "f_grey": 0.751, "f_dark": 0.0, "status": "clear", "status_auto": "clear", "note": "", "reach": "" }, "geometry": { "type": "Polygon", "coordinates": [ [ [ 98.097439959635878, 13.906825641266204 ], [ 98.097432559631343, 13.906883641265392 ], [ 98.097535259634967, 13.906895941272465 ], [ 98.097542659639515, 13.906838041273273 ], [ 98.097439959635878, 13.906825641266204 ] ] ] } },
{ "type": "Feature", "properties": { "bid": "TZW-B0117", "source": "OSM", "src_id": "1565214804", "area_m2": 126.9, "overlap": 0.0, "overlap_outwash": 0.0, "dist_m": 151.2, "landslide": "", "f_veg": 0.309, "f_soil": 0.011, "f_grey": 0.68, "f_dark": 0.001, "status": "clear", "status_auto": "clear", "note": "", "reach": "B" }, "geometry": { "type": "Polygon", "coordinates": [ [ [ 98.097480259556804, 13.907936141263294 ], [ 98.097476459549853, 13.90802934126255 ], [ 98.097590159554542, 13.908033741270428 ], [ 98.097593959561493, 13.907940441271172 ], [ 98.097480259556804, 13.907936141263294 ] ] ] } },
{ "type": "Feature", "properties": { "bid": "TZW-B0118", "source": "OSM", "src_id": "1565214805", "area_m2": 116.1, "overlap": 0.0, "overlap_outwash": 0.525, "dist_m": 130.7, "landslide": "", "f_veg": 0.0, "f_soil": 0.0, "f_grey": 1.0, "f_dark": 0.0, "status": "outwash", "status_auto": "outwash", "note": "", "reach": "B" }, "geometry": { "type": "Polygon", "coordinates": [ [ [ 98.09752185958186, 13.907617141267826 ], [ 98.097518159575174, 13.907706741267107 ], [ 98.097626459579629, 13.907710941274608 ], [ 98.097630059586322, 13.90762134127532 ], [ 98.09752185958186, 13.907617141267826 ] ] ] } },
{ "type": "Feature", "properties": { "bid": "TZW-B0119", "source": "OSM", "src_id": "1565214806", "area_m2": 123.4, "overlap": 0.0, "overlap_outwash": 0.367, "dist_m": 213.6, "landslide": "", "f_veg": 0.051, "f_soil": 0.09, "f_grey": 0.785, "f_dark": 0.074, "status": "clear", "status_auto": "outwash", "note": "Chip review: roof standing; the pale yard around it was already bare sand on 10 Jan, no fresh sediment against it.", "reach": "B" }, "geometry": { "type": "Polygon", "coordinates": [ [ [ 98.098105859444587, 13.909855141296909 ], [ 98.09806595943607, 13.909947841293658 ], [ 98.098160859437471, 13.909986241300057 ], [ 98.098200759445959, 13.909893541303308 ], [ 98.098105859444587, 13.909855141296909 ] ] ] } },
{ "type": "Feature", "properties": { "bid": "TZW-B0120", "source": "OSM", "src_id": "1565214807", "area_m2": 54.0, "overlap": 0.0, "overlap_outwash": 0.368, "dist_m": 290.0, "landslide": "", "f_veg": 0.237, "f_soil": 0.0, "f_grey": 0.763, "f_dark": 0.0, "status": "clear", "status_auto": "outwash", "note": "Chip review: roof standing; the pale yard around it was already bare sand on 10 Jan, no fresh sediment against it.", "reach": "B" }, "geometry": { "type": "Polygon", "coordinates": [ [ [ 98.096542759458515, 13.908718441194109 ], [ 98.096515259453923, 13.908764741191961 ], [ 98.096588359454174, 13.908805741196829 ], [ 98.096615959458745, 13.908759441198988 ], [ 98.096542759458515, 13.908718441194109 ] ] ] } },
{ "type": "Feature", "properties": { "bid": "TZW-B0121", "source": "OSM", "src_id": "1565214808", "area_m2": 81.1, "overlap": 0.0, "overlap_outwash": 0.387, "dist_m": 287.5, "landslide": "", "f_veg": 0.04, "f_soil": 0.411, "f_grey": 0.546, "f_dark": 0.003, "status": "clear", "status_auto": "outwash", "note": "Chip review: roof standing; the pale yard around it was already bare sand on 10 Jan, no fresh sediment against it.", "reach": "B" }, "geometry": { "type": "Polygon", "coordinates": [ [ [ 98.096654159456577, 13.908812241201369 ], [ 98.096607659448864, 13.908890241197739 ], [ 98.096672859449086, 13.908926741202079 ], [ 98.096719359456813, 13.908848741205716 ], [ 98.096654159456577, 13.908812241201369 ] ] ] } },
{ "type": "Feature", "properties": { "bid": "TZW-B0122", "source": "OSM", "src_id": "1565214809", "area_m2": 89.5, "overlap": 0.0, "overlap_outwash": 0.167, "dist_m": 283.9, "landslide": "", "f_veg": 0.33, "f_soil": 0.0, "f_grey": 0.669, "f_dark": 0.0, "status": "clear", "status_auto": "clear", "note": "", "reach": "B" }, "geometry": { "type": "Polygon", "coordinates": [ [ [ 98.096742659456808, 13.908862941207259 ], [ 98.096694559448778, 13.908943741203505 ], [ 98.096764059449029, 13.908982741208129 ], [ 98.096812159457031, 13.908901941211891 ], [ 98.096742659456808, 13.908862941207259 ] ] ] } },
{ "type": "Feature", "properties": { "bid": "TZW-B0123", "source": "OSM", "src_id": "1565214810", "area_m2": 33.0, "overlap": 0.0, "overlap_outwash": 0.181, "dist_m": 251.8, "landslide": "", "f_veg": 0.0, "f_soil": 0.087, "f_grey": 0.913, "f_dark": 0.0, "status": "clear", "status_auto": "clear", "note": "", "reach": "B" }, "geometry": { "type": "Polygon", "coordinates": [ [ [ 98.097288459472963, 13.908971041244637 ], [ 98.097277159469215, 13.909015741243623 ], [ 98.097335359470776, 13.909029641247599 ], [ 98.097346659474525, 13.908984841248614 ], [ 98.097288459472963, 13.908971041244637 ] ] ] } },
{ "type": "Feature", "properties": { "bid": "TZW-B0124", "source": "OSM", "src_id": "1565214811", "area_m2": 125.2, "overlap": 0.0, "overlap_outwash": 0.561, "dist_m": 208.4, "landslide": "", "f_veg": 0.0, "f_soil": 0.179, "f_grey": 0.821, "f_dark": 0.0, "status": "clear", "status_auto": "outwash", "note": "Chip review: roof standing; the pale yard around it was already bare sand on 10 Jan, no fresh sediment against it.", "reach": "B" }, "geometry": { "type": "Polygon", "coordinates": [ [ [ 98.097894959492436, 13.90907054128628 ], [ 98.097963859493944, 13.909091741290963 ], [ 98.098008959506004, 13.908953441294809 ], [ 98.097940059504509, 13.908932341290127 ], [ 98.097894959492436, 13.90907054128628 ] ] ] } },
{ "type": "Feature", "properties": { "bid": "TZW-B0125", "source": "OSM", "src_id": "1565214812", "area_m2": 139.6, "overlap": 0.0, "overlap_outwash": 0.383, "dist_m": 142.1, "landslide": "", "f_veg": 0.002, "f_soil": 0.004, "f_grey": 0.994, "f_dark": 0.0, "status": "clear", "status_auto": "outwash", "note": "Chip review: roof standing; the pale yard around it was already bare sand on 10 Jan, no fresh sediment against it.", "reach": "B" }, "geometry": { "type": "Polygon", "coordinates": [ [ [ 98.097760559553322, 13.908153541281658 ], [ 98.097757459547623, 13.90822964128105 ], [ 98.097910759553955, 13.908235541291672 ], [ 98.097913859559625, 13.908159441292277 ], [ 98.097760559553322, 13.908153541281658 ] ] ] } },
{ "type": "Feature", "properties": { "bid": "TZW-B0126", "source": "OSM", "src_id": "1565214813", "area_m2": 48.2, "overlap": 0.0, "overlap_outwash": 0.282, "dist_m": 161.7, "landslide": "", "f_veg": 0.29, "f_soil": 0.047, "f_grey": 0.407, "f_dark": 0.256, "status": "clear", "status_auto": "clear", "note": "", "reach": "B" }, "geometry": { "type": "Polygon", "coordinates": [ [ [ 98.09769215954158, 13.908273241276284 ], [ 98.097690159537933, 13.908322141275892 ], [ 98.097772559541326, 13.908325341281611 ], [ 98.097774559544973, 13.908276441281997 ], [ 98.09769215954158, 13.908273241276284 ] ] ] } },
{ "type": "Feature", "properties": { "bid": "TZW-B0127", "source": "OSM", "src_id": "1565214814", "area_m2": 89.9, "overlap": 0.0, "overlap_outwash": 0.39, "dist_m": 171.5, "landslide": "", "f_veg": 0.183, "f_soil": 0.001, "f_grey": 0.813, "f_dark": 0.003, "status": "clear", "status_auto": "outwash", "note": "Chip review: roof standing; the pale yard around it was already bare sand on 10 Jan, no fresh sediment against it.", "reach": "B" }, "geometry": { "type": "Polygon", "coordinates": [ [ [ 98.097706859530462, 13.908434641276477 ], [ 98.0977046595264, 13.908489241276046 ], [ 98.097842359532066, 13.908494541285584 ], [ 98.097844559536156, 13.908440041286015 ], [ 98.097706859530462, 13.908434641276477 ] ] ] } },
{ "type": "Feature", "properties": { "bid": "TZW-B0128", "source": "OSM", "src_id": "1565214815", "area_m2": 48.2, "overlap": 0.0, "overlap_outwash": 0.107, "dist_m": 268.8, "landslide": "", "f_veg": 0.915, "f_soil": 0.0, "f_grey": 0.085, "f_dark": 0.0, "status": "clear", "status_auto": "clear", "note": "", "reach": "B" }, "geometry": { "type": "Polygon", "coordinates": [ [ [ 98.09629875950958, 13.907869741181518 ], [ 98.096279659505385, 13.907915741179957 ], [ 98.096355059506564, 13.907945241185041 ], [ 98.096374159510759, 13.907899241186609 ], [ 98.09629875950958, 13.907869741181518 ] ] ] } },
{ "type": "Feature", "properties": { "bid": "TZW-B0129", "source": "OSM", "src_id": "1565214821", "area_m2": 101.4, "overlap": 0.569, "overlap_outwash": 0.16, "dist_m": 0.0, "landslide": "WN-01", "f_veg": 0.002, "f_soil": 0.664, "f_grey": 0.333, "f_dark": 0.0, "status": "damaged", "status_auto": "damaged", "note": "", "reach": "A" }, "geometry": { "type": "Polygon", "coordinates": [ [ [ 98.099047959348894, 13.911738641352718 ], [ 98.098962159339038, 13.911821941346325 ], [ 98.099013159337701, 13.911871341349618 ], [ 98.099098959347543, 13.91178804135601 ], [ 98.099047959348894, 13.911738641352718 ] ] ] } },
{ "type": "Feature", "properties": { "bid": "TZW-B0130", "source": "OSM", "src_id": "1565214822", "area_m2": 59.6, "overlap": 0.0, "overlap_outwash": 0.145, "dist_m": 289.4, "landslide": "", "f_veg": 0.481, "f_soil": 0.001, "f_grey": 0.406, "f_dark": 0.113, "status": "clear", "status_auto": "clear", "note": "", "reach": "B" }, "geometry": { "type": "Polygon", "coordinates": [ [ [ 98.095722059397886, 13.909054341135329 ], [ 98.095723559392198, 13.909133541135031 ], [ 98.095786459395043, 13.909132441139409 ], [ 98.095784959400746, 13.909053241139711 ], [ 98.095722059397886, 13.909054341135329 ] ] ] } },
{ "type": "Feature", "properties": { "bid": "TZW-B0131", "source": "OSM", "src_id": "1565214823", "area_m2": 80.2, "overlap": 0.0, "overlap_outwash": 0.253, "dist_m": 286.5, "landslide": "", "f_veg": 0.111, "f_soil": 0.0, "f_grey": 0.802, "f_dark": 0.087, "status": "clear", "status_auto": "clear", "note": "", "reach": "B" }, "geometry": { "type": "Polygon", "coordinates": [ [ [ 98.095823959406559, 13.908997041142712 ], [ 98.095826459397131, 13.909128141142212 ], [ 98.095877659399434, 13.909127241145777 ], [ 98.095875159408877, 13.908996141146279 ], [ 98.095823959406559, 13.908997041142712 ] ] ] } },
{ "type": "Feature", "properties": { "bid": "TZW-B0132", "source": "OSM", "src_id": "1565214824", "area_m2": 109.8, "overlap": 0.0, "overlap_outwash": 0.218, "dist_m": 266.9, "landslide": "", "f_veg": 0.017, "f_soil": 0.012, "f_grey": 0.971, "f_dark": 0.0, "status": "clear", "status_auto": "clear", "note": "", "reach": "B" }, "geometry": { "type": "Polygon", "coordinates": [ [ [ 98.096330959423767, 13.90906734117759 ], [ 98.096333059415613, 13.909180741177156 ], [ 98.09641405941926, 13.909179341182792 ], [ 98.096411959427442, 13.909065941183229 ], [ 98.096330959423767, 13.90906734117759 ] ] ] } },
{ "type": "Feature", "properties": { "bid": "TZW-B0133", "source": "OSM", "src_id": "1565214825", "area_m2": 112.3, "overlap": 0.0, "overlap_outwash": 0.294, "dist_m": 322.7, "landslide": "", "f_veg": 0.527, "f_soil": 0.012, "f_grey": 0.457, "f_dark": 0.004, "status": "clear", "status_auto": "clear", "note": "", "reach": "B" }, "geometry": { "type": "Polygon", "coordinates": [ [ [ 98.095589559413995, 13.908753241127677 ], [ 98.095587659407371, 13.90884304112708 ], [ 98.095692359411814, 13.90884504113435 ], [ 98.095694159418443, 13.908755341134933 ], [ 98.095589559413995, 13.908753241127677 ] ] ] } },
{ "type": "Feature", "properties": { "bid": "TZW-B0134", "source": "VIDA/microsoft", "src_id": "00220000000000000f80", "area_m2": 48.2, "overlap": 0.0, "overlap_outwash": 0.0, "dist_m": 48.9, "landslide": "", "f_veg": 0.958, "f_soil": 0.016, "f_grey": 0.025, "f_dark": 0.0, "status": "clear", "status_auto": "clear", "note": "", "reach": "A" }, "geometry": { "type": "Polygon", "coordinates": [ [ [ 98.100230282619307, 13.922023121134348 ], [ 98.100215204787375, 13.921947925604357 ], [ 98.100163556969449, 13.921957633418277 ], [ 98.100178551487744, 13.922032919548581 ], [ 98.100230282619307, 13.922023121134348 ] ] ] } },
{ "type": "Feature", "properties": { "bid": "TZW-B0135", "source": "VIDA/microsoft", "src_id": "0022000000000000471c", "area_m2": 53.8, "overlap": 0.0, "overlap_outwash": 0.357, "dist_m": 111.8, "landslide": "", "f_veg": 0.0, "f_soil": 0.559, "f_grey": 0.441, "f_dark": 0.0, "status": "outwash", "status_auto": "outwash", "note": "", "reach": "B" }, "geometry": { "type": "Polygon", "coordinates": [ [ [ 98.098915607730561, 13.910708888699256 ], [ 98.098884619593207, 13.910659515893613 ], [ 98.098818145074446, 13.910698866129763 ], [ 98.098849133183492, 13.910748238963418 ], [ 98.098915607730561, 13.910708888699256 ] ] ] } },
{ "type": "Feature", "properties": { "bid": "TZW-B0136", "source": "VIDA/microsoft", "src_id": "002200000000000096e5", "area_m2": 18.6, "overlap": 0.0, "overlap_outwash": 0.001, "dist_m": 325.0, "landslide": "", "f_veg": 0.137, "f_soil": 0.002, "f_grey": 0.861, "f_dark": 0.0, "status": "clear", "status_auto": "clear", "note": "", "reach": "B" }, "geometry": { "type": "Polygon", "coordinates": [ [ [ 98.094910749966203, 13.909237851597059 ], [ 98.094903336546167, 13.909207277087706 ], [ 98.094855024373899, 13.90921836367972 ], [ 98.09486252108583, 13.909248935431576 ], [ 98.094910749966203, 13.909237851597059 ] ] ] } },
{ "type": "Feature", "properties": { "bid": "TZW-B0137", "source": "VIDA/microsoft", "src_id": "0022000000000000c3a5", "area_m2": 23.3, "overlap": null, "overlap_outwash": null, "dist_m": null, "landslide": null, "f_veg": null, "f_soil": null, "f_grey": null, "f_dark": null, "status": "not_surveyed", "status_auto": "not_surveyed", "note": "", "reach": "B" }, "geometry": { "type": "Polygon", "coordinates": [ [ [ 98.096321227162733, 13.90747644048936 ], [ 98.096305650349137, 13.907528324257415 ], [ 98.096340219218064, 13.907538152740825 ], [ 98.096355879337622, 13.90748626620503 ], [ 98.096321227162733, 13.90747644048936 ] ] ] } },
{ "type": "Feature", "properties": { "bid": "TZW-B0138", "source": "VIDA/microsoft", "src_id": "0022000000000000fa5b", "area_m2": 31.8, "overlap": null, "overlap_outwash": null, "dist_m": null, "landslide": null, "f_veg": null, "f_soil": null, "f_grey": null, "f_dark": null, "status": "not_surveyed", "status_auto": "not_surveyed", "note": "", "reach": "A" }, "geometry": { "type": "Polygon", "coordinates": [ [ [ 98.10681575992119, 13.927071692060496 ], [ 98.106856665386616, 13.927108004524802 ], [ 98.106890072922283, 13.927072644074949 ], [ 98.106849167438071, 13.927036331626056 ], [ 98.10681575992119, 13.927071692060496 ] ] ] } },
{ "type": "Feature", "properties": { "bid": "TZW-B0139", "source": "VIDA/microsoft", "src_id": "00220000000000011060", "area_m2": 14.0, "overlap": 0.0, "overlap_outwash": 0.0, "dist_m": 59.0, "landslide": "", "f_veg": 0.995, "f_soil": 0.0, "f_grey": 0.005, "f_dark": 0.0, "status": "clear", "status_auto": "clear", "note": "", "reach": "A" }, "geometry": { "type": "Polygon", "coordinates": [ [ [ 98.112411863993614, 13.919353783567876 ], [ 98.112410864192512, 13.919326507507639 ], [ 98.11236803930646, 13.919328020628393 ], [ 98.11236903910698, 13.919355208880026 ], [ 98.112411863993614, 13.919353783567876 ] ] ] } },
{ "type": "Feature", "properties": { "bid": "TZW-B0140", "source": "VIDA/microsoft", "src_id": "002200000000000120a0", "area_m2": 76.5, "overlap": 0.0, "overlap_outwash": 0.0, "dist_m": 300.7, "landslide": "", "f_veg": 0.886, "f_soil": 0.0, "f_grey": 0.101, "f_dark": 0.014, "status": "clear", "status_auto": "clear", "note": "", "reach": "B" }, "geometry": { "type": "Polygon", "coordinates": [ [ [ 98.095098917859502, 13.909377367711921 ], [ 98.095101416777638, 13.909307126300495 ], [ 98.095010373102383, 13.909304089135176 ], [ 98.095007874187374, 13.909374242748537 ], [ 98.095098917859502, 13.909377367711921 ] ] ] } },
{ "type": "Feature", "properties": { "bid": "TZW-B0141", "source": "VIDA/microsoft", "src_id": "00220000000000015502", "area_m2": 119.8, "overlap": null, "overlap_outwash": null, "dist_m": null, "landslide": null, "f_veg": null, "f_soil": null, "f_grey": null, "f_dark": null, "status": "not_surveyed", "status_auto": "not_surveyed", "note": "", "reach": "A" }, "geometry": { "type": "Polygon", "coordinates": [ [ [ 98.106186601769238, 13.927297154250061 ], [ 98.106261497296842, 13.927338570963583 ], [ 98.106320813942929, 13.927237626825372 ], [ 98.106245918354261, 13.927196122335987 ], [ 98.106186601769238, 13.927297154250061 ] ] ] } },
{ "type": "Feature", "properties": { "bid": "TZW-B0142", "source": "VIDA/microsoft", "src_id": "00220000000000017d08", "area_m2": 18.5, "overlap": 0.0, "overlap_outwash": 0.0, "dist_m": 69.6, "landslide": "", "f_veg": 1.0, "f_soil": 0.0, "f_grey": 0.0, "f_dark": 0.0, "status": "clear", "status_auto": "clear", "note": "", "reach": "A" }, "geometry": { "type": "Polygon", "coordinates": [ [ [ 98.101645365416289, 13.903544018671488 ], [ 98.101652446304271, 13.903588475283854 ], [ 98.101686517896781, 13.903583305063368 ], [ 98.101679437005458, 13.903538848456714 ], [ 98.101645365416289, 13.903544018671488 ] ] ] } },
{ "type": "Feature", "properties": { "bid": "TZW-B0143", "source": "VIDA/microsoft", "src_id": "0022000000000001d575", "area_m2": 87.6, "overlap": 1.0, "overlap_outwash": 0.0, "dist_m": 0.0, "landslide": "WV-01", "f_veg": 0.0, "f_soil": 0.296, "f_grey": 0.704, "f_dark": 0.0, "status": "not_building", "status_auto": "damaged", "note": "Chip review: a Microsoft footprint in the middle of the scoured WV-01 channel; a field with crop rows on 10 Jan, no roof in either image.", "reach": "A" }, "geometry": { "type": "Polygon", "coordinates": [ [ [ 98.104437955103478, 13.912752775365176 ], [ 98.10443887149313, 13.912699532988588 ], [ 98.10430116383408, 13.9126973483638 ], [ 98.104300247446176, 13.912750590753253 ], [ 98.104437955103478, 13.912752775365176 ] ] ] } },
{ "type": "Feature", "properties": { "bid": "TZW-B0144", "source": "VIDA/microsoft", "src_id": "00220000000000025985", "area_m2": 37.4, "overlap": 0.0, "overlap_outwash": 0.0, "dist_m": 51.6, "landslide": "", "f_veg": 0.838, "f_soil": 0.017, "f_grey": 0.138, "f_dark": 0.008, "status": "clear", "status_auto": "clear", "note": "", "reach": "A" }, "geometry": { "type": "Polygon", "coordinates": [ [ [ 98.102708921218294, 13.928027650512615 ], [ 98.102712086836007, 13.928074352573956 ], [ 98.102778898134886, 13.928069934870653 ], [ 98.102775649208368, 13.928023323407396 ], [ 98.102708921218294, 13.928027650512615 ] ] ] } },
{ "type": "Feature", "properties": { "bid": "TZW-B0145", "source": "VIDA/microsoft", "src_id": "0022000000000002b88a", "area_m2": 48.6, "overlap": 0.0, "overlap_outwash": 0.221, "dist_m": 184.2, "landslide": "", "f_veg": 0.39, "f_soil": 0.002, "f_grey": 0.608, "f_dark": 0.0, "status": "clear", "status_auto": "clear", "note": "", "reach": "B" }, "geometry": { "type": "Polygon", "coordinates": [ [ [ 98.09719528628527, 13.907927632509589 ], [ 98.097204615833732, 13.907876219405928 ], [ 98.097127897024805, 13.907863136430622 ], [ 98.097118567486163, 13.907914549533427 ], [ 98.09719528628527, 13.907927632509589 ] ] ] } },
{ "type": "Feature", "properties": { "bid": "TZW-B0146", "source": "VIDA/microsoft", "src_id": "0022000000000002be43", "area_m2": 41.7, "overlap": 0.0, "overlap_outwash": 0.0, "dist_m": 178.5, "landslide": "", "f_veg": 1.0, "f_soil": 0.0, "f_grey": 0.0, "f_dark": 0.0, "status": "clear", "status_auto": "clear", "note": "", "reach": "B" }, "geometry": { "type": "Polygon", "coordinates": [ [ [ 98.105691832247274, 13.903237889791018 ], [ 98.105745483412647, 13.903237863585739 ], [ 98.10574548341738, 13.903172802268365 ], [ 98.105691832252006, 13.903172828466817 ], [ 98.105691832247274, 13.903237889791018 ] ] ] } },
{ "type": "Feature", "properties": { "bid": "TZW-B0147", "source": "VIDA/microsoft", "src_id": "0022000000000002ee24", "area_m2": 24.0, "overlap": 0.0, "overlap_outwash": 0.0, "dist_m": 79.9, "landslide": "", "f_veg": 0.992, "f_soil": 0.0, "f_grey": 0.001, "f_dark": 0.006, "status": "clear", "status_auto": "clear", "note": "", "reach": "" }, "geometry": { "type": "Polygon", "coordinates": [ [ [ 98.095434772040207, 13.916224536137619 ], [ 98.095436104802999, 13.916182956690333 ], [ 98.095387875574986, 13.916181484702721 ], [ 98.095386542813102, 13.916223064153154 ], [ 98.095434772040207, 13.916224536137619 ] ] ] } },
{ "type": "Feature", "properties": { "bid": "TZW-B0148", "source": "VIDA/microsoft", "src_id": "002200000000000351e1", "area_m2": 94.9, "overlap": 0.0, "overlap_outwash": 0.058, "dist_m": 288.9, "landslide": "", "f_veg": 0.242, "f_soil": 0.252, "f_grey": 0.503, "f_dark": 0.002, "status": "clear", "status_auto": "clear", "note": "", "reach": "B" }, "geometry": { "type": "Polygon", "coordinates": [ [ [ 98.096117981738303, 13.909033583594322 ], [ 98.096121396975477, 13.908921779167484 ], [ 98.096050426883593, 13.908919744410092 ], [ 98.096047011649759, 13.909031548849585 ], [ 98.096117981738303, 13.909033583594322 ] ] ] } },
{ "type": "Feature", "properties": { "bid": "TZW-B0149", "source": "VIDA/microsoft", "src_id": "00220000000000037613", "area_m2": 63.2, "overlap": 0.0, "overlap_outwash": 0.14, "dist_m": 35.2, "landslide": "", "f_veg": 0.5, "f_soil": 0.286, "f_grey": 0.187, "f_dark": 0.027, "status": "clear", "status_auto": "clear", "note": "", "reach": "A" }, "geometry": { "type": "Polygon", "coordinates": [ [ [ 98.098940931337069, 13.911331486595232 ], [ 98.098876789204695, 13.911399473060472 ], [ 98.098919106339409, 13.911437142564411 ], [ 98.098983248509128, 13.911369068259958 ], [ 98.098940931337069, 13.911331486595232 ] ] ] } },
{ "type": "Feature", "properties": { "bid": "TZW-B0150", "source": "VIDA/microsoft", "src_id": "00220000000000037f9b", "area_m2": 51.7, "overlap": null, "overlap_outwash": null, "dist_m": null, "landslide": null, "f_veg": null, "f_soil": null, "f_grey": null, "f_dark": null, "status": "not_surveyed", "status_auto": "not_surveyed", "note": "", "reach": "B" }, "geometry": { "type": "Polygon", "coordinates": [ [ [ 98.094959143220152, 13.908559083783009 ], [ 98.094961142346193, 13.908499220626105 ], [ 98.094888840656452, 13.908496966234036 ], [ 98.0948868415324, 13.908556741590306 ], [ 98.094959143220152, 13.908559083783009 ] ] ] } },
{ "type": "Feature", "properties": { "bid": "TZW-B0151", "source": "VIDA/microsoft", "src_id": "002200000000000384a7", "area_m2": 28.0, "overlap": 0.0, "overlap_outwash": 0.0, "dist_m": 183.6, "landslide": "", "f_veg": 0.617, "f_soil": 0.087, "f_grey": 0.282, "f_dark": 0.013, "status": "clear", "status_auto": "clear", "note": "", "reach": "B" }, "geometry": { "type": "Polygon", "coordinates": [ [ [ 98.094482355224116, 13.911054601171987 ], [ 98.094465029579396, 13.911014871844102 ], [ 98.094414968475078, 13.911035500099784 ], [ 98.094432377404203, 13.91107522667639 ], [ 98.094482355224116, 13.911054601171987 ] ] ] } }
]
}
