{
"type": "FeatureCollection",
"name": "envelopes",
"crs": { "type": "name", "properties": { "name": "urn:ogc:def:crs:OGC:1.3:CRS84" } },
"features": [
{ "type": "Feature", "properties": { "id": "WS-OW1", "name": "East Ti Zit under sediment", "kind": "outwash", "priority": 3, "split": 0, "description": "The eastern part of Ti Zit, where the two valley flows from the watershed came out of the hills and spread sand and debris between the houses and along the road." }, "geometry": { "type": "Polygon", "coordinates": [ [ [ 98.0935, 13.908 ], [ 98.0955, 13.9072 ], [ 98.0985, 13.907 ], [ 98.1, 13.908 ], [ 98.1, 13.9095 ], [ 98.1005, 13.911 ], [ 98.1, 13.9118 ], [ 98.099, 13.9118 ], [ 98.0975, 13.91 ], [ 98.0955, 13.9093 ], [ 98.0935, 13.9092 ], [ 98.0935, 13.908 ] ] ] } },
{ "type": "Feature", "properties": { "id": "WN", "name": "Watershed hills north-west of the road, west", "kind": "landslide", "priority": 5, "split": 1, "description": "Zone split into connected scars and scoured channels." }, "geometry": { "type": "Polygon", "coordinates": [ [ [ 98.10664, 13.91864 ], [ 98.10579, 13.91859 ], [ 98.10522, 13.91844 ], [ 98.1047, 13.9184 ], [ 98.10457, 13.91792 ], [ 98.10375, 13.91734 ], [ 98.10313, 13.91683 ], [ 98.1029, 13.91647 ], [ 98.10223, 13.91595 ], [ 98.10204, 13.91532 ], [ 98.10181, 13.91486 ], [ 98.10183, 13.91462 ], [ 98.10195, 13.91444 ], [ 98.10189, 13.91414 ], [ 98.10179, 13.91382 ], [ 98.10141, 13.91352 ], [ 98.10094, 13.91294 ], [ 98.10014, 13.91222 ], [ 98.09941, 13.91147 ], [ 98.09911, 13.91122 ], [ 98.09838, 13.91011 ], [ 98.0981, 13.90947 ], [ 98.0978, 13.9093 ], [ 98.09684, 13.90882 ], [ 98.09615, 13.90836 ], [ 98.09555, 13.90801 ], [ 98.09443, 13.90757 ], [ 98.0937, 13.90756 ], [ 98.09, 13.9075 ], [ 98.09, 13.931 ], [ 98.108, 13.931 ], [ 98.108, 13.9254 ], [ 98.107, 13.925 ], [ 98.1042, 13.9246 ], [ 98.1042, 13.924 ], [ 98.105, 13.9235 ], [ 98.1065, 13.9231 ], [ 98.1065, 13.9222 ], [ 98.10676, 13.9215 ], [ 98.106, 13.921 ], [ 98.1053, 13.9205 ], [ 98.1051, 13.92 ], [ 98.1056, 13.9195 ], [ 98.106461052631602, 13.919069473684207 ], [ 98.10664, 13.91864 ] ] ] } },
{ "type": "Feature", "properties": { "id": "WM", "name": "Watershed hills north-west of the road, east", "kind": "landslide", "priority": 5, "split": 1, "description": "Zone split into connected scars and scoured channels." }, "geometry": { "type": "Polygon", "coordinates": [ [ [ 98.124, 13.931 ], [ 98.124, 13.927 ], [ 98.12298, 13.92612 ], [ 98.12219, 13.92536 ], [ 98.12132, 13.92472 ], [ 98.12027, 13.92414 ], [ 98.1182, 13.92385 ], [ 98.11756, 13.92321 ], [ 98.11702, 13.92152 ], [ 98.11616, 13.92053 ], [ 98.11536, 13.92043 ], [ 98.11519, 13.91983 ], [ 98.11437, 13.92077 ], [ 98.11343, 13.92066 ], [ 98.11274, 13.92013 ], [ 98.1118, 13.91992 ], [ 98.11084, 13.91927 ], [ 98.11034, 13.91863 ], [ 98.10984, 13.91848 ], [ 98.10957, 13.91852 ], [ 98.10921, 13.91875 ], [ 98.10847, 13.91858 ], [ 98.10789, 13.91865 ], [ 98.10716, 13.91892 ], [ 98.10646, 13.91951 ], [ 98.10607, 13.91948 ], [ 98.10644, 13.91912 ], [ 98.106461052631602, 13.919069473684207 ], [ 98.1056, 13.9195 ], [ 98.1051, 13.92 ], [ 98.1053, 13.9205 ], [ 98.106, 13.921 ], [ 98.10676, 13.9215 ], [ 98.1065, 13.9222 ], [ 98.1065, 13.9231 ], [ 98.105, 13.9235 ], [ 98.1042, 13.924 ], [ 98.1042, 13.9246 ], [ 98.107, 13.925 ], [ 98.108, 13.9254 ], [ 98.108, 13.931 ], [ 98.124, 13.931 ] ] ] } },
{ "type": "Feature", "properties": { "id": "WE", "name": "Watershed hills south-east of the road, east ridge", "kind": "landslide", "priority": 5, "split": 1, "description": "Zone split into connected scars and scoured channels." }, "geometry": { "type": "Polygon", "coordinates": [ [ [ 98.10204, 13.91532 ], [ 98.10223, 13.91595 ], [ 98.1029, 13.91647 ], [ 98.10313, 13.91683 ], [ 98.10375, 13.91734 ], [ 98.10457, 13.91792 ], [ 98.1047, 13.9184 ], [ 98.10522, 13.91844 ], [ 98.10579, 13.91859 ], [ 98.10664, 13.91864 ], [ 98.10644, 13.91912 ], [ 98.10607, 13.91948 ], [ 98.10646, 13.91951 ], [ 98.10716, 13.91892 ], [ 98.10789, 13.91865 ], [ 98.10847, 13.91858 ], [ 98.10921, 13.91875 ], [ 98.10957, 13.91852 ], [ 98.10984, 13.91848 ], [ 98.11034, 13.91863 ], [ 98.11084, 13.91927 ], [ 98.1118, 13.91992 ], [ 98.11274, 13.92013 ], [ 98.11343, 13.92066 ], [ 98.11437, 13.92077 ], [ 98.11519, 13.91983 ], [ 98.11536, 13.92043 ], [ 98.11616, 13.92053 ], [ 98.11702, 13.92152 ], [ 98.11756, 13.92321 ], [ 98.1182, 13.92385 ], [ 98.12027, 13.92414 ], [ 98.12132, 13.92472 ], [ 98.12219, 13.92536 ], [ 98.12298, 13.92612 ], [ 98.124, 13.927 ], [ 98.124, 13.914 ], [ 98.115, 13.914 ], [ 98.114, 13.9143 ], [ 98.112, 13.9143 ], [ 98.111, 13.9146 ], [ 98.11, 13.915 ], [ 98.109, 13.9155 ], [ 98.108, 13.915 ], [ 98.107, 13.9148 ], [ 98.106, 13.9148 ], [ 98.105, 13.91484 ], [ 98.104, 13.915 ], [ 98.103, 13.9152 ], [ 98.102, 13.915 ], [ 98.10188, 13.915 ], [ 98.10204, 13.91532 ] ] ] } },
{ "type": "Feature", "properties": { "id": "WV", "name": "Watershed hills south-east of the road, the two valleys", "kind": "landslide", "priority": 5, "split": 1, "description": "Zone split into connected scars and scoured channels." }, "geometry": { "type": "Polygon", "coordinates": [ [ [ 98.0937, 13.90756 ], [ 98.09443, 13.90757 ], [ 98.09555, 13.90801 ], [ 98.09615, 13.90836 ], [ 98.09684, 13.90882 ], [ 98.0978, 13.9093 ], [ 98.0981, 13.90947 ], [ 98.09838, 13.91011 ], [ 98.09911, 13.91122 ], [ 98.09941, 13.91147 ], [ 98.10014, 13.91222 ], [ 98.10094, 13.91294 ], [ 98.10141, 13.91352 ], [ 98.10179, 13.91382 ], [ 98.10189, 13.91414 ], [ 98.10195, 13.91444 ], [ 98.10183, 13.91462 ], [ 98.10181, 13.91486 ], [ 98.10188, 13.915 ], [ 98.102, 13.915 ], [ 98.103, 13.9152 ], [ 98.104, 13.915 ], [ 98.105, 13.91484 ], [ 98.106, 13.9148 ], [ 98.107, 13.9148 ], [ 98.108, 13.915 ], [ 98.109, 13.9155 ], [ 98.11, 13.915 ], [ 98.111, 13.9146 ], [ 98.112, 13.9143 ], [ 98.114, 13.9143 ], [ 98.115, 13.914 ], [ 98.124, 13.914 ], [ 98.124, 13.9 ], [ 98.09, 13.9 ], [ 98.09, 13.9075 ], [ 98.0937, 13.90756 ] ] ] } },
{ "type": "Feature", "properties": { "id": "WX-1", "name": "Road up the valley", "kind": "exclude", "priority": 0, "split": 0, "description": "The road from Ti Zit up the valley and over the hills and its cut banks, bare on 10 Jan 2026 (debris has since run down it)." }, "geometry": { "type": "Polygon", "coordinates": [ [ [ 98.094422585011131, 13.907606065970125 ], [ 98.095533502761327, 13.908042497952753 ], [ 98.096130056808093, 13.908390487832509 ], [ 98.096819130987882, 13.908849870650794 ], [ 98.096823131746021, 13.908852191957571 ], [ 98.09778226529437, 13.909331758760565 ], [ 98.098070788645373, 13.909495255345714 ], [ 98.09834595704568, 13.910124211875113 ], [ 98.098347290413656, 13.910126938350773 ], [ 98.098348852130655, 13.910129546578068 ], [ 98.099078852031568, 13.911239546664245 ], [ 98.099080955327679, 13.911242424918928 ], [ 98.099083336350773, 13.911245088745193 ], [ 98.09908597233337, 13.91124751267137 ], [ 98.099384501689485, 13.911496287161484 ], [ 98.100113169681094, 13.912244918750671 ], [ 98.100114914159548, 13.912246596283772 ], [ 98.100912776028807, 13.912964672053549 ], [ 98.101380971572013, 13.913542445365074 ], [ 98.101383688941553, 13.913545441747027 ], [ 98.101386728683764, 13.913548126407521 ], [ 98.101757903676116, 13.913841159338189 ], [ 98.101854031836623, 13.914148769593414 ], [ 98.101910787505574, 13.914432548175549 ], [ 98.101798976134972, 13.914600265188698 ], [ 98.101797127772613, 13.914603363540669 ], [ 98.101795602635463, 13.914606625475239 ], [ 98.101794415719851, 13.91461001891853 ], [ 98.101793578696473, 13.914613510503594 ], [ 98.101793099795614, 13.914617065898446 ], [ 98.101773099758176, 13.914857065893189 ], [ 98.101772990110334, 13.914860936113472 ], [ 98.101773304659972, 13.9148647956043 ], [ 98.101774039801796, 13.914868600129225 ], [ 98.101775187109851, 13.914872306081795 ], [ 98.101776733433994, 13.914875870985371 ], [ 98.102005366650147, 13.915333137558381 ], [ 98.102194486509163, 13.915960219511888 ], [ 98.102195738476709, 13.915963703663316 ], [ 98.10219734763875, 13.915967044946866 ], [ 98.102199297218917, 13.915970208527876 ], [ 98.102201566891807, 13.915973161424356 ], [ 98.102204132994913, 13.91597587285079 ], [ 98.102206968775249, 13.915978314539126 ], [ 98.102871971219216, 13.916494435900306 ], [ 98.103098591807225, 13.916849146455178 ], [ 98.103100803672561, 13.916852237141205 ], [ 98.103103332996056, 13.916855086037913 ], [ 98.103106152275856, 13.916857662168605 ], [ 98.103726152289653, 13.917367662229399 ], [ 98.103728286269416, 13.917369291098121 ], [ 98.104537586936416, 13.917941723358361 ], [ 98.104664208411563, 13.918409249051866 ], [ 98.104665266574784, 13.918412519975137 ], [ 98.104666637252819, 13.918415678249675 ], [ 98.104668308112949, 13.918418695458834 ], [ 98.104670264121609, 13.918421544455201 ], [ 98.104672487679537, 13.918424199604861 ], [ 98.104674958780265, 13.918426637018049 ], [ 98.104677655189988, 13.918428834764068 ], [ 98.104680552647707, 13.918430773068646 ], [ 98.104683625083467, 13.918432434491844 ], [ 98.104686844852964, 13.918433804084957 ], [ 98.104690182986246, 13.918434869525043 ], [ 98.104693609448361, 13.91843562122577 ], [ 98.104697093409641, 13.918436052423692 ], [ 98.105213677594733, 13.918475789677117 ], [ 98.105780369166382, 13.918624919040418 ], [ 98.105784041124096, 13.918625692561751 ], [ 98.105787774424272, 13.918626098653222 ], [ 98.106586249838912, 13.918673067887299 ], [ 98.106408543612034, 13.919099562599447 ], [ 98.106043872175647, 13.919454378005378 ], [ 98.106041404894455, 13.919457029095792 ], [ 98.106039218276592, 13.919459905647582 ], [ 98.106037333783874, 13.919462979427152 ], [ 98.106035769912808, 13.9194662202651 ], [ 98.106034542012893, 13.919469596352334 ], [ 98.106033662136099, 13.919473074552279 ], [ 98.106033138918491, 13.919476620726098 ], [ 98.106032977495531, 13.919480200067808 ], [ 98.106033179451615, 13.91948377744586 ], [ 98.106033742804527, 13.919487317747986 ], [ 98.106034662024953, 13.91949078622582 ], [ 98.106035928090634, 13.919494148835941 ], [ 98.106037528575087, 13.919497372574053 ], [ 98.106039447769419, 13.91950042579888 ], [ 98.106041666836575, 13.919503278542752 ], [ 98.106044163996231, 13.919505902805739 ], [ 98.106046914738556, 13.919508272830464 ], [ 98.106049892064775, 13.919510365354933 ], [ 98.106053066752168, 13.919512159840822 ], [ 98.106056407640892, 13.919513638675092 ], [ 98.106059881939871, 13.919514787342859 ], [ 98.106063455548508, 13.919515594569839 ], [ 98.10606709339153, 13.919516052433034 ], [ 98.106457093451027, 13.919546052441197 ], [ 98.106460748787072, 13.919546156660489 ], [ 98.106464396817856, 13.91954590812928 ], [ 98.106468001952507, 13.919545309272291 ], [ 98.106471529018734, 13.919544365932056 ], [ 98.106474943605903, 13.919543087311981 ], [ 98.106478212400674, 13.919541485886493 ], [ 98.106481303512126, 13.919539577279377 ], [ 98.106484186782879, 13.919537380111331 ], [ 98.107179231369699, 13.918951556793576 ], [ 98.107898952358269, 13.918685358618255 ], [ 98.108467968990453, 13.918616684205128 ], [ 98.109201524035043, 13.918785203604569 ], [ 98.109205211201285, 13.918785860286867 ], [ 98.109208947443861, 13.918786149467632 ], [ 98.1092126944732, 13.918786068183284 ], [ 98.109216413889172, 13.918785617266851 ], [ 98.109220067574654, 13.918784801339383 ], [ 98.109223618086105, 13.918783628762631 ], [ 98.109227029037356, 13.91878211155333 ], [ 98.109230265472462, 13.918780265260084 ], [ 98.109583520338063, 13.918554574652799 ], [ 98.109837202701527, 13.918516992083012 ], [ 98.11031777467916, 13.918661163686375 ], [ 98.110810568006528, 13.919291939223056 ], [ 98.110813065639348, 13.919294812397482 ], [ 98.110815855862327, 13.919297416032885 ], [ 98.110818908365047, 13.919299721845762 ], [ 98.111778908418415, 13.919949721931065 ], [ 98.111781900145701, 13.919951547821329 ], [ 98.111785056199551, 13.91995308729255 ], [ 98.111788347926492, 13.919954326368041 ], [ 98.111791745441295, 13.919955253798371 ], [ 98.112723645847637, 13.920163444341501 ], [ 98.113407114529977, 13.920688427558931 ], [ 98.113409859811085, 13.92069034509635 ], [ 98.1134127724509, 13.920692010475516 ], [ 98.113415828246318, 13.920693409857648 ], [ 98.113419001804616, 13.920694531614309 ], [ 98.113422266754512, 13.920695366424054 ], [ 98.113425595965282, 13.920695907349865 ], [ 98.114365596106211, 13.920805907375041 ], [ 98.114369229976958, 13.920806156304831 ], [ 98.114372871302265, 13.920806055207169 ], [ 98.114376484830643, 13.920805605060783 ], [ 98.114380035579671, 13.920804810223514 ], [ 98.114383489174699, 13.920803678390149 ], [ 98.114386812181635, 13.920802220517908 ], [ 98.114389972430629, 13.920800450720384 ], [ 98.114392939327431, 13.920798386130919 ], [ 98.11439568414967, 13.920796046736694 ], [ 98.114398180324827, 13.920793455185283 ], [ 98.115172928363378, 13.919905329558448 ], [ 98.115324318016164, 13.920439646133962 ], [ 98.115325452698769, 13.920443003086406 ], [ 98.11532691751033, 13.920446235783301 ], [ 98.115328698453297, 13.920449313333476 ], [ 98.115330778509289, 13.920452206328306 ], [ 98.115333137801585, 13.920454887122759 ], [ 98.11533575378516, 13.920457330099543 ], [ 98.115338601462028, 13.92045951191394 ], [ 98.115341653620249, 13.920461411716843 ], [ 98.115344881093819, 13.920463011354006 ], [ 98.115348253041489, 13.92046429553953 ], [ 98.115351737241397, 13.920465252001923 ], [ 98.115355300399031, 13.920465871601365 ], [ 98.116141059128879, 13.920564091473402 ], [ 98.116986900254076, 13.921537792421992 ], [ 98.117524657625125, 13.923220774591297 ], [ 98.117525852221547, 13.923223974779583 ], [ 98.117527349765652, 13.92322705098834 ], [ 98.117529136971726, 13.923229975926473 ], [ 98.117531197984263, 13.923232723644904 ], [ 98.117533514518684, 13.923235269766804 ], [ 98.118173514506694, 13.923875269834848 ], [ 98.118176046305678, 13.923877575434355 ], [ 98.11817878747803, 13.923879640003806 ], [ 98.118181714063837, 13.923881445497315 ], [ 98.118184800482567, 13.923882976133498 ], [ 98.118188019756559, 13.923884218533438 ], [ 98.118191343746943, 13.923885161837617 ], [ 98.118194743399528, 13.92388579780085 ], [ 98.120257842985168, 13.924174831125546 ], [ 98.12129966375457, 13.924750313095275 ], [ 98.122165767243203, 13.925387446749534 ], [ 98.122954019779485, 13.92614576572724 ], [ 98.122956730428285, 13.92614812900818 ], [ 98.12295966517587, 13.926150221391381 ], [ 98.122962795759022, 13.926152022726036 ], [ 98.122966092028477, 13.9261535156643 ], [ 98.122969522239359, 13.926154685828356 ], [ 98.122973053356844, 13.926155521948882 ], [ 98.122976651374358, 13.92615601597357 ], [ 98.122980281640977, 13.926156163144693 ], [ 98.122983909195256, 13.926155962044907 ], [ 98.122987499101811, 13.926155414610925 ], [ 98.122991016787893, 13.92615452611482 ], [ 98.122994428376245, 13.926153305113306 ], [ 98.1229977010114, 13.926151763365302 ], [ 98.123000803176069, 13.926149915718691 ], [ 98.123003704994701, 13.926147779967316 ], [ 98.123006378521197, 13.926145376679646 ], [ 98.12300879800803, 13.926142729000661 ], [ 98.123010940154231, 13.926139862428965 ], [ 98.123012784329745, 13.926136804571218 ], [ 98.12301431277416, 13.926133584876267 ], [ 98.123015510767743, 13.926130234351543 ], [ 98.123016366773186, 13.926126785264435 ], [ 98.123016872546685, 13.926123270831546 ], [ 98.123017023217386, 13.926119724898783 ], [ 98.123016817334261, 13.92611618161542 ], [ 98.123016256880078, 13.926112675105214 ], [ 98.123015347252348, 13.926109239137777 ], [ 98.123014097211325, 13.926105906803349 ], [ 98.123012518795548, 13.926102710194121 ], [ 98.123010627206071, 13.926099680095186 ], [ 98.12300844065993, 13.926096845688054 ], [ 98.123005980214771, 13.926094234269595 ], [ 98.122215980206988, 13.925334234352391 ], [ 98.12221227353298, 13.925331111991191 ], [ 98.121342273569923, 13.924691112071974 ], [ 98.121338225128, 13.92468852077196 ], [ 98.120288225214992, 13.924108520854718 ], [ 98.120285151698312, 13.924107002849315 ], [ 98.120281947069387, 13.924105770378372 ], [ 98.120278639058853, 13.924104834106844 ], [ 98.120275256291919, 13.924104202136565 ], [ 98.118217700955938, 13.923815945665359 ], [ 98.117592694815386, 13.923190939593088 ], [ 98.117055342130342, 13.921509225466458 ], [ 98.117054060316221, 13.921505823618739 ], [ 98.117052436290322, 13.921502564204408 ], [ 98.117050486369621, 13.921499479971537 ], [ 98.117048230145429, 13.921496601908119 ], [ 98.116188230099382, 13.920506602003847 ], [ 98.116185897220532, 13.920504155349141 ], [ 98.116183342985835, 13.920501929600983 ], [ 98.116180589227582, 13.9204999437839 ], [ 98.116177659483455, 13.920498214871618 ], [ 98.116174578795366, 13.920496757641956 ], [ 98.116171373495419, 13.920495584550551 ], [ 98.116168070980805, 13.920494705624368 ], [ 98.116164699479725, 13.920494128376008 ], [ 98.115389116179898, 13.920397180510545 ], [ 98.115225681893079, 13.919820353879992 ], [ 98.115224538470684, 13.919816974783604 ], [ 98.115223060562784, 13.919813721829081 ], [ 98.115221262482109, 13.919810626519443 ], [ 98.115219161642059, 13.919807718831009 ], [ 98.115216778388103, 13.919805026923086 ], [ 98.115214135800699, 13.919802576865267 ], [ 98.115211259471806, 13.919800392384978 ], [ 98.115208177257031, 13.919798494637657 ], [ 98.115204919005905, 13.919796902001906 ], [ 98.115201516272691, 13.919795629901499 ], [ 98.115198002010956, 13.919794690656 ], [ 98.115194410254318, 13.919794093361462 ], [ 98.1151907757869, 13.919793843802347 ], [ 98.115187133806415, 13.919793944395487 ], [ 98.115183519583397, 13.919794394166699 ], [ 98.115179968119506, 13.919795188760197 ], [ 98.115176513808677, 13.919796320480797 ], [ 98.115173190103917, 13.919797778368432 ], [ 98.115170029193422, 13.919799548304297 ], [ 98.115167061688808, 13.919801613147559 ], [ 98.115164316328688, 13.919803952901391 ], [ 98.11516181970029, 13.919806544906614 ], [ 98.114354694273743, 13.920731786218179 ], [ 98.113444719104521, 13.920625299752706 ], [ 98.112762885488436, 13.920101572504 ], [ 98.112759540283506, 13.92009928298152 ], [ 98.112755957235478, 13.920097367344773 ], [ 98.112752179956999, 13.920095848910778 ], [ 98.112748254424844, 13.920094746161814 ], [ 98.111815219521247, 13.91988630221846 ], [ 98.110865890036422, 13.91924352709111 ], [ 98.110369431946623, 13.918608060830223 ], [ 98.110366954090736, 13.918605208138533 ], [ 98.110364187781869, 13.918602620760495 ], [ 98.110361162624088, 13.918600326385294 ], [ 98.110357910991539, 13.918598349566505 ], [ 98.110354467682029, 13.918596711459333 ], [ 98.110350869544618, 13.918595429594204 ], [ 98.109850869609133, 13.918445429620098 ], [ 98.109847655548123, 13.918444617493792 ], [ 98.10984437993082, 13.918444089869174 ], [ 98.109841069095623, 13.918443850988744 ], [ 98.109837749664109, 13.918443902773276 ], [ 98.109834448326978, 13.918444244806386 ], [ 98.109564448368303, 13.918484244802773 ], [ 98.109560564589898, 13.918485030055768 ], [ 98.109556789091243, 13.918486216620119 ], [ 98.109553165199529, 13.918487790878945 ], [ 98.109549734502139, 13.918489734766226 ], [ 98.109203021258608, 13.918711246015368 ], [ 98.108478476064647, 13.91854479642646 ], [ 98.108475258247182, 13.918544202522327 ], [ 98.10847199929043, 13.918543888689241 ], [ 98.108468724691733, 13.918543857382554 ], [ 98.108465460070718, 13.918544108847202 ], [ 98.10788546016019, 13.918614108841885 ], [ 98.107881111507353, 13.918614893618576 ], [ 98.107876889669797, 13.918616179270638 ], [ 98.107146889765659, 13.918886179237573 ], [ 98.107143914508313, 13.918887427574516 ], [ 98.10714106229949, 13.918888925079484 ], [ 98.107138354957641, 13.918890660297059 ], [ 98.107135813192968, 13.918892619953429 ], [ 98.106447507822324, 13.919472763053324 ], [ 98.106153169892536, 13.919450121716286 ], [ 98.106466127835432, 13.919145621953222 ], [ 98.1064686208762, 13.919142940218151 ], [ 98.10647082675591, 13.91914002831766 ], [ 98.106472723342364, 13.919136915467648 ], [ 98.106474291606602, 13.919133632900181 ], [ 98.106674291551101, 13.918653632869033 ], [ 98.106675512019891, 13.918650225893609 ], [ 98.106676378717324, 13.91864671704769 ], [ 98.106676883009399, 13.918643141286463 ], [ 98.106677019872322, 13.918639534231712 ], [ 98.106676787942703, 13.918635931816985 ], [ 98.106676189531044, 13.918632369929583 ], [ 98.106675230598739, 13.918628884053083 ], [ 98.106673920698711, 13.918625508913848 ], [ 98.106672272880218, 13.918622278135055 ], [ 98.106670303558857, 13.918619223901764 ], [ 98.106668032353042, 13.918616376640292 ], [ 98.106665481888584, 13.918613764715095 ], [ 98.10666267757324, 13.9186114141462 ], [ 98.106659647343648, 13.91860934835001 ], [ 98.106656421386987, 13.918607587906004 ], [ 98.106653031840281, 13.918606150351746 ], [ 98.106649512470256, 13.918605050008171 ], [ 98.106645898336893, 13.918604297836913 ], [ 98.106642225444219, 13.918603901331101 ], [ 98.105795989703623, 13.918554122772477 ], [ 98.105229630906948, 13.918405080985787 ], [ 98.10522629549844, 13.918404362623065 ], [ 98.105222906509823, 13.918403947565215 ], [ 98.104729077560577, 13.918365960754226 ], [ 98.104605791514814, 13.917910750957292 ], [ 98.104604694358684, 13.917907377290891 ], [ 98.10460326480171, 13.917904124560598 ], [ 98.104601516540242, 13.917901023930273 ], [ 98.104599466324075, 13.917898105106547 ], [ 98.104597133796005, 13.91789539605417 ], [ 98.104594541303598, 13.917892922728129 ], [ 98.104591713685124, 13.917890708824935 ], [ 98.103772811230783, 13.917311485187708 ], [ 98.103158315676296, 13.916806013097217 ], [ 98.102931408154333, 13.916450853567719 ], [ 98.102928978753823, 13.916447493005343 ], [ 98.102926174337327, 13.916444423707571 ], [ 98.102923031197008, 13.91644168539438 ], [ 98.102262203097496, 13.915928803957739 ], [ 98.102075513396713, 13.915309780504595 ], [ 98.102074511461737, 13.915306908671237 ], [ 98.102073266615747, 13.915304128982024 ], [ 98.101847724365115, 13.91485304463216 ], [ 98.101866139616675, 13.914632061194215 ], [ 98.101981023858556, 13.914459734791825 ], [ 98.101982822159158, 13.914456730478806 ], [ 98.101984316500875, 13.91445357122851 ], [ 98.101985493044978, 13.914450286298056 ], [ 98.101986340895735, 13.914446906108481 ], [ 98.101986852201421, 13.914443461962971 ], [ 98.10198702222695, 13.914439985757006 ], [ 98.10198684939779, 13.914436509682968 ], [ 98.10198633531445, 13.914433065932016 ], [ 98.101926335268246, 13.914133065938069 ], [ 98.101925409174413, 13.914129441647329 ], [ 98.101825409128423, 13.913809441658913 ], [ 98.1018241655146, 13.913806070243417 ], [ 98.101822586416489, 13.913802835609577 ], [ 98.101820687339909, 13.913799769519498 ], [ 98.101818486932615, 13.913796902080293 ], [ 98.101816006801258, 13.913794261448437 ], [ 98.101813271299207, 13.913791873553317 ], [ 98.101436473232482, 13.913494401428265 ], [ 98.100969028388377, 13.912917554684354 ], [ 98.100967140409395, 13.912915403666721 ], [ 98.100965085831291, 13.912913403631666 ], [ 98.100165986477478, 13.912194214295514 ], [ 98.099436830294707, 13.911445081324267 ], [ 98.099434027655008, 13.911442487296268 ], [ 98.099138190459286, 13.91119595633017 ], [ 98.098412824156199, 13.910093002313216 ], [ 98.098134042868935, 13.909455788153569 ], [ 98.09813256918244, 13.909452805593727 ], [ 98.098130822358897, 13.909449967232478 ], [ 98.098128817047851, 13.909447296873347 ], [ 98.098126570066583, 13.909444816910947 ], [ 98.098124100259071, 13.909442548143135 ], [ 98.098121428338047, 13.909440509596624 ], [ 98.098118576711215, 13.909438718367406 ], [ 98.097818576735065, 13.909268718391443 ], [ 98.097816868159583, 13.909267807969812 ], [ 98.096858943447316, 13.908788845646008 ], [ 98.096170869046418, 13.908330129407812 ], [ 98.09616898079399, 13.908328950771834 ], [ 98.095568980839545, 13.907978950820775 ], [ 98.09556644710176, 13.907977600801205 ], [ 98.095563813404453, 13.907976447692276 ], [ 98.094443813531669, 13.907536447762729 ], [ 98.09444059645385, 13.907535349062584 ], [ 98.094437289577769, 13.907534544007401 ], [ 98.094433920927102, 13.907534039419508 ], [ 98.094430519049055, 13.907533839574981 ], [ 98.093700519162226, 13.907523839583414 ], [ 98.093696888321702, 13.907523963996985 ], [ 98.093693287448318, 13.907524435456915 ], [ 98.093689751220467, 13.907525249422783 ], [ 98.093686313693908, 13.907526398055653 ], [ 98.093683007973922, 13.907527870293578 ], [ 98.093679865896348, 13.907529651958093 ], [ 98.093676917721154, 13.907531725890809 ], [ 98.093674191840819, 13.90753407211862 ], [ 98.093671714507096, 13.90753666804609 ], [ 98.093669509578049, 13.907539488673013 ], [ 98.093667598288349, 13.907542506835226 ], [ 98.093665999044774, 13.907545693466178 ], [ 98.093664727248935, 13.907549017876883 ], [ 98.093663795148899, 13.907552448051458 ], [ 98.093663211721349, 13.907555950955439 ], [ 98.093662982584988, 13.907559492853961 ], [ 98.093663109946576, 13.907563039636599 ], [ 98.093663592579546, 13.907566557145902 ], [ 98.093664425835911, 13.907570011506326 ], [ 98.093665601690958, 13.907573369450501 ], [ 98.093667108820583, 13.907576598639576 ], [ 98.093668932710301, 13.907579667974693 ], [ 98.09367105579507, 13.907582547896464 ], [ 98.093673457628455, 13.907585210669671 ], [ 98.093676115079461, 13.907587630650335 ], [ 98.09367900255539, 13.907589784532721 ], [ 98.093682092248272, 13.90759165157375 ], [ 98.093685354402666, 13.907593213792792 ], [ 98.093688757602223, 13.907594456144809 ], [ 98.093692269072278, 13.907595366665282 ], [ 98.093695854995417, 13.907595936585381 ], [ 98.093699480837259, 13.907596160416468 ], [ 98.094422585011131, 13.907606065970125 ] ] ] } },
{ "type": "Feature", "properties": { "id": "WX-2", "name": "Road south of the village", "kind": "exclude", "priority": 0, "split": 0, "description": "A village road, bare on 10 Jan 2026." }, "geometry": { "type": "Polygon", "coordinates": [ [ [ 98.096619922919913, 13.907791293985474 ], [ 98.096619969291709, 13.907791231665522 ], [ 98.097109969259094, 13.907131231604019 ], [ 98.097111844238256, 13.907128444127633 ], [ 98.097113448344359, 13.907125499762078 ], [ 98.097114767932581, 13.907122423552677 ], [ 98.097115791778265, 13.907119241666248 ], [ 98.097344614781164, 13.906273590985194 ], [ 98.097719439375169, 13.905612715893723 ], [ 98.098174952660543, 13.905206714878233 ], [ 98.098177694470564, 13.905203998744696 ], [ 98.098180128151554, 13.905201015600881 ], [ 98.098182226626349, 13.905197798637291 ], [ 98.098183966547325, 13.905194383645894 ], [ 98.098185328556085, 13.905190808621931 ], [ 98.098604748145078, 13.903882618358647 ], [ 98.098913977230495, 13.903184358905389 ], [ 98.098915164795287, 13.903181305857926 ], [ 98.098916065550753, 13.90317816059822 ], [ 98.099145053964108, 13.902212426255241 ], [ 98.099713029500279, 13.901116332806271 ], [ 98.099714509243796, 13.901113091563914 ], [ 98.099715656644378, 13.901109724242655 ], [ 98.099716460651919, 13.901106263271638 ], [ 98.099716913523437, 13.901102741981912 ], [ 98.099717010897521, 13.901099194285427 ], [ 98.099716751836425, 13.901095654348442 ], [ 98.099716138835063, 13.901092156262482 ], [ 98.099715177797009, 13.901088733716026 ], [ 98.099713877977578, 13.901085419670066 ], [ 98.099712251894758, 13.901082246040668 ], [ 98.09971031520864, 13.901079243391617 ], [ 98.099708086570544, 13.901076440640054 ], [ 98.099705587443523, 13.901073864778004 ], [ 98.099702841895507, 13.901071540612417 ], [ 98.099699876367637, 13.901069490526275 ], [ 98.099696719419555, 13.901067734263012 ], [ 98.099693401454388, 13.901066288736404 ], [ 98.099689954425955, 13.901065167867653 ], [ 98.09968641153101, 13.901064382451333 ], [ 98.099682806889547, 13.901063940051431 ], [ 98.099679175216224, 13.901063844928489 ], [ 98.099675551486015, 13.901064097998598 ], [ 98.099671970597399, 13.901064696824553 ], [ 98.099668467036309, 13.901065635639336 ], [ 98.099665074543921, 13.901066905401645 ], [ 98.099661825791756, 13.901068493882985 ], [ 98.0996587520671, 13.901070385785419 ], [ 98.099655882971589, 13.90107256288889 ], [ 98.099653246136143, 13.901075004226723 ], [ 98.09965086695496, 13.901077686287495 ], [ 98.099648768340828, 13.901080583241509 ], [ 98.099646970504594, 13.901083667189514 ], [ 98.099076970398343, 13.902183667106797 ], [ 98.099075200188352, 13.902187663832908 ], [ 98.09907393458991, 13.902191839438567 ], [ 98.09884469121657, 13.903158647842254 ], [ 98.098536022696393, 13.903855641042732 ], [ 98.098534671619021, 13.903859191443676 ], [ 98.098117660219842, 13.90515986931498 ], [ 98.097665047359996, 13.905563285073882 ], [ 98.097662234906039, 13.905566079208782 ], [ 98.09765974843998, 13.905569154195989 ], [ 98.097657617155278, 13.905572473932303 ], [ 98.097277617097092, 13.906242473878899 ], [ 98.097276248627153, 13.906245140552899 ], [ 98.097275109792719, 13.906247908326719 ], [ 98.097274208342128, 13.906250758369152 ], [ 98.09704597402893, 13.907094232562489 ], [ 98.096560053865815, 13.907748737146983 ], [ 98.096120077056952, 13.908338705956034 ], [ 98.096118084489305, 13.908341673542282 ], [ 98.096116399285407, 13.908344817622341 ], [ 98.096115037674664, 13.908348107917003 ], [ 98.096114012770187, 13.908351512738937 ], [ 98.096113334442364, 13.908354999297858 ], [ 98.09611300922387, 13.908358534016296 ], [ 98.096113040246749, 13.908362082852978 ], [ 98.096113427212288, 13.908365611630677 ], [ 98.096114166393761, 13.908369086365335 ], [ 98.096115250672497, 13.908372473593348 ], [ 98.096116669606317, 13.908375740693856 ], [ 98.096118409530092, 13.908378856202894 ], [ 98.096120453687448, 13.908381790116398 ], [ 98.096122782392001, 13.908384514179174 ], [ 98.096125373217092, 13.908387002156996 ], [ 98.096128201211641, 13.908389230089272 ], [ 98.096131239140533, 13.908391176519785 ], [ 98.096134457746814, 13.908392822703348 ], [ 98.096137826033569, 13.908394152786295 ], [ 98.096141311562334, 13.908395153959201 ], [ 98.096144880765536, 13.908395816580214 ], [ 98.096148499269802, 13.908396134267933 ], [ 98.096152132226919, 13.90839610396284 ], [ 98.096155744649536, 13.908395725956797 ], [ 98.096159301748003, 13.908395003890206 ], [ 98.096162769265518, 13.90839394471697 ], [ 98.096166113807982, 13.908392558637505 ], [ 98.096169303165595, 13.908390859000516 ], [ 98.096172306623117, 13.90838886217445 ], [ 98.096175095255575, 13.908386587389835 ], [ 98.096177642206911, 13.908384056554103 ], [ 98.096179922948622, 13.908381294040588 ], [ 98.096619922919913, 13.907791293985474 ] ] ] } },
{ "type": "Feature", "properties": { "id": "WX-3", "name": "Concrete road on the hills", "kind": "exclude", "priority": 0, "split": 0, "description": "The new concrete road over the hills, traced on the ortho (its OpenStreetMap line is 10-20 m off here): bare on 10 Jan 2026 as a track." }, "geometry": { "type": "MultiPolygon", "coordinates": [ [ [ [ 98.108263714659444, 13.918695203244347 ], [ 98.108272938465262, 13.918670355268752 ], [ 98.108282897528198, 13.918678364248331 ], [ 98.108289209929794, 13.918700773981355 ], [ 98.108306502483472, 13.918711720371126 ], [ 98.108320471034915, 13.918713038259105 ], [ 98.108345242421578, 13.918700753339708 ], [ 98.108380357298458, 13.9187049192365 ], [ 98.108398862133683, 13.91869659569578 ], [ 98.108418220674736, 13.918704250546309 ], [ 98.108441374453179, 13.918682803190451 ], [ 98.108455282000378, 13.918691030269917 ], [ 98.108472877323067, 13.918689024733535 ], [ 98.108498629179849, 13.918648734425584 ], [ 98.108490788585669, 13.918633880432504 ], [ 98.10845461624848, 13.918622454223197 ], [ 98.108442137439354, 13.918606659187661 ], [ 98.108205615559896, 13.918634342202768 ], [ 98.108170702580551, 13.91864669826802 ], [ 98.108158119815329, 13.918661918716714 ], [ 98.108168600301255, 13.918680852329439 ], [ 98.108197507693504, 13.918678684783455 ], [ 98.10821109661228, 13.918702996343491 ], [ 98.108248962003117, 13.918706119581895 ], [ 98.108263714659444, 13.918695203244347 ] ] ], [ [ [ 98.107983081015362, 13.918691310323201 ], [ 98.108005397591441, 13.918690967976547 ], [ 98.108038610030633, 13.918702771896738 ], [ 98.108071472686305, 13.91870069408839 ], [ 98.108091549319909, 13.918683662499831 ], [ 98.108108010288774, 13.918688083004072 ], [ 98.108134437878846, 13.918679301280333 ], [ 98.108152430769849, 13.918664336564001 ], [ 98.108154787790127, 13.918653085231666 ], [ 98.108139597737804, 13.918642787136422 ], [ 98.107894265902345, 13.918672261372429 ], [ 98.107654793840979, 13.918760823398992 ], [ 98.107648082540862, 13.918778000600488 ], [ 98.107666124934653, 13.91878724397529 ], [ 98.107927407136273, 13.918711927330042 ], [ 98.107955078821135, 13.918717602479774 ], [ 98.107983081015362, 13.918691310323201 ] ] ], [ [ [ 98.109112404829247, 13.918767933005324 ], [ 98.109124672027107, 13.91878384601865 ], [ 98.10917223720007, 13.918804017396813 ], [ 98.10926050818621, 13.918856455366889 ], [ 98.10937981712209, 13.918937866522617 ], [ 98.109393558010538, 13.91895512104611 ], [ 98.109486405514858, 13.918978422853646 ], [ 98.10955342221385, 13.918964920995457 ], [ 98.109595478198472, 13.918928807424825 ], [ 98.109625348609967, 13.918876069670883 ], [ 98.109639927144983, 13.918804459550479 ], [ 98.109649563824377, 13.918674039176533 ], [ 98.109671241066806, 13.918536510284531 ], [ 98.109657169813218, 13.918529961791101 ], [ 98.109609415404293, 13.918537147516721 ], [ 98.109600143605491, 13.918544888103321 ], [ 98.109599977573751, 13.918591089569542 ], [ 98.109584098980321, 13.918613043233629 ], [ 98.109592710560619, 13.918643166704246 ], [ 98.109590755207066, 13.918659401979424 ], [ 98.109578754208769, 13.918672420304141 ], [ 98.109586086550223, 13.918691683593194 ], [ 98.109571961675542, 13.918809229246962 ], [ 98.109554306105807, 13.918852473170777 ], [ 98.109525276383181, 13.918886838709382 ], [ 98.10945974816822, 13.918902779627393 ], [ 98.109420419539774, 13.918888645355393 ], [ 98.109269010078961, 13.918790578780538 ], [ 98.109251793609928, 13.918772765308063 ], [ 98.10920569795077, 13.918772459598934 ], [ 98.109126724082969, 13.918754805044401 ], [ 98.109112404829247, 13.918767933005324 ] ] ], [ [ [ 98.106779858649887, 13.919159098518554 ], [ 98.106748897038855, 13.919161828735836 ], [ 98.106750521300413, 13.919127270058054 ], [ 98.106713033722841, 13.919107478165722 ], [ 98.106701960847374, 13.919082597557214 ], [ 98.106683122681929, 13.919078876298174 ], [ 98.106691293706419, 13.919044531955015 ], [ 98.1066816750009, 13.919033967470819 ], [ 98.106662665561771, 13.919032357903346 ], [ 98.10667914027411, 13.918997739009809 ], [ 98.106674371952707, 13.918981081626715 ], [ 98.106688287663616, 13.918950656607118 ], [ 98.106687953230804, 13.918926574358592 ], [ 98.106671531607759, 13.918916822722162 ], [ 98.106719635062589, 13.918836863119745 ], [ 98.106750356953555, 13.918734529968864 ], [ 98.106767924570917, 13.918736285571811 ], [ 98.106777907635134, 13.918722275018823 ], [ 98.106770009709578, 13.918705115735859 ], [ 98.106751459933506, 13.918695684131334 ], [ 98.106728852064776, 13.918617340837526 ], [ 98.10670470745363, 13.918600216210553 ], [ 98.106646679612822, 13.918583864432897 ], [ 98.106571303165865, 13.918584428439114 ], [ 98.106558470535575, 13.918588509510318 ], [ 98.10655284953495, 13.91859865297778 ], [ 98.106563125881578, 13.918612525787122 ], [ 98.10664633161997, 13.918618151310245 ], [ 98.106661541304149, 13.918630835129628 ], [ 98.106658432435154, 13.91866350092485 ], [ 98.106677199737831, 13.918689891237507 ], [ 98.106682357822592, 13.918712296894169 ], [ 98.106643796294961, 13.918823175683768 ], [ 98.106609406937082, 13.918852703101377 ], [ 98.10656487250084, 13.918924519037661 ], [ 98.106538710646348, 13.918942482478627 ], [ 98.10645749098174, 13.919135371921106 ], [ 98.106139427316876, 13.919447904817085 ], [ 98.106144003784763, 13.919459622036216 ], [ 98.10615845000153, 13.919464535143119 ], [ 98.106446952021059, 13.919486036034705 ], [ 98.106802836004803, 13.919187766485514 ], [ 98.10679984161915, 13.919176637262625 ], [ 98.106779858649887, 13.919159098518554 ] ] ], [ [ [ 98.110740640799079, 13.919106411646315 ], [ 98.110859749949483, 13.919256462102481 ], [ 98.111031576053222, 13.919372700225495 ], [ 98.111045679958053, 13.91937299446694 ], [ 98.111053469494351, 13.91938691675764 ], [ 98.111087645891715, 13.919410757572795 ], [ 98.111108375979867, 13.919409156662246 ], [ 98.111166974519932, 13.919443884004773 ], [ 98.11125349583439, 13.919523056547289 ], [ 98.111365276383523, 13.919598686969721 ], [ 98.111385697466446, 13.91959670566863 ], [ 98.111496372601295, 13.919687360683859 ], [ 98.111807203815459, 13.919897773922953 ], [ 98.111894072853374, 13.919917530366433 ], [ 98.111907189504919, 13.919911743026436 ], [ 98.111909047461992, 13.9199001891325 ], [ 98.111900620889287, 13.919889744822413 ], [ 98.111863221200821, 13.9198777636597 ], [ 98.111810950204202, 13.919848921788587 ], [ 98.111810590850098, 13.919837160548113 ], [ 98.111799528348953, 13.919826706657556 ], [ 98.111801753635689, 13.919807000450286 ], [ 98.111827922411905, 13.919788828211782 ], [ 98.111828124661059, 13.919820924839613 ], [ 98.111842998924089, 13.919834327185082 ], [ 98.111856219124178, 13.919834733480196 ], [ 98.111866494840669, 13.919825472355821 ], [ 98.111866933260359, 13.919800755331247 ], [ 98.111871464880807, 13.919822456003155 ], [ 98.111886411066266, 13.919836474421972 ], [ 98.111906631732197, 13.919838782727124 ], [ 98.111939517997968, 13.919819454983831 ], [ 98.111941626713616, 13.91975378842837 ], [ 98.111930035136382, 13.919742095381904 ], [ 98.111893602597263, 13.919731537623663 ], [ 98.111894023758325, 13.919718732757524 ], [ 98.111908974390673, 13.919715682675097 ], [ 98.111916844690597, 13.919703122445259 ], [ 98.111907598106583, 13.919683872951333 ], [ 98.111877069164692, 13.919671724660049 ], [ 98.111818861271132, 13.919690354884617 ], [ 98.111801946073783, 13.919706140856702 ], [ 98.111802872814508, 13.919731989365062 ], [ 98.111792690509702, 13.919750737772171 ], [ 98.111767432612538, 13.919707339974694 ], [ 98.111737839585459, 13.919697624822813 ], [ 98.111721877625968, 13.919683935254641 ], [ 98.111686786204004, 13.919686229327622 ], [ 98.111678524429536, 13.9196971632466 ], [ 98.111680286189312, 13.919712895324023 ], [ 98.111666299496108, 13.919696046030509 ], [ 98.111641916477936, 13.91970051076936 ], [ 98.111627467694433, 13.91968885685603 ], [ 98.111607069997021, 13.919691433283706 ], [ 98.111579325721195, 13.919652593040379 ], [ 98.111564002248286, 13.9196458811273 ], [ 98.111514635643374, 13.919595638793448 ], [ 98.111491452737567, 13.919589039421611 ], [ 98.11147508752606, 13.919572083454025 ], [ 98.111467613012991, 13.91954741574993 ], [ 98.111477762148155, 13.919535172449422 ], [ 98.111474740409491, 13.919511244407747 ], [ 98.111441398576261, 13.919481121356728 ], [ 98.111418309128211, 13.91947012466497 ], [ 98.11141482852004, 13.919456736746881 ], [ 98.111424567175959, 13.919416322672191 ], [ 98.11141398964503, 13.919388475035399 ], [ 98.111388769386508, 13.919380965155984 ], [ 98.111360149540715, 13.919402406063249 ], [ 98.111328030555413, 13.919390682277124 ], [ 98.111308137522698, 13.919395347574124 ], [ 98.111298876906844, 13.919382419637932 ], [ 98.111269201896448, 13.919380506179536 ], [ 98.111242856669563, 13.919343176012875 ], [ 98.111200541792783, 13.919355287272015 ], [ 98.111190601892318, 13.919311006231977 ], [ 98.111141147172518, 13.919269680626741 ], [ 98.111100361988903, 13.91927019080126 ], [ 98.111073635014947, 13.919261675021465 ], [ 98.111051598413027, 13.919279924521673 ], [ 98.111033311305917, 13.919270947464117 ], [ 98.111026784712593, 13.919256524923565 ], [ 98.111038806768121, 13.919244548010454 ], [ 98.111035067804437, 13.919225955243947 ], [ 98.110999520520508, 13.919209088559597 ], [ 98.110989255817486, 13.919187897966815 ], [ 98.110936071194999, 13.91917022702401 ], [ 98.110901910241836, 13.919186327747235 ], [ 98.110866567202208, 13.919155610229586 ], [ 98.110849148898808, 13.919151796713004 ], [ 98.110813313119451, 13.919118885176548 ], [ 98.110795038480134, 13.919114852833133 ], [ 98.110754914316971, 13.919083766258092 ], [ 98.110738343694308, 13.919094343150421 ], [ 98.110740640799079, 13.919106411646315 ] ], [ [ 98.111297482397234, 13.919418437508162 ], [ 98.111298567038077, 13.91942180124958 ], [ 98.111292093207112, 13.919420580546495 ], [ 98.111297482397234, 13.919418437508162 ] ], [ [ 98.111286286180928, 13.919421730650557 ], [ 98.111281290076704, 13.91942242418302 ], [ 98.111290459167179, 13.919420764986766 ], [ 98.111286286180928, 13.919421730650557 ] ] ], [ [ [ 98.111953466946517, 13.919669336247372 ], [ 98.111973970825971, 13.919691424398554 ], [ 98.11200216174241, 13.919686956565451 ], [ 98.112007866900299, 13.919672903778622 ], [ 98.112000879478131, 13.919652194906433 ], [ 98.111963020100347, 13.919622990420066 ], [ 98.111965174239941, 13.919605784465924 ], [ 98.111954414032439, 13.919589385069544 ], [ 98.111939977227848, 13.919585719228296 ], [ 98.111927489112105, 13.919591261488456 ], [ 98.111910177261677, 13.919649067671152 ], [ 98.111928455122253, 13.919671614202921 ], [ 98.111953466946517, 13.919669336247372 ] ] ], [ [ [ 98.115187583992665, 13.91978390203691 ], [ 98.115183586242125, 13.919796373252632 ], [ 98.115208666311517, 13.919816177720499 ], [ 98.115222958720111, 13.919844935742269 ], [ 98.115276940266256, 13.91983754861867 ], [ 98.115310805831086, 13.919848961348327 ], [ 98.115339307265387, 13.91988045152986 ], [ 98.115350535739793, 13.919905985548221 ], [ 98.115357247759647, 13.919941289579494 ], [ 98.115354889430094, 13.919983713477414 ], [ 98.115299921437526, 13.920127035213037 ], [ 98.115317320710702, 13.920195421831904 ], [ 98.115331515617257, 13.920203995365949 ], [ 98.115361823924545, 13.920174460742333 ], [ 98.115359611534899, 13.920152447133383 ], [ 98.115372166768253, 13.920139623729591 ], [ 98.115376367995239, 13.920106151971822 ], [ 98.115388311714412, 13.920090108480046 ], [ 98.115418988575072, 13.919991760150344 ], [ 98.115421882536467, 13.919904151499173 ], [ 98.115352304787038, 13.919797399253692 ], [ 98.115297335175626, 13.919763420799899 ], [ 98.115273387930131, 13.919764839529742 ], [ 98.115248229846671, 13.919756134690706 ], [ 98.115219201719469, 13.919761349953108 ], [ 98.115187583992665, 13.91978390203691 ] ] ], [ [ [ 98.116082364252918, 13.920085186631601 ], [ 98.116127221842717, 13.920093468976722 ], [ 98.116188836072368, 13.920138606740393 ], [ 98.116227385881331, 13.9201914173088 ], [ 98.116244764799447, 13.920243287524062 ], [ 98.116244764797742, 13.920271989152212 ], [ 98.116222532251896, 13.920361703478056 ], [ 98.116197773082206, 13.920402585533884 ], [ 98.116201059543627, 13.920436791517465 ], [ 98.116217394334598, 13.920472392077363 ], [ 98.116263302239545, 13.920518956697824 ], [ 98.116340019783877, 13.92056254200855 ], [ 98.116451432979389, 13.920639102453197 ], [ 98.116493648586399, 13.920685092758896 ], [ 98.116640168996383, 13.920889308558683 ], [ 98.11677707444727, 13.921098180170732 ], [ 98.116979781609103, 13.921365424950896 ], [ 98.117050159626842, 13.921486772135307 ], [ 98.117096990937526, 13.921596007187198 ], [ 98.117138506764448, 13.921660018018351 ], [ 98.117157616628418, 13.921672978241823 ], [ 98.117192706629496, 13.921666873084767 ], [ 98.117196672601395, 13.921649540573123 ], [ 98.117144770020928, 13.921568913483302 ], [ 98.117127346552337, 13.921514063750696 ], [ 98.117072817966729, 13.921410821876508 ], [ 98.116934269697609, 13.92121012738113 ], [ 98.116856577771344, 13.921115521282005 ], [ 98.116793683380891, 13.921017567124375 ], [ 98.11677359078756, 13.92100681373867 ], [ 98.116751943909918, 13.920976453917488 ], [ 98.116739978778995, 13.920941967312102 ], [ 98.116704386363622, 13.920915616711817 ], [ 98.116698986627739, 13.920881529214922 ], [ 98.116674337685282, 13.920855684295805 ], [ 98.116654514747438, 13.920812501617553 ], [ 98.116558650813204, 13.920675108911128 ], [ 98.1165455938403, 13.920662945051006 ], [ 98.116525355250161, 13.920657422086057 ], [ 98.116512472316998, 13.920625949924414 ], [ 98.116455320299949, 13.92056999180401 ], [ 98.116392077911357, 13.920521652487071 ], [ 98.116323687165504, 13.920490994946835 ], [ 98.116274025869984, 13.920437431322286 ], [ 98.116270256847201, 13.920400061274918 ], [ 98.116275937298397, 13.92036882700936 ], [ 98.11629796747593, 13.920315445646017 ], [ 98.116314139029143, 13.920239942835858 ], [ 98.116311020573889, 13.92021795063429 ], [ 98.116297537957806, 13.920209096024811 ], [ 98.116287008698137, 13.920188561205808 ], [ 98.116291331780815, 13.920168739393651 ], [ 98.116259599484891, 13.920140255423027 ], [ 98.116248009015408, 13.920108765273193 ], [ 98.116179775891311, 13.920053507750497 ], [ 98.116124210042344, 13.920033366969651 ], [ 98.116069021691914, 13.920025655342457 ], [ 98.11601844553438, 13.920035071063875 ], [ 98.115988069503999, 13.920057850158731 ], [ 98.115984013694458, 13.920078232868301 ], [ 98.115951083698576, 13.920124551911922 ], [ 98.115891877286359, 13.920182052132667 ], [ 98.115869275425354, 13.920254039277593 ], [ 98.115878072086787, 13.920261827093684 ], [ 98.115893782961081, 13.920260994468848 ], [ 98.115951132334317, 13.920218659434966 ], [ 98.116029142752836, 13.920119819631058 ], [ 98.116062833619054, 13.920089410144572 ], [ 98.116082364252918, 13.920085186631601 ] ] ] ] } },
{ "type": "Feature", "properties": { "id": "WX-4", "name": "Yard and houses", "kind": "exclude", "priority": 0, "split": 0, "description": "Rejected on chip review: houses and yards at the edge of the village." }, "geometry": { "type": "Polygon", "coordinates": [ [ [ 98.09722, 13.90623 ], [ 98.0986, 13.90623 ], [ 98.0986, 13.90711 ], [ 98.09722, 13.90711 ], [ 98.09722, 13.90623 ] ] ] } },
{ "type": "Feature", "properties": { "id": "WX-5", "name": "Houses", "kind": "exclude", "priority": 0, "split": 0, "description": "Rejected on chip review: houses and yards in the village." }, "geometry": { "type": "Polygon", "coordinates": [ [ [ 98.09434, 13.90923 ], [ 98.09507, 13.90923 ], [ 98.09507, 13.91018 ], [ 98.09434, 13.91018 ], [ 98.09434, 13.90923 ] ] ] } },
{ "type": "Feature", "properties": { "id": "WX-6", "name": "Yards", "kind": "exclude", "priority": 0, "split": 0, "description": "Rejected on chip review: yards in the village." }, "geometry": { "type": "Polygon", "coordinates": [ [ [ 98.09758, 13.91099 ], [ 98.09787, 13.91099 ], [ 98.09787, 13.91129 ], [ 98.09758, 13.91129 ], [ 98.09758, 13.91099 ] ] ] } },
{ "type": "Feature", "properties": { "id": "WX-7", "name": "Sandy clearing", "kind": "exclude", "priority": 0, "split": 0, "description": "Rejected on chip review: a clearing already bare on 10 Jan 2026." }, "geometry": { "type": "Polygon", "coordinates": [ [ [ 98.09997, 13.90888 ], [ 98.10024, 13.90888 ], [ 98.10024, 13.90919 ], [ 98.09997, 13.90919 ], [ 98.09997, 13.90888 ] ] ] } },
{ "type": "Feature", "properties": { "id": "WX-8", "name": "Plantation plot", "kind": "exclude", "priority": 0, "split": 0, "description": "Rejected on chip review: plantation plots and rows, cleared before 10 Jan 2026." }, "geometry": { "type": "Polygon", "coordinates": [ [ [ 98.10184, 13.90838 ], [ 98.10363, 13.90838 ], [ 98.10363, 13.90985 ], [ 98.10184, 13.90985 ], [ 98.10184, 13.90838 ] ] ] } },
{ "type": "Feature", "properties": { "id": "WX-9", "name": "Dark patches", "kind": "exclude", "priority": 0, "split": 0, "description": "Rejected on chip review: dark ground and rock, as on 10 Jan 2026." }, "geometry": { "type": "Polygon", "coordinates": [ [ [ 98.10157, 13.90633 ], [ 98.10203, 13.90633 ], [ 98.10203, 13.90669 ], [ 98.10157, 13.90669 ], [ 98.10157, 13.90633 ] ] ] } },
{ "type": "Feature", "properties": { "id": "WX-10", "name": "Dark patches", "kind": "exclude", "priority": 0, "split": 0, "description": "Rejected on chip review: dark burnt or rocky ground, as on 10 Jan 2026." }, "geometry": { "type": "Polygon", "coordinates": [ [ [ 98.10483, 13.9111 ], [ 98.10554, 13.9111 ], [ 98.10554, 13.91194 ], [ 98.10483, 13.91194 ], [ 98.10483, 13.9111 ] ] ] } },
{ "type": "Feature", "properties": { "id": "WX-11", "name": "Scattered patches", "kind": "exclude", "priority": 0, "split": 0, "description": "Rejected on chip review: scattered patches in scrub." }, "geometry": { "type": "Polygon", "coordinates": [ [ [ 98.1053, 13.91718 ], [ 98.10636, 13.91718 ], [ 98.10636, 13.91771 ], [ 98.1053, 13.91771 ], [ 98.1053, 13.91718 ] ] ] } },
{ "type": "Feature", "properties": { "id": "WX-12", "name": "Dark rock", "kind": "exclude", "priority": 0, "split": 0, "description": "Rejected on chip review: dark rock slabs, already bare on 10 Jan 2026." }, "geometry": { "type": "Polygon", "coordinates": [ [ [ 98.11389, 13.91659 ], [ 98.1143, 13.91659 ], [ 98.1143, 13.91709 ], [ 98.11389, 13.91709 ], [ 98.11389, 13.91659 ] ] ] } },
{ "type": "Feature", "properties": { "id": "WX-13", "name": "Road shoulder", "kind": "exclude", "priority": 0, "split": 0, "description": "Rejected on chip review: the road shoulder and patches beside it." }, "geometry": { "type": "Polygon", "coordinates": [ [ [ 98.11203, 13.91964 ], [ 98.11297, 13.91964 ], [ 98.11297, 13.92008 ], [ 98.11203, 13.92008 ], [ 98.11203, 13.91964 ] ] ] } },
{ "type": "Feature", "properties": { "id": "WX-14", "name": "Dark patches", "kind": "exclude", "priority": 0, "split": 0, "description": "Rejected on chip review: dark ground, as on 10 Jan 2026." }, "geometry": { "type": "Polygon", "coordinates": [ [ [ 98.11401, 13.91736 ], [ 98.11426, 13.91736 ], [ 98.11426, 13.91769 ], [ 98.11401, 13.91769 ], [ 98.11401, 13.91736 ] ] ] } },
{ "type": "Feature", "properties": { "id": "WX-15", "name": "Dark patches", "kind": "exclude", "priority": 0, "split": 0, "description": "Rejected on chip review: dark ground, as on 10 Jan 2026." }, "geometry": { "type": "Polygon", "coordinates": [ [ [ 98.11187, 13.91751 ], [ 98.11219, 13.91751 ], [ 98.11219, 13.9178 ], [ 98.11187, 13.9178 ], [ 98.11187, 13.91751 ] ] ] } },
{ "type": "Feature", "properties": { "id": "WX-16", "name": "Dark patches", "kind": "exclude", "priority": 0, "split": 0, "description": "Rejected on chip review: dark rock, as on 10 Jan 2026." }, "geometry": { "type": "Polygon", "coordinates": [ [ [ 98.11112, 13.91272 ], [ 98.11135, 13.91272 ], [ 98.11135, 13.91302 ], [ 98.11112, 13.91302 ], [ 98.11112, 13.91272 ] ] ] } },
{ "type": "Feature", "properties": { "id": "WX-17", "name": "Scrub patches", "kind": "exclude", "priority": 0, "split": 0, "description": "Rejected on chip review: scattered patches in scrub." }, "geometry": { "type": "Polygon", "coordinates": [ [ [ 98.10876, 13.91424 ], [ 98.10915, 13.91424 ], [ 98.10915, 13.91454 ], [ 98.10876, 13.91454 ], [ 98.10876, 13.91424 ] ] ] } },
{ "type": "Feature", "properties": { "id": "WX-18", "name": "Burnt grass", "kind": "exclude", "priority": 0, "split": 0, "description": "Rejected on chip review: dark burnt grass, as on 10 Jan 2026." }, "geometry": { "type": "Polygon", "coordinates": [ [ [ 98.10572, 13.92075 ], [ 98.10619, 13.92075 ], [ 98.10619, 13.92121 ], [ 98.10572, 13.92121 ], [ 98.10572, 13.92075 ] ] ] } },
{ "type": "Feature", "properties": { "id": "WX-19", "name": "Burnt grass", "kind": "exclude", "priority": 0, "split": 0, "description": "Rejected on chip review: dark burnt grass, as on 10 Jan 2026." }, "geometry": { "type": "Polygon", "coordinates": [ [ [ 98.1092, 13.92071 ], [ 98.10958, 13.92071 ], [ 98.10958, 13.92119 ], [ 98.1092, 13.92119 ], [ 98.1092, 13.92071 ] ] ] } },
{ "type": "Feature", "properties": { "id": "WX-20", "name": "Plantation rows", "kind": "exclude", "priority": 0, "split": 0, "description": "Rejected on chip review: plantation rows." }, "geometry": { "type": "Polygon", "coordinates": [ [ [ 98.10329, 13.91845 ], [ 98.10351, 13.91845 ], [ 98.10351, 13.91893 ], [ 98.10329, 13.91893 ], [ 98.10329, 13.91845 ] ] ] } }
]
}
