{
"type": "FeatureCollection",
"name": "road_traced",
"crs": { "type": "name", "properties": { "name": "urn:ogc:def:crs:OGC:1.3:CRS84" } },
"features": [
{ "type": "Feature", "properties": { "name": "concrete road traced from the 10 Oct ortho" }, "geometry": { "type": "MultiPolygon", "coordinates": [ [ [ [ 98.108197507693504, 13.918678684783455 ], [ 98.10821109661228, 13.918702996343491 ], [ 98.108248962003117, 13.918706119581897 ], [ 98.108263714659444, 13.918695203244347 ], [ 98.108272938465262, 13.918670355268752 ], [ 98.108282897528198, 13.918678364248331 ], [ 98.108289209929794, 13.918700773981353 ], [ 98.108306502483472, 13.918711720371128 ], [ 98.108320471034915, 13.918713038259106 ], [ 98.108345242421578, 13.91870075333971 ], [ 98.108380357298458, 13.918704919236502 ], [ 98.108398862133683, 13.918696595695776 ], [ 98.108418220674722, 13.918704250546313 ], [ 98.108441374453179, 13.91868280319045 ], [ 98.108455282000364, 13.918691030269919 ], [ 98.108472877323067, 13.918689024733535 ], [ 98.108498629179849, 13.918648734425584 ], [ 98.108490788585669, 13.918633880432502 ], [ 98.10845461624848, 13.918622454223195 ], [ 98.108442137439354, 13.918606659187665 ], [ 98.108205615559882, 13.918634342202772 ], [ 98.108170702580551, 13.91864669826802 ], [ 98.108158119815329, 13.918661918716717 ], [ 98.108168600301255, 13.918680852329439 ], [ 98.108197507693504, 13.918678684783455 ] ] ], [ [ [ 98.107666124934653, 13.91878724397529 ], [ 98.107927407136273, 13.918711927330042 ], [ 98.107955078821135, 13.918717602479774 ], [ 98.107983081015362, 13.918691310323201 ], [ 98.108005397591441, 13.918690967976547 ], [ 98.108038610030633, 13.918702771896738 ], [ 98.108071472686305, 13.91870069408839 ], [ 98.108091549319909, 13.918683662499831 ], [ 98.10810801028876, 13.918688083004071 ], [ 98.108134437878846, 13.918679301280335 ], [ 98.108152430769849, 13.918664336564003 ], [ 98.108154787790127, 13.918653085231666 ], [ 98.108139597737804, 13.918642787136424 ], [ 98.107894265902345, 13.918672261372429 ], [ 98.107654793840979, 13.918760823398992 ], [ 98.107648082540862, 13.918778000600488 ], [ 98.107666124934653, 13.91878724397529 ] ] ], [ [ [ 98.109251793609928, 13.918772765308063 ], [ 98.10920569795077, 13.918772459598935 ], [ 98.109126724082969, 13.918754805044401 ], [ 98.109112404829247, 13.918767933005324 ], [ 98.109124672027107, 13.918783846018652 ], [ 98.10917223720007, 13.918804017396813 ], [ 98.10926050818621, 13.918856455366887 ], [ 98.10937981712209, 13.918937866522619 ], [ 98.109393558010538, 13.918955121046112 ], [ 98.109486405514858, 13.918978422853648 ], [ 98.109553422213835, 13.918964920995457 ], [ 98.109595478198472, 13.918928807424825 ], [ 98.109625348609953, 13.918876069670883 ], [ 98.109639927144983, 13.918804459550479 ], [ 98.109649563824377, 13.918674039176532 ], [ 98.109671241066806, 13.918536510284531 ], [ 98.109657169813218, 13.918529961791101 ], [ 98.109609415404293, 13.918537147516721 ], [ 98.109600143605491, 13.918544888103321 ], [ 98.109599977573751, 13.918591089569542 ], [ 98.109584098980321, 13.918613043233629 ], [ 98.109592710560619, 13.91864316670425 ], [ 98.109590755207066, 13.918659401979426 ], [ 98.109578754208769, 13.918672420304141 ], [ 98.109586086550223, 13.918691683593194 ], [ 98.109571961675542, 13.918809229246964 ], [ 98.109554306105807, 13.918852473170778 ], [ 98.109525276383181, 13.918886838709382 ], [ 98.10945974816822, 13.918902779627398 ], [ 98.109420419539774, 13.918888645355395 ], [ 98.109269010078961, 13.918790578780536 ], [ 98.109251793609928, 13.918772765308063 ] ] ], [ [ [ 98.106446952021059, 13.919486036034705 ], [ 98.106802836004803, 13.919187766485514 ], [ 98.10679984161915, 13.919176637262625 ], [ 98.106779858649887, 13.919159098518554 ], [ 98.106748897038855, 13.919161828735836 ], [ 98.106750521300413, 13.919127270058056 ], [ 98.106713033722841, 13.919107478165722 ], [ 98.106701960847374, 13.919082597557212 ], [ 98.106683122681929, 13.919078876298174 ], [ 98.106691293706419, 13.919044531955013 ], [ 98.1066816750009, 13.919033967470822 ], [ 98.106662665561757, 13.919032357903347 ], [ 98.10667914027411, 13.918997739009811 ], [ 98.106674371952707, 13.918981081626715 ], [ 98.106688287663616, 13.918950656607119 ], [ 98.106687953230804, 13.918926574358592 ], [ 98.106671531607745, 13.918916822722165 ], [ 98.106719635062589, 13.918836863119749 ], [ 98.106750356953555, 13.918734529968864 ], [ 98.106767924570917, 13.918736285571811 ], [ 98.106777907635134, 13.918722275018824 ], [ 98.106770009709578, 13.918705115735859 ], [ 98.106751459933506, 13.918695684131334 ], [ 98.106728852064776, 13.918617340837526 ], [ 98.10670470745363, 13.918600216210553 ], [ 98.106646679612822, 13.918583864432895 ], [ 98.106571303165865, 13.918584428439114 ], [ 98.106558470535575, 13.918588509510318 ], [ 98.10655284953495, 13.91859865297778 ], [ 98.106563125881578, 13.918612525787122 ], [ 98.10664633161997, 13.918618151310245 ], [ 98.106661541304135, 13.918630835129628 ], [ 98.106658432435154, 13.918663500924852 ], [ 98.106677199737831, 13.918689891237507 ], [ 98.106682357822592, 13.918712296894169 ], [ 98.106643796294946, 13.918823175683768 ], [ 98.106609406937082, 13.918852703101377 ], [ 98.106564872500826, 13.918924519037663 ], [ 98.106538710646348, 13.918942482478627 ], [ 98.10645749098174, 13.919135371921104 ], [ 98.106139427316876, 13.919447904817087 ], [ 98.106144003784749, 13.919459622036216 ], [ 98.10615845000153, 13.919464535143121 ], [ 98.106446952021059, 13.919486036034705 ] ] ], [ [ [ 98.110795038480134, 13.919114852833133 ], [ 98.110754914316971, 13.91908376625809 ], [ 98.110738343694308, 13.919094343150419 ], [ 98.110740640799079, 13.919106411646315 ], [ 98.110859749949483, 13.919256462102481 ], [ 98.111031576053222, 13.919372700225495 ], [ 98.111045679958053, 13.919372994466942 ], [ 98.111053469494351, 13.919386916757643 ], [ 98.111087645891715, 13.919410757572795 ], [ 98.111108375979867, 13.919409156662246 ], [ 98.111166974519932, 13.919443884004776 ], [ 98.11125349583439, 13.919523056547289 ], [ 98.111365276383509, 13.919598686969721 ], [ 98.111385697466446, 13.91959670566863 ], [ 98.111496372601295, 13.919687360683859 ], [ 98.111807203815459, 13.919897773922953 ], [ 98.111894072853374, 13.919917530366433 ], [ 98.111907189504919, 13.919911743026438 ], [ 98.111909047461992, 13.919900189132502 ], [ 98.111900620889287, 13.919889744822415 ], [ 98.111863221200807, 13.9198777636597 ], [ 98.111810950204202, 13.919848921788587 ], [ 98.111810590850098, 13.919837160548111 ], [ 98.111799528348953, 13.919826706657554 ], [ 98.111801753635689, 13.919807000450286 ], [ 98.111827922411905, 13.919788828211782 ], [ 98.111828124661059, 13.919820924839613 ], [ 98.111842998924089, 13.919834327185082 ], [ 98.111856219124178, 13.919834733480197 ], [ 98.111866494840669, 13.919825472355823 ], [ 98.111866933260359, 13.919800755331247 ], [ 98.111871464880807, 13.919822456003157 ], [ 98.111886411066266, 13.91983647442197 ], [ 98.111906631732197, 13.919838782727126 ], [ 98.111939517997968, 13.919819454983831 ], [ 98.111941626713616, 13.919753788428373 ], [ 98.111930035136382, 13.919742095381906 ], [ 98.111893602597263, 13.919731537623663 ], [ 98.111894023758325, 13.919718732757525 ], [ 98.111908974390673, 13.919715682675097 ], [ 98.111916844690597, 13.919703122445259 ], [ 98.111907598106583, 13.919683872951333 ], [ 98.111877069164692, 13.919671724660047 ], [ 98.111818861271132, 13.919690354884619 ], [ 98.111801946073783, 13.9197061408567 ], [ 98.111802872814508, 13.919731989365062 ], [ 98.111792690509702, 13.919750737772175 ], [ 98.111767432612538, 13.919707339974693 ], [ 98.111737839585459, 13.919697624822813 ], [ 98.111721877625968, 13.919683935254644 ], [ 98.111686786204004, 13.919686229327626 ], [ 98.111678524429536, 13.919697163246603 ], [ 98.111680286189312, 13.919712895324023 ], [ 98.111666299496108, 13.919696046030509 ], [ 98.111641916477936, 13.91970051076936 ], [ 98.111627467694433, 13.91968885685603 ], [ 98.111607069997021, 13.919691433283706 ], [ 98.111579325721195, 13.919652593040379 ], [ 98.111564002248286, 13.919645881127302 ], [ 98.11151463564336, 13.919595638793446 ], [ 98.111491452737567, 13.919589039421611 ], [ 98.11147508752606, 13.919572083454026 ], [ 98.111467613012991, 13.91954741574993 ], [ 98.111477762148155, 13.919535172449422 ], [ 98.111474740409491, 13.919511244407749 ], [ 98.111441398576261, 13.919481121356728 ], [ 98.111418309128211, 13.919470124664972 ], [ 98.11141482852004, 13.919456736746884 ], [ 98.111424567175959, 13.919416322672189 ], [ 98.11141398964503, 13.919388475035399 ], [ 98.111388769386508, 13.919380965155984 ], [ 98.111360149540715, 13.91940240606325 ], [ 98.111328030555413, 13.919390682277124 ], [ 98.111308137522684, 13.919395347574124 ], [ 98.111298876906844, 13.919382419637932 ], [ 98.111269201896448, 13.919380506179538 ], [ 98.111242856669563, 13.919343176012875 ], [ 98.111200541792783, 13.919355287272015 ], [ 98.111190601892318, 13.919311006231977 ], [ 98.111141147172518, 13.919269680626741 ], [ 98.111100361988903, 13.91927019080126 ], [ 98.111073635014932, 13.919261675021467 ], [ 98.111051598413027, 13.919279924521673 ], [ 98.111033311305917, 13.919270947464117 ], [ 98.111026784712578, 13.919256524923565 ], [ 98.111038806768121, 13.919244548010454 ], [ 98.111035067804437, 13.919225955243947 ], [ 98.110999520520508, 13.919209088559594 ], [ 98.110989255817486, 13.919187897966813 ], [ 98.110936071194999, 13.91917022702401 ], [ 98.110901910241822, 13.919186327747235 ], [ 98.110866567202208, 13.919155610229586 ], [ 98.110849148898808, 13.919151796713006 ], [ 98.110813313119451, 13.919118885176552 ], [ 98.110795038480134, 13.919114852833133 ] ], [ [ 98.111297482397234, 13.919418437508162 ], [ 98.111298567038077, 13.919421801249582 ], [ 98.111292093207112, 13.919420580546497 ], [ 98.111297482397234, 13.919418437508162 ] ], [ [ 98.111286286180928, 13.919421730650557 ], [ 98.111281290076704, 13.91942242418302 ], [ 98.111290459167179, 13.919420764986768 ], [ 98.111286286180928, 13.919421730650557 ] ] ], [ [ [ 98.111927489112105, 13.919591261488456 ], [ 98.111910177261677, 13.919649067671156 ], [ 98.111928455122253, 13.919671614202921 ], [ 98.111953466946517, 13.919669336247372 ], [ 98.111973970825971, 13.919691424398556 ], [ 98.11200216174241, 13.919686956565451 ], [ 98.112007866900285, 13.919672903778624 ], [ 98.112000879478131, 13.919652194906433 ], [ 98.111963020100347, 13.919622990420068 ], [ 98.111965174239941, 13.919605784465926 ], [ 98.111954414032439, 13.919589385069544 ], [ 98.111939977227848, 13.919585719228298 ], [ 98.111927489112105, 13.919591261488456 ] ] ], [ [ [ 98.115273387930131, 13.919764839529742 ], [ 98.115248229846671, 13.919756134690706 ], [ 98.115219201719469, 13.919761349953108 ], [ 98.115187583992665, 13.91978390203691 ], [ 98.115183586242125, 13.919796373252636 ], [ 98.115208666311517, 13.919816177720499 ], [ 98.115222958720111, 13.919844935742269 ], [ 98.115276940266241, 13.91983754861867 ], [ 98.115310805831072, 13.919848961348325 ], [ 98.115339307265387, 13.91988045152986 ], [ 98.115350535739793, 13.919905985548221 ], [ 98.115357247759647, 13.919941289579494 ], [ 98.115354889430094, 13.919983713477414 ], [ 98.115299921437526, 13.920127035213037 ], [ 98.115317320710702, 13.920195421831904 ], [ 98.115331515617257, 13.920203995365954 ], [ 98.115361823924545, 13.920174460742333 ], [ 98.115359611534899, 13.920152447133383 ], [ 98.115372166768253, 13.920139623729591 ], [ 98.115376367995239, 13.920106151971822 ], [ 98.115388311714412, 13.920090108480046 ], [ 98.115418988575072, 13.919991760150346 ], [ 98.115421882536467, 13.919904151499173 ], [ 98.115352304787038, 13.919797399253692 ], [ 98.115297335175626, 13.919763420799899 ], [ 98.115273387930131, 13.919764839529742 ] ] ], [ [ [ 98.115951132334317, 13.920218659434969 ], [ 98.116029142752836, 13.920119819631058 ], [ 98.116062833619054, 13.920089410144572 ], [ 98.116082364252918, 13.920085186631603 ], [ 98.116127221842717, 13.920093468976724 ], [ 98.116188836072368, 13.920138606740393 ], [ 98.116227385881331, 13.920191417308798 ], [ 98.116244764799447, 13.920243287524062 ], [ 98.116244764797742, 13.920271989152214 ], [ 98.116222532251896, 13.920361703478056 ], [ 98.116197773082206, 13.920402585533887 ], [ 98.116201059543627, 13.920436791517465 ], [ 98.116217394334598, 13.920472392077363 ], [ 98.116263302239545, 13.920518956697828 ], [ 98.116340019783877, 13.92056254200855 ], [ 98.116451432979375, 13.920639102453197 ], [ 98.116493648586399, 13.920685092758898 ], [ 98.116640168996383, 13.920889308558683 ], [ 98.11677707444727, 13.921098180170732 ], [ 98.116979781609103, 13.921365424950896 ], [ 98.117050159626842, 13.921486772135308 ], [ 98.117096990937526, 13.921596007187201 ], [ 98.117138506764434, 13.921660018018351 ], [ 98.117157616628418, 13.921672978241824 ], [ 98.117192706629496, 13.921666873084769 ], [ 98.117196672601395, 13.921649540573123 ], [ 98.117144770020914, 13.921568913483302 ], [ 98.117127346552337, 13.921514063750692 ], [ 98.117072817966729, 13.92141082187651 ], [ 98.116934269697609, 13.921210127381132 ], [ 98.116856577771344, 13.921115521282003 ], [ 98.116793683380891, 13.921017567124375 ], [ 98.11677359078756, 13.921006813738671 ], [ 98.116751943909918, 13.92097645391749 ], [ 98.116739978778995, 13.920941967312103 ], [ 98.116704386363608, 13.920915616711817 ], [ 98.116698986627739, 13.920881529214922 ], [ 98.116674337685282, 13.920855684295804 ], [ 98.116654514747438, 13.920812501617553 ], [ 98.116558650813204, 13.920675108911128 ], [ 98.1165455938403, 13.920662945051008 ], [ 98.116525355250161, 13.920657422086059 ], [ 98.116512472316984, 13.920625949924414 ], [ 98.116455320299949, 13.920569991804008 ], [ 98.116392077911357, 13.920521652487071 ], [ 98.116323687165504, 13.920490994946837 ], [ 98.116274025869984, 13.920437431322283 ], [ 98.116270256847201, 13.920400061274918 ], [ 98.116275937298383, 13.920368827009359 ], [ 98.11629796747593, 13.920315445646017 ], [ 98.116314139029143, 13.920239942835858 ], [ 98.116311020573889, 13.920217950634292 ], [ 98.116297537957806, 13.920209096024813 ], [ 98.116287008698137, 13.92018856120581 ], [ 98.116291331780815, 13.920168739393651 ], [ 98.116259599484891, 13.920140255423028 ], [ 98.116248009015408, 13.920108765273195 ], [ 98.116179775891311, 13.920053507750499 ], [ 98.116124210042344, 13.920033366969651 ], [ 98.116069021691914, 13.920025655342462 ], [ 98.11601844553438, 13.920035071063875 ], [ 98.115988069503999, 13.920057850158734 ], [ 98.115984013694458, 13.920078232868303 ], [ 98.115951083698576, 13.920124551911922 ], [ 98.115891877286359, 13.920182052132667 ], [ 98.115869275425354, 13.920254039277593 ], [ 98.115878072086787, 13.920261827093684 ], [ 98.115893782961081, 13.920260994468848 ], [ 98.115951132334317, 13.920218659434969 ] ] ] ] } }
]
}
