{
"type": "FeatureCollection",
"name": "envelopes",
"crs": { "type": "name", "properties": { "name": "urn:ogc:def:crs:OGC:1.3:CRS84" } },
"features": [
{ "type": "Feature", "properties": { "id": "TB-03", "name": "Long slide", "kind": "landslide", "priority": 1, "split": 0, "description": "A 500 m open-slope failure on the east face of the ridge: it broke away at about 165 m and ran north-east down to the floor of the main valley, stripping the forest to bare soil." }, "geometry": { "type": "Polygon", "coordinates": [ [ [ 98.114, 14.0123 ], [ 98.1158, 14.0126 ], [ 98.1165, 14.013 ], [ 98.1172, 14.0138 ], [ 98.1176, 14.0147 ], [ 98.1182, 14.015 ], [ 98.1175, 14.0155 ], [ 98.1165, 14.0156 ], [ 98.1155, 14.0147 ], [ 98.1147, 14.0138 ], [ 98.114, 14.013 ], [ 98.114, 14.0123 ] ] ] } },
{ "type": "Feature", "properties": { "id": "TB-04", "name": "West-bank slide", "kind": "landslide", "priority": 1, "split": 0, "description": "Slope failure on the west bank of the debris fan, whose debris slid east into the fan above the village." }, "geometry": { "type": "Polygon", "coordinates": [ [ [ 98.1194, 14.0086 ], [ 98.1198, 14.0091 ], [ 98.121, 14.0092 ], [ 98.1217, 14.009 ], [ 98.1217, 14.0084 ], [ 98.1205, 14.0083 ], [ 98.1194, 14.0086 ] ] ] } },
{ "type": "Feature", "properties": { "id": "TB-02", "name": "North-west tributary flow", "kind": "landslide", "priority": 3, "split": 0, "description": "A tributary from the north-west hills scoured into a wide braided bed of sand and gravel that joins the main valley flow at the north edge of the survey." }, "geometry": { "type": "Polygon", "coordinates": [ [ [ 98.1117, 14.016 ], [ 98.1117, 14.0185 ], [ 98.112, 14.0192 ], [ 98.1155, 14.0194 ], [ 98.1158, 14.018 ], [ 98.115, 14.0174 ], [ 98.114, 14.0173 ], [ 98.113, 14.017 ], [ 98.1124, 14.0165 ], [ 98.1122, 14.0158 ], [ 98.1117, 14.016 ] ] ] } },
{ "type": "Feature", "properties": { "id": "TB-05", "name": "Southern debris flow", "kind": "landslide", "priority": 4, "split": 0, "description": "A debris flow that enters the survey from the south-west as a broad braided deposit, bends north-east and runs east along a scoured channel into the southern part of the village." }, "geometry": { "type": "Polygon", "coordinates": [ [ [ 98.1166, 14.0008 ], [ 98.117, 13.9994 ], [ 98.1195, 13.9993 ], [ 98.1205, 14.0 ], [ 98.1208, 14.0012 ], [ 98.121, 14.0022 ], [ 98.1215, 14.0028 ], [ 98.123, 14.0029 ], [ 98.1242, 14.0031 ], [ 98.1242, 14.0039 ], [ 98.1225, 14.0038 ], [ 98.1205, 14.0036 ], [ 98.1197, 14.003 ], [ 98.1193, 14.0018 ], [ 98.1185, 14.0012 ], [ 98.1175, 14.0012 ], [ 98.1166, 14.0008 ] ] ] } },
{ "type": "Feature", "properties": { "id": "TB-01", "name": "Main valley debris flow", "kind": "landslide", "priority": 5, "split": 0, "description": "The debris flow of the main valley: the forested stream from the northern hills was scoured into a channel 30-60 m wide over 1.3 km, and it dumped a fan of boulders, sand and logs at the head of Tha Byar, where January's image shows forest and orchards." }, "geometry": { "type": "Polygon", "coordinates": [ [ [ 98.1153, 14.0192 ], [ 98.1153, 14.0187 ], [ 98.1157, 14.0175 ], [ 98.1165, 14.0166 ], [ 98.1175, 14.0158 ], [ 98.1185, 14.0148 ], [ 98.1195, 14.0138 ], [ 98.1205, 14.0132 ], [ 98.1213, 14.0127 ], [ 98.1216, 14.0118 ], [ 98.1217, 14.011 ], [ 98.1216, 14.01 ], [ 98.121, 14.0097 ], [ 98.1205, 14.0092 ], [ 98.1213, 14.0083 ], [ 98.1218, 14.0078 ], [ 98.1222, 14.0072 ], [ 98.1232, 14.0068 ], [ 98.1242, 14.0068 ], [ 98.1248, 14.0073 ], [ 98.125, 14.008 ], [ 98.1246, 14.0088 ], [ 98.124, 14.0095 ], [ 98.1233, 14.01 ], [ 98.1231, 14.011 ], [ 98.1236, 14.012 ], [ 98.1232, 14.013 ], [ 98.1226, 14.014 ], [ 98.122, 14.0146 ], [ 98.1205, 14.0152 ], [ 98.1192, 14.016 ], [ 98.118, 14.017 ], [ 98.1173, 14.018 ], [ 98.1173, 14.0192 ], [ 98.1153, 14.0192 ] ] ] } },
{ "type": "Feature", "properties": { "id": "TC", "name": "Ridge channel network west of the valley", "kind": "landslide", "priority": 6, "split": 1, "description": "Zone split into connected scars and scoured channels." }, "geometry": { "type": "Polygon", "coordinates": [ [ [ 98.1115, 14.017 ], [ 98.115, 14.0166 ], [ 98.1165, 14.016 ], [ 98.1185, 14.0148 ], [ 98.12, 14.0138 ], [ 98.121, 14.0128 ], [ 98.1214, 14.0118 ], [ 98.1215, 14.01 ], [ 98.1205, 14.0095 ], [ 98.1195, 14.0083 ], [ 98.121, 14.0075 ], [ 98.1212, 14.006 ], [ 98.1208, 14.0045 ], [ 98.1215, 14.0038 ], [ 98.12, 14.0035 ], [ 98.118, 14.0035 ], [ 98.1155, 14.0035 ], [ 98.115, 14.006 ], [ 98.115, 14.01 ], [ 98.1115, 14.011 ], [ 98.1115, 14.017 ] ] ] } },
{ "type": "Feature", "properties": { "id": "TB-OW1", "name": "Village and fields under sediment", "kind": "outwash", "priority": 9, "split": 0, "description": "Houses, orchards and the fields across the main road under sand and mud spread from the fan of the main valley flow (building footprints are cut out of the area)." }, "geometry": { "type": "Polygon", "coordinates": [ [ [ 98.1222, 14.007 ], [ 98.125, 14.0072 ], [ 98.1262, 14.0078 ], [ 98.1275, 14.008 ], [ 98.129, 14.0081 ], [ 98.1297, 14.008 ], [ 98.1297, 14.004 ], [ 98.1225, 14.004 ], [ 98.1225, 14.0055 ], [ 98.1222, 14.007 ] ] ] } },
{ "type": "Feature", "properties": { "id": "TB-OW2", "name": "Southern village and fields under sediment", "kind": "outwash", "priority": 9, "split": 0, "description": "The southern part of the village and the fields on both sides of the road under sediment spread from the southern debris flow; all were grass, paddy or orchard on 10 Jan 2026." }, "geometry": { "type": "Polygon", "coordinates": [ [ [ 98.1242, 14.004 ], [ 98.1297, 14.004 ], [ 98.1297, 13.9985 ], [ 98.1255, 13.9985 ], [ 98.1245, 14.0005 ], [ 98.1235, 14.0015 ], [ 98.1225, 14.0028 ], [ 98.1242, 14.0031 ], [ 98.1242, 14.004 ] ] ] } },
{ "type": "Feature", "properties": { "id": "TX-1", "name": "Smeared edge of the flight", "kind": "exclude", "priority": 0, "split": 0, "description": "Plan 1 is smeared here (orthorectification edge) and Plan 2 does not reach: false bare ground." }, "geometry": { "type": "Polygon", "coordinates": [ [ [ 98.1283, 14.0078 ], [ 98.1306, 14.0078 ], [ 98.1306, 14.01 ], [ 98.1283, 14.01 ], [ 98.1283, 14.0078 ] ] ] } },
{ "type": "Feature", "properties": { "id": "TX-2", "name": "Dawei-Launglon road", "kind": "exclude", "priority": 0, "split": 0, "description": "Unsealed main road, bare on 10 Jan 2026." }, "geometry": { "type": "Polygon", "coordinates": [ [ [ 98.126153944006276, 14.001004590839463 ], [ 98.126154562975529, 14.001008664355428 ], [ 98.126354562781898, 14.002008664381178 ], [ 98.126355540936828, 14.002012605954439 ], [ 98.126356876946602, 14.002016446061331 ], [ 98.126756140285792, 14.003014604893918 ], [ 98.127054971262226, 14.004010708798409 ], [ 98.127254138019339, 14.005006543574249 ], [ 98.127353922767725, 14.00600439305229 ], [ 98.127354192350253, 14.006006550984107 ], [ 98.127504192152827, 14.007006551000632 ], [ 98.12750501403643, 14.007010679898219 ], [ 98.12750622539231, 14.007014716333138 ], [ 98.127507815732969, 14.007018625359397 ], [ 98.127509771289837, 14.007022373134053 ], [ 98.127859771212187, 14.007622373186951 ], [ 98.127862014502298, 14.007625842594402 ], [ 98.12786457072302, 14.007629099106493 ], [ 98.127867418815839, 14.007632115895559 ], [ 98.127870535317683, 14.007634868108793 ], [ 98.127873894554355, 14.007637333073037 ], [ 98.12847389459823, 14.008037333139452 ], [ 98.128477855302563, 14.008039698370727 ], [ 98.128482038704774, 14.008041664375979 ], [ 98.128486402734552, 14.0080432113841 ], [ 98.129486402867428, 14.008343211440096 ], [ 98.130486402859574, 14.008643211453853 ], [ 98.130490806102429, 14.008644304699114 ], [ 98.130495297887606, 14.008644971265825 ], [ 98.130499834956737, 14.008645204734584 ], [ 98.130504373615324, 14.008645002856952 ], [ 98.130508870153591, 14.008644367577123 ], [ 98.130513281267383, 14.008643305013187 ], [ 98.130517564475269, 14.008641825398225 ], [ 98.130521678527543, 14.008639942981745 ], [ 98.13052558380366, 14.008637675892448 ], [ 98.130529242693626, 14.008635045963659 ], [ 98.130532619960348, 14.008632078523043 ], [ 98.130535683078904, 14.008628802148682 ], [ 98.13053840254976, 14.008625248393866 ], [ 98.130540752182952, 14.008621451483213 ], [ 98.130542709350223, 14.008617447983054 ], [ 98.13054425520302, 14.008613276449301 ], [ 98.130545374853924, 14.008608977056102 ], [ 98.130546057520121, 14.008604591208988 ], [ 98.130546296627202, 14.008600161146056 ], [ 98.130546089872439, 14.008595729531237 ], [ 98.13054543924703, 14.008591339043406 ], [ 98.130544351016866, 14.008587031965364 ], [ 98.13054283566224, 14.008582849776618 ], [ 98.130540907776847, 14.008578832753928 ], [ 98.130538585927312, 14.008575019583409 ], [ 98.130535892474313, 14.008571446987967 ], [ 98.130532853357295, 14.008568149373637 ], [ 98.130529497844606, 14.008565158498238 ], [ 98.130525858251701, 14.008562503165519 ], [ 98.130521969629811, 14.008560208947776 ], [ 98.130517869428488, 14.008558297939569 ], [ 98.130513597134893, 14.00855678854494 ], [ 98.129513597297432, 14.008256788609808 ], [ 98.128520307756204, 14.007958801779552 ], [ 98.127934936466431, 14.007568554296206 ], [ 98.127594544228756, 14.006985024922148 ], [ 98.127445969017359, 14.005994524807365 ], [ 98.127346077031277, 14.004995606946002 ], [ 98.127345437837292, 14.004991335720591 ], [ 98.12714543764362, 14.003991335746365 ], [ 98.127144428981239, 14.003987292026284 ], [ 98.126844428798805, 14.002987292069992 ], [ 98.126843123214456, 14.002983553870019 ], [ 98.126444638709174, 14.001987343098847 ], [ 98.126245841616225, 14.000993358614645 ], [ 98.126016055553407, 13.998795409169251 ], [ 98.126015372953717, 13.998791023318171 ], [ 98.126014253387737, 13.998786723917487 ], [ 98.1260127076375, 13.998782552372768 ], [ 98.126010750589444, 13.998778548858267 ], [ 98.126008401091056, 13.998774751930002 ], [ 98.126005681769286, 13.998771198154463 ], [ 98.126002618812677, 13.998767921756437 ], [ 98.125999241719228, 13.998764954289417 ], [ 98.125995583012156, 13.998762324331725 ], [ 98.12599167792682, 13.998760057211273 ], [ 98.125987564071309, 13.99875817476166 ], [ 98.125983281064279, 13.998756695111899 ], [ 98.125978870153432, 13.998755632511815 ], [ 98.125974373818195, 13.998754997194814 ], [ 98.125969835360749, 13.998754795279348 ], [ 98.125965298488865, 13.998755028709969 ], [ 98.12596080689508, 13.998755695238613 ], [ 98.125956403835886, 13.998756788446245 ], [ 98.12595213171511, 13.998758297804686 ], [ 98.12594803167562, 13.998760208777991 ], [ 98.125944143202972, 13.998762502962457 ], [ 98.125940503745312, 13.998765158263838 ], [ 98.125937148352577, 13.998768149110147 ], [ 98.125934109339028, 13.998771446697907 ], [ 98.125931415972047, 13.998775019269551 ], [ 98.125929094190212, 13.998778832419287 ], [ 98.125927166353591, 13.998782849424405 ], [ 98.125925651028297, 13.998787031598955 ], [ 98.125924562807754, 13.998791338666329 ], [ 98.125923912172169, 13.99879572914711 ], [ 98.125923705387521, 13.998800160758574 ], [ 98.12592394444529, 13.998804590821893 ], [ 98.126153944006276, 14.001004590839463 ] ] ] } },
{ "type": "Feature", "properties": { "id": "TX-3", "name": "Clearing bare in Jan 2026", "kind": "exclude", "priority": 0, "split": 0, "description": "Plot already cleared to bare soil on the Esri Vivid image of 10 Jan 2026 (now strewn with debris)." }, "geometry": { "type": "Polygon", "coordinates": [ [ [ 98.11995, 14.01175 ], [ 98.12135, 14.01175 ], [ 98.12135, 14.0129 ], [ 98.11995, 14.0129 ], [ 98.11995, 14.01175 ] ] ] } },
{ "type": "Feature", "properties": { "id": "TX-4", "name": "Crop rows in a field", "kind": "exclude", "priority": 0, "split": 0, "description": "Rejected on chip review: crop rows in a field, not a landslide." }, "geometry": { "type": "Polygon", "coordinates": [ [ [ 98.1185, 14.01215 ], [ 98.11945, 14.01215 ], [ 98.11945, 14.0127 ], [ 98.1185, 14.0127 ], [ 98.1185, 14.01215 ] ] ] } },
{ "type": "Feature", "properties": { "id": "TX-5", "name": "Canopy gaps in plantation", "kind": "exclude", "priority": 0, "split": 0, "description": "Rejected on chip review: canopy gaps in plantation, not a landslide." }, "geometry": { "type": "Polygon", "coordinates": [ [ [ 98.1203, 14.00495 ], [ 98.1211, 14.00495 ], [ 98.1211, 14.00592 ], [ 98.1203, 14.00592 ], [ 98.1203, 14.00495 ] ] ] } },
{ "type": "Feature", "properties": { "id": "TX-6", "name": "Canopy gaps in plantation", "kind": "exclude", "priority": 0, "split": 0, "description": "Rejected on chip review: canopy gaps in plantation, not a landslide." }, "geometry": { "type": "Polygon", "coordinates": [ [ [ 98.1199, 14.00348 ], [ 98.1206, 14.00348 ], [ 98.1206, 14.0039 ], [ 98.1199, 14.0039 ], [ 98.1199, 14.00348 ] ] ] } },
{ "type": "Feature", "properties": { "id": "TX-7", "name": "Shade and a yard under trees", "kind": "exclude", "priority": 0, "split": 0, "description": "Rejected on chip review: shade and a yard under trees beside a house, not a landslide." }, "geometry": { "type": "Polygon", "coordinates": [ [ [ 98.12095, 14.00368 ], [ 98.12138, 14.00368 ], [ 98.12138, 14.00396 ], [ 98.12095, 14.00396 ], [ 98.12095, 14.00368 ] ] ] } },
{ "type": "Feature", "properties": { "id": "TX-8", "name": "Shade under trees", "kind": "exclude", "priority": 0, "split": 0, "description": "Rejected on chip review: shade under trees, not a landslide." }, "geometry": { "type": "Polygon", "coordinates": [ [ [ 98.11803, 14.00365 ], [ 98.11838, 14.00365 ], [ 98.11838, 14.00388 ], [ 98.11803, 14.00388 ], [ 98.11803, 14.00365 ] ] ] } },
{ "type": "Feature", "properties": { "id": "TX-9", "name": "Canopy gaps in plantation", "kind": "exclude", "priority": 0, "split": 0, "description": "Rejected on outline review: canopy gaps in the plantation beside the main channel." }, "geometry": { "type": "Polygon", "coordinates": [ [ [ 98.1176, 14.0161 ], [ 98.119, 14.0161 ], [ 98.119, 14.0168 ], [ 98.1176, 14.0168 ], [ 98.1176, 14.0161 ] ] ] } }
]
}
