{
"type": "FeatureCollection",
"name": "envelopes",
"crs": { "type": "name", "properties": { "name": "urn:ogc:def:crs:OGC:1.3:CRS84" } },
"features": [
{ "type": "Feature", "properties": { "id": "KD-02", "name": "West chute", "kind": "landslide", "priority": 1, "split": 0, "description": "Narrow debris slide off the east flank of the KD-01 amphitheatre, running into the main channel." }, "geometry": { "type": "Polygon", "coordinates": [ [ [ 98.131436600517375, 13.888868931931162 ], [ 98.132274427433899, 13.888149386114288 ], [ 98.132288768275558, 13.888135794530644 ], [ 98.132301676394874, 13.888120895170958 ], [ 98.132313027479682, 13.888104831524444 ], [ 98.132322712212982, 13.888087758293027 ], [ 98.132330637325694, 13.88806983990148 ], [ 98.132336726494998, 13.888051248913888 ], [ 98.132340921079248, 13.888032164371792 ], [ 98.132343180682724, 13.888012770069883 ], [ 98.132343483544688, 13.88799325278598 ], [ 98.132341826748885, 13.887973800482222 ], [ 98.13233822625169, 13.887954600494924 ], [ 98.1323327167283, 13.887935837730396 ], [ 98.132325351238876, 13.887917692884225 ], [ 98.132316200717483, 13.887900340701052 ], [ 98.132305353288956, 13.887883948291721 ], [ 98.132292913420187, 13.887868673523881 ], [ 98.132279000914053, 13.887854663501676 ], [ 98.132263749755637, 13.887842053149051 ], [ 98.132247306821867, 13.887830963910355 ], [ 98.132229830467068, 13.88782150258079 ], [ 98.132211488997825, 13.887813760277913 ], [ 98.132192459052206, 13.887807811564146 ], [ 98.132172923898636, 13.887803713728696 ], [ 98.132153071670842, 13.887801506235833 ], [ 98.132133093556178, 13.88780121034484 ], [ 98.132113181954338, 13.887802828905272 ], [ 98.132093528624438, 13.887806346329521 ], [ 98.132074322838278, 13.887811728742925 ], [ 98.132055749557708, 13.887818924309999 ], [ 98.132037987653163, 13.887827863733635 ], [ 98.132021208181172, 13.887838460922483 ], [ 98.132005572737029, 13.88785061382001 ], [ 98.131155572918104, 13.888580613368308 ], [ 98.131143861999703, 13.888591506147831 ], [ 98.131133072847945, 13.888603272479685 ], [ 98.130143072676546, 13.889773271841051 ], [ 98.130131113386781, 13.889788908697479 ], [ 98.130120780565051, 13.889805615423771 ], [ 98.130112173722267, 13.889823231125254 ], [ 98.130105375747334, 13.889841586153285 ], [ 98.13010045210882, 13.889860503739087 ], [ 98.130097450224469, 13.889879801696098 ], [ 98.130096399004529, 13.889899294174555 ], [ 98.130097308573312, 13.889918793451269 ], [ 98.130100170171644, 13.889938111737571 ], [ 98.130104956241283, 13.889957062987747 ], [ 98.130111620690172, 13.889975464690831 ], [ 98.130120099336452, 13.889993139628226 ], [ 98.130130310526454, 13.890009917580462 ], [ 98.130142155921092, 13.8900256369665 ], [ 98.130155521442916, 13.890040146399839 ], [ 98.13017027837472, 13.890053306146472 ], [ 98.130186284599176, 13.890064989470613 ], [ 98.130203385967491, 13.890075083855226 ], [ 98.130221417783915, 13.890083492085655 ], [ 98.130240206391917, 13.890090133185833 ], [ 98.13025957084659, 13.89009494319817 ], [ 98.130279324657224, 13.89009787579948 ], [ 98.130299277583362, 13.890098902747109 ], [ 98.130319237466935, 13.890098014150936 ], [ 98.130339012082857, 13.890095218568623 ], [ 98.130358410990283, 13.890090542923195 ], [ 98.13037724736671, 13.890084032243756 ], [ 98.130395339807123, 13.890075749231842 ], [ 98.130412514071068, 13.890065773657533 ], [ 98.13042860476078, 13.89005420159126 ], [ 98.130443456913923, 13.890041144478573 ], [ 98.130456927496041, 13.890026728066827 ], [ 98.131436600517375, 13.888868931931162 ] ] ] } },
{ "type": "Feature", "properties": { "id": "KD-03", "name": "Long chute", "kind": "landslide", "priority": 1, "split": 0, "description": "The longest open-slope chute on the north wall of the valley, ending on the debris fan above the corridor." }, "geometry": { "type": "Polygon", "coordinates": [ [ [ 98.132993892971143, 13.889360361043956 ], [ 98.133897158838181, 13.888437458339242 ], [ 98.133910241658256, 13.888422705099801 ], [ 98.133921781261108, 13.888406770142904 ], [ 98.133931666514187, 13.888389806931123 ], [ 98.133939802217313, 13.888371978829676 ], [ 98.133946110019536, 13.888353457533125 ], [ 98.133950529173646, 13.888334421411836 ], [ 98.133953017121215, 13.888315053794196 ], [ 98.133953549902387, 13.888295541201041 ], [ 98.133952122386688, 13.88827607154934 ], [ 98.133948748322354, 13.888256832342487 ], [ 98.13394346020398, 13.888238008864498 ], [ 98.133936308959434, 13.888219782395669 ], [ 98.133927363459506, 13.888202328466724 ], [ 98.133916709854574, 13.888185815168367 ], [ 98.133904450744907, 13.888170401532486 ], [ 98.133890704192581, 13.888156236000603 ], [ 98.133875602584482, 13.888143454994299 ], [ 98.133859291357282, 13.888132181601414 ], [ 98.133841927596904, 13.888122524390658 ], [ 98.133823678525616, 13.888114576366027 ], [ 98.133804719891643, 13.888108414071148 ], [ 98.13378523427663, 13.888104096852135 ], [ 98.133765409337272, 13.88810166628603 ], [ 98.13374543599808, 13.888101145780434 ], [ 98.133725506612763, 13.888102540348056 ], [ 98.133705813111717, 13.88810583655845 ], [ 98.133686545153623, 13.888111002667364 ], [ 98.13366788829903, 13.888117988922442 ], [ 98.13365002222325, 13.888126728042364 ], [ 98.133633118986069, 13.888137135864792 ], [ 98.133617341374645, 13.888149112156913 ], [ 98.133602841335843, 13.888162541580705 ], [ 98.132682841352718, 13.889102541033942 ], [ 98.132667254133452, 13.889120481150684 ], [ 98.132653944724041, 13.88914009406928 ], [ 98.131773944061123, 13.890620093403658 ], [ 98.131764767912529, 13.890637432713181 ], [ 98.131757375648206, 13.890655567191072 ], [ 98.131751838460033, 13.890674322192577 ], [ 98.131748209674569, 13.890693517096929 ], [ 98.131746524239446, 13.890712967046817 ], [ 98.131746798386786, 13.890732484728652 ], [ 98.131749029476936, 13.890751882176522 ], [ 98.131753196023709, 13.89077097258237 ], [ 98.131759257901479, 13.890789572095082 ], [ 98.131767156731456, 13.890807501591071 ], [ 98.131776816443931, 13.89082458839934 ], [ 98.131788144010912, 13.890840667964401 ], [ 98.131801030341919, 13.890855585431041 ], [ 98.131815351334652, 13.890869197135677 ], [ 98.131830969070123, 13.890881371989915 ], [ 98.131847733140958, 13.890891992743017 ], [ 98.131865482099784, 13.890900957111096 ], [ 98.131884045014203, 13.89090817876219 ], [ 98.131903243112816, 13.890913588147656 ], [ 98.131922891507074, 13.890917133172014 ], [ 98.131942800971743, 13.890918779694626 ], [ 98.131962779767306, 13.89091851185851 ], [ 98.131982635486565, 13.890916332243055 ], [ 98.132002176907605, 13.890912261839178 ], [ 98.13202121583538, 13.890906339847156 ], [ 98.132039568914223, 13.890898623299123 ], [ 98.13205705939356, 13.890889186509808 ], [ 98.132073518830239, 13.890878120360833 ], [ 98.132088788710689, 13.890865531425472 ], [ 98.132102721977503, 13.890851540942283 ], [ 98.132115184445695, 13.890836283647502 ], [ 98.132126056094947, 13.890819906477446 ], [ 98.132993892971143, 13.889360361043956 ] ] ] } },
{ "type": "Feature", "properties": { "id": "KD-04", "name": "Twin scar", "kind": "landslide", "priority": 1, "split": 0, "description": "Two scars side by side on the north wall - a narrow upper one and a wide lower one - whose debris merged." }, "geometry": { "type": "Polygon", "coordinates": [ [ [ 98.1332, 13.89055 ], [ 98.1345, 13.8903 ], [ 98.13495, 13.8893 ], [ 98.1349, 13.88835 ], [ 98.13385, 13.88835 ], [ 98.1332, 13.8898 ], [ 98.1332, 13.89055 ] ] ] } },
{ "type": "Feature", "properties": { "id": "KD-05", "name": "Slide onto the old clearing", "kind": "landslide", "priority": 1, "split": 0, "description": "Forest slope that failed onto a clearing already bare in January 2026 (the clearing itself is excluded)." }, "geometry": { "type": "Polygon", "coordinates": [ [ [ 98.134449094939114, 13.891017136649557 ], [ 98.134461061464705, 13.89101163758971 ], [ 98.134472391876642, 13.89100497553564 ], [ 98.134482968139309, 13.890997219889933 ], [ 98.134492680073549, 13.890988451447745 ], [ 98.134792680082015, 13.890688451335734 ], [ 98.134801108364371, 13.890679150834762 ], [ 98.134808562916916, 13.890669088067867 ], [ 98.134814971948273, 13.890658359945078 ], [ 98.134820273736025, 13.890647069784182 ], [ 98.134824417221239, 13.890635326315675 ], [ 98.134827362500005, 13.890623242635646 ], [ 98.13482908120784, 13.890610935116595 ], [ 98.134829556792852, 13.890598522286687 ], [ 98.134828784675094, 13.890586123688289 ], [ 98.134826772290666, 13.890573858726675 ], [ 98.134823539020132, 13.890561845520114 ], [ 98.134819116001836, 13.890550199762311 ], [ 98.134813545832017, 13.890539033608235 ], [ 98.134806882154592, 13.890528454593976 ], [ 98.134799189144502, 13.89051856460115 ], [ 98.134790540889739, 13.890509458875711 ], [ 98.134781020677707, 13.890501225110668 ], [ 98.134770720193259, 13.890493942601585 ], [ 98.134759738635651, 13.890487681482917 ], [ 98.134748181763186, 13.890482502052572 ], [ 98.134736160874752, 13.890478454191211 ], [ 98.134723791737926, 13.890475576881885 ], [ 98.134711193474061, 13.890473897834601 ], [ 98.134698487411157, 13.890473433219473 ], [ 98.13468579591536, 13.890474187510968 ], [ 98.134673241212496, 13.890476153444856 ], [ 98.134660944211021, 13.890479312088134 ], [ 98.13464902333763, 13.890483633021379 ], [ 98.134637593396647, 13.890489074631695 ], [ 98.134626764464571, 13.890495584513467 ], [ 98.13461664082979, 13.890503099973055 ], [ 98.134607319988419, 13.890511548632562 ], [ 98.134326071895089, 13.890792796663801 ], [ 98.133800905350796, 13.891002863247282 ], [ 98.133789389087312, 13.891008128341365 ], [ 98.133778456539261, 13.891014470820181 ], [ 98.133768212992933, 13.89102182960228 ], [ 98.133758757099216, 13.891030133818651 ], [ 98.133750179923496, 13.891039303495237 ], [ 98.133742564068669, 13.891049250323142 ], [ 98.133735982879642, 13.89105987850907 ], [ 98.133730499736913, 13.891071085697874 ], [ 98.133726167446298, 13.891082763958273 ], [ 98.133723027730227, 13.891094800822309 ], [ 98.133721110826087, 13.891107080368457 ], [ 98.133720435194888, 13.891119484338015 ], [ 98.13372100734351, 13.891131893273995 ], [ 98.133722821762078, 13.891144187671562 ], [ 98.133725860976895, 13.891156249128938 ], [ 98.133730095718903, 13.891167961487655 ], [ 98.133735485205335, 13.891179211951247 ], [ 98.133741977532637, 13.89118989217153 ], [ 98.133749510176273, 13.891199899292072 ], [ 98.133758010592814, 13.891209136938743 ], [ 98.133767396918643, 13.891217516147856 ], [ 98.133777578758327, 13.891224956222961 ], [ 98.133788458055093, 13.891231385511967 ], [ 98.133799930035337, 13.891236742097217 ], [ 98.133811884217451, 13.891240974391787 ], [ 98.133824205476031, 13.891244041636295 ], [ 98.133836775150414, 13.891245914291446 ], [ 98.133849472187592, 13.891246574322501 ], [ 98.133862174307964, 13.891246015372989 ], [ 98.133874759182973, 13.891244242825891 ], [ 98.133887105613184, 13.891241273751822 ], [ 98.133899094695551, 13.891237136744618 ], [ 98.134449094939114, 13.891017136649557 ] ] ] } },
{ "type": "Feature", "properties": { "id": "KD-06", "name": "North-east gully", "kind": "landslide", "priority": 1, "split": 0, "description": "Debris flow scoured down a forested gully towards the north end of the village." }, "geometry": { "type": "Polygon", "coordinates": [ [ [ 98.134558112821225, 13.89210251641418 ], [ 98.134572527392564, 13.892096506223783 ], [ 98.134586300001629, 13.892089199263198 ], [ 98.134599308742821, 13.892080660208585 ], [ 98.134611438471879, 13.892070964641725 ], [ 98.134622581824928, 13.892060198381056 ], [ 98.134632640168888, 13.892048456722025 ], [ 98.134964225938873, 13.891622131933287 ], [ 98.135602318524647, 13.891231657262761 ], [ 98.136048065686481, 13.891008783699137 ], [ 98.136516963557582, 13.890961893900771 ], [ 98.136533125150336, 13.890959489992731 ], [ 98.136548967729198, 13.890955550107822 ], [ 98.136564338721215, 13.890950112189344 ], [ 98.136579090095054, 13.890943228607512 ], [ 98.136593079786692, 13.890934965655093 ], [ 98.136606173067591, 13.890925402908961 ], [ 98.136618243842193, 13.890914632463748 ], [ 98.136629175862268, 13.890902758044863 ], [ 98.1366388638465, 13.890889894009625 ], [ 98.136647214494417, 13.890876164245881 ], [ 98.136654147384846, 13.890861700978904 ], [ 98.13665959575043, 13.890846643497994 ], [ 98.136663507120687, 13.890831136815041 ], [ 98.136665843827288, 13.890815330267966 ], [ 98.136666583366747, 13.890799376082521 ], [ 98.136665718617223, 13.890783427906271 ], [ 98.136663257907102, 13.890767639328866 ], [ 98.136659224934618, 13.890752162402912 ], [ 98.136653658539842, 13.890737146179614 ], [ 98.136646612330452, 13.890722735273314 ], [ 98.13663815416551, 13.89070906846881 ], [ 98.136628365501949, 13.890696277384777 ], [ 98.136617340610073, 13.890684485206199 ], [ 98.136605185665644, 13.890673805498039 ], [ 98.136592017727409, 13.890664341111577 ], [ 98.136577963609739, 13.890656183193867 ], [ 98.136563158661332, 13.890649410309965 ], [ 98.136547745461741, 13.890644087686319 ], [ 98.136531872448259, 13.890640266582588 ], [ 98.136515692486384, 13.890637983797999 ], [ 98.136499361397711, 13.890637261316957 ], [ 98.136483036459211, 13.89063810609731 ], [ 98.135983036807048, 13.890688106083223 ], [ 98.135967759387285, 13.890690337134451 ], [ 98.135952759191838, 13.89069394106526 ], [ 98.135938165201495, 13.890698886886868 ], [ 98.135924102904198, 13.890705132072092 ], [ 98.135444103142547, 13.890945131938556 ], [ 98.135431568155184, 13.890952083774785 ], [ 98.134761568425674, 13.891362083550794 ], [ 98.134749190127096, 13.89137044170387 ], [ 98.134737634351438, 13.891379856943781 ], [ 98.134726995384071, 13.891390252450158 ], [ 98.134717360030066, 13.891401543404493 ], [ 98.134396597011033, 13.891813952813953 ], [ 98.133891887575615, 13.891997483464213 ], [ 98.133876864913049, 13.892003782391836 ], [ 98.13386254658009, 13.892011489474108 ], [ 98.133849070469921, 13.892020530487732 ], [ 98.133836566364721, 13.892030818362953 ], [ 98.133825154685766, 13.89204225402205 ], [ 98.133814945333754, 13.892054727333541 ], [ 98.133806036630403, 13.892068118172773 ], [ 98.133798514371492, 13.892082297578796 ], [ 98.133792451000645, 13.892097128996312 ], [ 98.133787904911685, 13.892112469590796 ], [ 98.133784919886196, 13.892128171624028 ], [ 98.133783524671912, 13.892144083876927 ], [ 98.133783732705808, 13.892160053105837 ], [ 98.13378554198475, 13.892175925518371 ], [ 98.133788935084709, 13.892191548254504 ], [ 98.133793879328593, 13.892206770858703 ], [ 98.1338003271009, 13.892221446728891 ], [ 98.133808216306321, 13.892235434528317 ], [ 98.133817470967657, 13.892248599546697 ], [ 98.13382800195761, 13.892260814997572 ], [ 98.133839707857064, 13.89227196323932 ], [ 98.133852475931832, 13.89228193690812 ], [ 98.133866183218302, 13.892290639951932 ], [ 98.13388069770771, 13.892297988555537 ], [ 98.133895879617413, 13.892303911947726 ], [ 98.133911582737085, 13.892308353082864 ], [ 98.133927655836828, 13.8923112691903 ], [ 98.133943944123629, 13.89231263218625 ], [ 98.133960290732063, 13.892312428944267 ], [ 98.133976538235004, 13.892310661421671 ], [ 98.133992530159816, 13.892307346640687 ], [ 98.134008112495181, 13.892302516524515 ], [ 98.134558112821225, 13.89210251641418 ] ] ] } },
{ "type": "Feature", "properties": { "id": "KD-07", "name": "North tip slide", "kind": "landslide", "priority": 1, "split": 0, "description": "Open-slope slide at the northern tip of the survey, high on the ridge." }, "geometry": { "type": "Polygon", "coordinates": [ [ [ 98.13055, 13.8954 ], [ 98.1319, 13.8954 ], [ 98.13185, 13.8935 ], [ 98.1306, 13.8934 ], [ 98.13055, 13.8954 ] ] ] } },
{ "type": "Feature", "properties": { "id": "KD-08", "name": "North gully track", "kind": "landslide", "priority": 1, "split": 0, "description": "Narrow scour track in a forested gully on the upper slope." }, "geometry": { "type": "Polygon", "coordinates": [ [ [ 98.131505344299526, 13.893110141712812 ], [ 98.132024615803886, 13.893359791525452 ], [ 98.132037121282636, 13.893365119447315 ], [ 98.132050075639555, 13.893369300365414 ], [ 98.132063368907396, 13.893372298788654 ], [ 98.132076888241997, 13.893374089263945 ], [ 98.132090518880091, 13.893374656592234 ], [ 98.132104145113559, 13.893373995957571 ], [ 98.132744145509875, 13.893313995944078 ], [ 98.13275852295348, 13.893311948481134 ], [ 98.132772625786401, 13.893308534380758 ], [ 98.1327863182306, 13.893303786512915 ], [ 98.132799468459226, 13.893297750588701 ], [ 98.132811949865697, 13.893290484720216 ], [ 98.133381950053661, 13.892920484542151 ], [ 98.133393644101474, 13.892912057322093 ], [ 98.133404436304133, 13.892902550928341 ], [ 98.133414222726742, 13.892892056912791 ], [ 98.133422909120753, 13.892880676338669 ], [ 98.133430411831483, 13.892868518807253 ], [ 98.133436658603827, 13.892855701402333 ], [ 98.133441589278135, 13.892842347562629 ], [ 98.133445156369476, 13.892828585893007 ], [ 98.13344732552504, 13.892814548925946 ], [ 98.133448075854929, 13.89280037184516 ], [ 98.133447400133306, 13.892786191183717 ], [ 98.13344530486799, 13.89277214350914 ], [ 98.133441810237784, 13.892758364108193 ], [ 98.13343694989814, 13.892744985683997 ], [ 98.133430770656972, 13.892732137078021 ], [ 98.133423332023952, 13.892719942029284 ], [ 98.133414705637321, 13.892708517982662 ], [ 98.133404974573963, 13.89269797495786 ], [ 98.133394232549406, 13.892688414489845 ], [ 98.133382583015205, 13.892679928651027 ], [ 98.133370138162661, 13.892672599164552 ], [ 98.133357017842442, 13.892666496617259 ], [ 98.133343348410207, 13.892661679779909 ], [ 98.1333292615099, 13.892658195041193 ], [ 98.133314892805842, 13.892656075960975 ], [ 98.133300380676246, 13.892655342947098 ], [ 98.133285864880648, 13.892656003058867 ], [ 98.133271485213783, 13.892658049939039 ], [ 98.133257380159463, 13.892661463875056 ], [ 98.133243685556863, 13.8926662119889 ], [ 98.133230533292249, 13.892672248553698 ], [ 98.133218050028944, 13.892679515434125 ], [ 98.132678938605849, 13.893029464967784 ], [ 98.13211768254142, 13.893082082750366 ], [ 98.131635384322337, 13.892850208600857 ], [ 98.131633923037541, 13.892849515757836 ], [ 98.130863923345174, 13.892489515975029 ], [ 98.1308505236141, 13.8924840233636 ], [ 98.130836637313905, 13.892479840280856 ], [ 98.130822398177031, 13.892477007012088 ], [ 98.130807943333963, 13.892475550843155 ], [ 98.130793411992471, 13.892475485797725 ], [ 98.130778944097031, 13.89247681250221 ], [ 98.130764678981166, 13.892479518179716 ], [ 98.130750754025485, 13.892483576773129 ], [ 98.130737303334683, 13.892488949196029 ], [ 98.130724456446075, 13.892495583709131 ], [ 98.130712337082073, 13.892503416418529 ], [ 98.130701061958646, 13.892512371891064 ], [ 98.130690739661333, 13.892522363880762 ], [ 98.13068146959948, 13.892533296159417 ], [ 98.130673341048904, 13.892545063443341 ], [ 98.130666432292045, 13.892557552407272 ], [ 98.130660809864153, 13.892570642775777 ], [ 98.130656527912436, 13.892584208481546 ], [ 98.130653627674661, 13.892598118879508 ], [ 98.130652137081924, 13.892612240004981 ], [ 98.130652070489674, 13.89262643586385 ], [ 98.130653428539546, 13.892640569742253 ], [ 98.130656198152991, 13.892654505523202 ], [ 98.130660352657358, 13.892668108997476 ], [ 98.130665852042767, 13.892681249156128 ], [ 98.130672643347282, 13.892693799452175 ], [ 98.130680661167119, 13.892705639019297 ], [ 98.130689828286393, 13.892716653835897 ], [ 98.130700056420793, 13.892726737823144 ], [ 98.130711247067836, 13.892735793866613 ], [ 98.130723292455414, 13.892743734751516 ], [ 98.130736076579794, 13.892750484002676 ], [ 98.131505344299526, 13.893110141712812 ] ] ] } },
{ "type": "Feature", "properties": { "id": "KD-09", "name": "South gully track", "kind": "landslide", "priority": 1, "split": 0, "description": "Debris track along the stream on the south side of the valley, ending above the school." }, "geometry": { "type": "Polygon", "coordinates": [ [ [ 98.132169974173223, 13.885573476052269 ], [ 98.133230797596568, 13.885404934025264 ], [ 98.133234057787192, 13.885404374190333 ], [ 98.133884058129311, 13.885284374147052 ], [ 98.133896420786144, 13.885281471509895 ], [ 98.13390843269039, 13.885277399035084 ], [ 98.133919978160705, 13.885272195942829 ], [ 98.133930946007752, 13.885265912341817 ], [ 98.133941230605046, 13.885258608746643 ], [ 98.133950732906243, 13.885250355494998 ], [ 98.133959361398936, 13.88524123207031 ], [ 98.13396703298605, 13.885231326336234 ], [ 98.133973673786002, 13.885220733690504 ], [ 98.133979219844392, 13.885209556146181 ], [ 98.13398361774972, 13.885197901349201 ], [ 98.133986825147929, 13.885185881541705 ], [ 98.133988811150175, 13.885173612481072 ], [ 98.13398955663034, 13.885161212325094 ], [ 98.13398905440927, 13.885148800494079 ], [ 98.1339873093238, 13.885136496520749 ], [ 98.133984338180241, 13.885124418899073 ], [ 98.133980169592562, 13.885112683943126 ], [ 98.133974843706667, 13.885101404666896 ], [ 98.133968411813882, 13.885090689695906 ], [ 98.133960935856962, 13.885080642221116 ], [ 98.133952487833554, 13.885071359005114 ], [ 98.133943149102763, 13.885062929450246 ], [ 98.133933009601662, 13.885055434737641 ], [ 98.133922166979147, 13.885048947045384 ], [ 98.133910725655525, 13.885043528853403 ], [ 98.13389879581689, 13.885039232341775 ], [ 98.133886492353952, 13.885036098888179 ], [ 98.133873933755623, 13.885034158669431 ], [ 98.133861240967903, 13.885033430370861 ], [ 98.133848536229038, 13.885033921006354 ], [ 98.133835941892443, 13.885035625850822 ], [ 98.133187568667779, 13.885155325545242 ], [ 98.132119202990992, 13.885325065916254 ], [ 98.132101155859047, 13.885329247214591 ], [ 98.130961156413292, 13.885679247067891 ], [ 98.130949228248568, 13.88568354807281 ], [ 98.130937789042846, 13.885688970572902 ], [ 98.130926948961857, 13.885695462346591 ], [ 98.130916812401367, 13.885702960874628 ], [ 98.130907476981946, 13.885711393942175 ], [ 98.130899032608752, 13.885720680334282 ], [ 98.130891560605733, 13.885730730618008 ], [ 98.130885132932391, 13.885741448003719 ], [ 98.130879811490843, 13.885752729277222 ], [ 98.130875647529606, 13.885764465793764 ], [ 98.130872681150038, 13.885776544524351 ], [ 98.130870940920161, 13.885788849144246 ], [ 98.130870443599534, 13.885801261153281 ], [ 98.130871193977839, 13.885813661017039 ], [ 98.130873184828687, 13.885825929318052 ], [ 98.130876396979332, 13.885837947905854 ], [ 98.130880799495159, 13.885849601034845 ], [ 98.130886349977686, 13.885860776478969 ], [ 98.130892994972882, 13.885871366612516 ], [ 98.130900670485914, 13.885881269446635 ], [ 98.130909302597431, 13.885890389611532 ], [ 98.130918808175551, 13.88589863927494 ], [ 98.130929095676308, 13.885905938987992 ], [ 98.130940066025431, 13.88591221845037 ], [ 98.13095161357235, 13.885917417187329 ], [ 98.130963627107761, 13.88592148513211 ], [ 98.130975990934616, 13.885924383108112 ], [ 98.130988585982308, 13.885926083206188 ], [ 98.131001290953463, 13.88592656905343 ], [ 98.131013983492082, 13.885925835970841 ], [ 98.131026541361877, 13.885923891018408 ], [ 98.131038843623472, 13.885920752927108 ], [ 98.132169974173223, 13.885573476052269 ] ] ] } },
{ "type": "Feature", "properties": { "id": "KD-01", "name": "Main valley debris flow", "kind": "landslide", "priority": 5, "split": 0, "description": "The large debris flow of the valley: an amphitheatre-shaped source scar and the scoured stream channel west of it fed one flow that cut a corridor through the middle of Ka Det Nge Htein, where houses and the road stood in January." }, "geometry": { "type": "Polygon", "coordinates": [ [ [ 98.1276, 13.8896 ], [ 98.1289, 13.8893 ], [ 98.1291, 13.89075 ], [ 98.13005, 13.89085 ], [ 98.13045, 13.89 ], [ 98.1309, 13.889 ], [ 98.1318, 13.8883 ], [ 98.133, 13.8885 ], [ 98.134, 13.88825 ], [ 98.1346, 13.8879 ], [ 98.135, 13.8875 ], [ 98.1362, 13.8874 ], [ 98.1368, 13.8873 ], [ 98.1368, 13.8864 ], [ 98.1364, 13.8858 ], [ 98.135, 13.8858 ], [ 98.1349, 13.8865 ], [ 98.1345, 13.88662 ], [ 98.13415, 13.88655 ], [ 98.1338, 13.8866 ], [ 98.1325, 13.8866 ], [ 98.131, 13.8868 ], [ 98.13, 13.8871 ], [ 98.129, 13.887 ], [ 98.128, 13.8872 ], [ 98.1276, 13.8876 ], [ 98.1276, 13.8896 ] ] ] } },
{ "type": "Feature", "properties": { "id": "KD-OW", "name": "Fields under sediment", "kind": "outwash", "priority": 9, "split": 0, "description": "Paddy fields beyond the corridor mouth under fresh sediment or muddy water, with flow streaks fanning out from it." }, "geometry": { "type": "Polygon", "coordinates": [ [ [ 98.1366, 13.888 ], [ 98.1412, 13.8885 ], [ 98.1418, 13.886 ], [ 98.14, 13.884 ], [ 98.1385, 13.8815 ], [ 98.1352, 13.8815 ], [ 98.1355, 13.8835 ], [ 98.1362, 13.885 ], [ 98.1365, 13.8864 ], [ 98.1366, 13.888 ] ] ] } },
{ "type": "Feature", "properties": { "id": "KX-1", "name": "Clearing bare in Jan 2026", "kind": "exclude", "priority": 0, "split": 0, "description": "Clearing and track visible on the Esri Vivid image of 10 Jan 2026." }, "geometry": { "type": "Polygon", "coordinates": [ [ [ 98.1344, 13.8898 ], [ 98.13495, 13.8898 ], [ 98.1351, 13.8905 ], [ 98.1353, 13.8909 ], [ 98.1349, 13.8909 ], [ 98.1345, 13.8905 ], [ 98.1344, 13.8898 ] ] ] } }
]
}
