{
"type": "FeatureCollection",
"name": "reach_zones",
"crs": { "type": "name", "properties": { "name": "urn:ogc:def:crs:OGC:1.3:CRS84" } },
"features": [
{ "type": "Feature", "properties": { "zone": "A", "alpha_deg": 14.0, "label": "Within reach of an open-slope debris flow (alpha 14.0 deg)" }, "geometry": { "type": "MultiPolygon", "coordinates": [ [ [ [ 98.094955311672464, 13.881444243617464 ], [ 98.094677686784152, 13.881443215503991 ], [ 98.094679791780607, 13.880900758518182 ], [ 98.094402167560204, 13.880899730131224 ], [ 98.094404273111508, 13.880357273162815 ], [ 98.094681896686652, 13.880358301508029 ], [ 98.094682949105746, 13.88008707299382 ], [ 98.094405325853245, 13.880086044669479 ], [ 98.094406378572344, 13.879814816170063 ], [ 98.094128755665082, 13.879813787551402 ], [ 98.094121383897885, 13.881712386773382 ], [ 98.09439900906365, 13.881713415538192 ], [ 98.094396903286196, 13.882255872445738 ], [ 98.094952154976227, 13.882257929113129 ], [ 98.094951102698928, 13.882529157599512 ], [ 98.095228728900537, 13.882530185481199 ], [ 98.09523188469656, 13.881716499941213 ], [ 98.09495425946298, 13.881715472122107 ], [ 98.094955311672464, 13.881444243617464 ] ] ], [ [ [ 98.073425088600104, 13.919878312365849 ], [ 98.073427249211548, 13.9193358603208 ], [ 98.073704917600466, 13.919336915381034 ], [ 98.073705997547847, 13.919065689327992 ], [ 98.074261333747899, 13.919067798457416 ], [ 98.074264571509559, 13.918254120133566 ], [ 98.074542238673487, 13.918255174160096 ], [ 98.074554105125983, 13.915271686267893 ], [ 98.074276441521135, 13.915270632476096 ], [ 98.074279678311285, 13.914456953895883 ], [ 98.074002015700088, 13.914455899852104 ], [ 98.074003094907368, 13.914184673667835 ], [ 98.073725432642775, 13.914183619329405 ], [ 98.073726512150401, 13.913912393160388 ], [ 98.073448850232452, 13.913911338527328 ], [ 98.073449930040411, 13.913640112373567 ], [ 98.073172268469079, 13.913639057445881 ], [ 98.073170108183064, 13.914181509704573 ], [ 98.073447770401344, 13.914182564674984 ], [ 98.07344561066968, 13.914725016951996 ], [ 98.073723273558102, 13.914726071649131 ], [ 98.073710317105892, 13.917980785054782 ], [ 98.073432650334965, 13.91797973010134 ], [ 98.073429409730366, 13.918793408251332 ], [ 98.073151742011817, 13.918792352917718 ], [ 98.073150661440366, 13.919063578934139 ], [ 98.07287299342137, 13.919062523263051 ], [ 98.07287191250316, 13.919333749251994 ], [ 98.072594244183705, 13.919332693243417 ], [ 98.07259402548523, 13.919387552330255 ], [ 98.072603134456969, 13.91940534986631 ], [ 98.072617939153602, 13.919434275978155 ], [ 98.072632743850917, 13.919463202091329 ], [ 98.072647548547906, 13.91949212820386 ], [ 98.072662353244496, 13.919521054315654 ], [ 98.072677157941783, 13.919549980428766 ], [ 98.072691962638416, 13.91957890654065 ], [ 98.072706767335717, 13.919607832653796 ], [ 98.072721572032663, 13.919636758766238 ], [ 98.072736376729239, 13.919665684878002 ], [ 98.072745048580245, 13.919682628348827 ], [ 98.072780790557005, 13.919766926058324 ], [ 98.07279559536255, 13.919795852382949 ], [ 98.072810400059126, 13.919824778494714 ], [ 98.072821611572508, 13.919846684077015 ], [ 98.07292883706171, 13.920099576345761 ], [ 98.072943641867241, 13.920128502670391 ], [ 98.07295844656386, 13.920157428782254 ], [ 98.07297325126116, 13.920186354895408 ], [ 98.072988055958106, 13.920215281007911 ], [ 98.073002860654711, 13.920244207119714 ], [ 98.073017665351983, 13.92027313323284 ], [ 98.073032470048872, 13.920302059345207 ], [ 98.073059092236136, 13.920346875402743 ], [ 98.073076884031195, 13.920388837470677 ], [ 98.073091688836726, 13.920417763795305 ], [ 98.073106493533572, 13.920446689907612 ], [ 98.073121298230234, 13.920475616019534 ], [ 98.073136102927478, 13.920504542132608 ], [ 98.073144852103368, 13.920521636684478 ], [ 98.073147419587073, 13.919877256946771 ], [ 98.073425088600104, 13.919878312365849 ] ] ], [ [ [ 98.094165597875147, 13.870320786969289 ], [ 98.094443209495125, 13.870321814857226 ], [ 98.094441105617165, 13.870864272275842 ], [ 98.094718717904513, 13.870865299890555 ], [ 98.094717666253985, 13.871136528611613 ], [ 98.094440053644249, 13.871135500976033 ], [ 98.094420061862962, 13.876288845123858 ], [ 98.094697680599438, 13.876289873155992 ], [ 98.094693472053365, 13.877374787517068 ], [ 98.094971092102611, 13.877375815317558 ], [ 98.094968988339048, 13.877918272503321 ], [ 98.095246609056019, 13.877919300030396 ], [ 98.095245557462917, 13.878190528635008 ], [ 98.094967936423387, 13.878189501087073 ], [ 98.094965832524238, 13.878731958236324 ], [ 98.094688210862145, 13.878730930331511 ], [ 98.094685053876134, 13.879544615947156 ], [ 98.09524029915849, 13.879546671566796 ], [ 98.095241350864569, 13.879275442992606 ], [ 98.09551897321704, 13.879276470308804 ], [ 98.095517921833576, 13.879547698903842 ], [ 98.095795544531242, 13.879548725925707 ], [ 98.095790288888253, 13.880904868913857 ], [ 98.096067913221617, 13.880905895724741 ], [ 98.096066862347939, 13.881177124324953 ], [ 98.096344487026528, 13.881178150841453 ], [ 98.096343436452926, 13.881449379456411 ], [ 98.09606581145168, 13.88144835291908 ], [ 98.09606476053284, 13.881719581507124 ], [ 98.096342385856744, 13.88172060806529 ], [ 98.096341335238009, 13.881991836668078 ], [ 98.096618960907151, 13.88199286293184 ], [ 98.096616860247323, 13.882535320160816 ], [ 98.097172112944008, 13.882537371825887 ], [ 98.097166864126663, 13.883893515 ], [ 98.096611608202949, 13.883891463126744 ], [ 98.096609507227257, 13.884433920270508 ], [ 98.096331878653785, 13.884432893819294 ], [ 98.096330827809368, 13.884704122361221 ], [ 98.095497941256156, 13.884701041053269 ], [ 98.095498993068801, 13.884429812573869 ], [ 98.09522136458564, 13.884428784861463 ], [ 98.095222416698405, 13.884157556396827 ], [ 98.095500044858838, 13.884158584088381 ], [ 98.095504251793116, 13.883073670085558 ], [ 98.095226624923541, 13.883072642477421 ], [ 98.095227676923329, 13.882801413982353 ], [ 98.094950050399049, 13.882800386079808 ], [ 98.094945840973466, 13.88388529994012 ], [ 98.094668213180952, 13.88388427163885 ], [ 98.094662949276753, 13.885240413722954 ], [ 98.095495837563135, 13.885243497993809 ], [ 98.095494785682746, 13.885514726454943 ], [ 98.096327675140699, 13.885517807950464 ], [ 98.096326624206014, 13.885789036468038 ], [ 98.096604254393242, 13.885790063023393 ], [ 98.096600051719918, 13.88687497711612 ], [ 98.096877683220853, 13.886876003439431 ], [ 98.096876632818905, 13.887147231968214 ], [ 98.097709528425383, 13.887150309108433 ], [ 98.097708478969324, 13.887421537693559 ], [ 98.097986111206041, 13.887422562797036 ], [ 98.097981914447715, 13.888507477159839 ], [ 98.098537181571317, 13.888509526586978 ], [ 98.098535084348356, 13.889051983815001 ], [ 98.098257450129609, 13.88905095921756 ], [ 98.098254303157731, 13.889864644951574 ], [ 98.09797666799291, 13.889863619976349 ], [ 98.097974569253282, 13.890406077060334 ], [ 98.09769693346523, 13.890405051728091 ], [ 98.097693784218137, 13.891218737246001 ], [ 98.097416147483926, 13.891217711535905 ], [ 98.097414047227346, 13.891760168475795 ], [ 98.097136409869847, 13.89175914240862 ], [ 98.097135359384822, 13.892030370848614 ], [ 98.096857721726948, 13.892029344445151 ], [ 98.096854569167746, 13.892843029666153 ], [ 98.097132207794431, 13.892844056132065 ], [ 98.097131157219209, 13.893115284547703 ], [ 98.097408796191388, 13.893116310718931 ], [ 98.097406695619199, 13.893658767573546 ], [ 98.097684335259856, 13.893659793470878 ], [ 98.097685385234271, 13.893388565025811 ], [ 98.098240663937261, 13.893390615832329 ], [ 98.098239614608801, 13.893661844318984 ], [ 98.098517254317059, 13.893662869269761 ], [ 98.098515156238506, 13.894205326266382 ], [ 98.098792796615243, 13.894206350943197 ], [ 98.098793845342783, 13.893935122427157 ], [ 98.099071485419032, 13.893936146767672 ], [ 98.099069388587395, 13.894478603835207 ], [ 98.098514107165457, 13.894476554755551 ], [ 98.098513058069884, 13.894747783238635 ], [ 98.098235417069688, 13.894746758204716 ], [ 98.098233318164986, 13.895289215111031 ], [ 98.097955676541304, 13.89528818971999 ], [ 98.097950427270234, 13.896644331775228 ], [ 98.098228070509066, 13.896645357270229 ], [ 98.098225971289025, 13.89718781409127 ], [ 98.097948327404083, 13.897186788554682 ], [ 98.0979472774372, 13.897458016935271 ], [ 98.098224921645198, 13.897459042492649 ], [ 98.09822387197886, 13.897730270887937 ], [ 98.097946227447807, 13.897729245309764 ], [ 98.097942027264835, 13.898814158746827 ], [ 98.098219673088252, 13.89881518440817 ], [ 98.098218623309293, 13.899086412772995 ], [ 98.098496269478346, 13.899087438139484 ], [ 98.098495219999961, 13.899358666518998 ], [ 98.098772866514651, 13.899359691590618 ], [ 98.098773915669923, 13.899088463190321 ], [ 98.099329208120608, 13.899090512345067 ], [ 98.099328159611559, 13.899361740786908 ], [ 98.099883452798466, 13.899363788720583 ], [ 98.099881357005387, 13.899906245669015 ], [ 98.099603709754447, 13.899905221818493 ], [ 98.099602661501038, 13.900176450262817 ], [ 98.10015795667168, 13.900178497689691 ], [ 98.10015690904207, 13.900449726169422 ], [ 98.099879261122368, 13.900448702593073 ], [ 98.099878213147136, 13.900719931045961 ], [ 98.100155861389979, 13.900720954643059 ], [ 98.10015481371542, 13.900992183110604 ], [ 98.1004324623039, 13.900993206412759 ], [ 98.100430367533647, 13.90153566337105 ], [ 98.10015271829883, 13.901534640027412 ], [ 98.100151670556826, 13.901805868476673 ], [ 98.099874021021321, 13.901804844796585 ], [ 98.099875069086494, 13.90153361636807 ], [ 98.099597419896639, 13.901532592393025 ], [ 98.099598468262499, 13.901261363979167 ], [ 98.098765521797432, 13.901258290222112 ], [ 98.098764472462065, 13.901529518573666 ], [ 98.098486823362222, 13.901528493335807 ], [ 98.098484723977577, 13.902070949979075 ], [ 98.098207074253907, 13.902069924383939 ], [ 98.098203924038444, 13.902883609240778 ], [ 98.098481574731721, 13.902884634898271 ], [ 98.09848052493804, 13.903155863192481 ], [ 98.097647571956216, 13.903152785210414 ], [ 98.097647024732566, 13.903294034983283 ], [ 98.097753826740586, 13.903299160697861 ], [ 98.098145441796873, 13.903299161208206 ], [ 98.098148244539544, 13.903303427507135 ], [ 98.098284341157026, 13.90347268781648 ], [ 98.098436301597687, 13.903628535110162 ], [ 98.098602747942678, 13.903769556190667 ], [ 98.098755394050045, 13.903875829991902 ], [ 98.098756076968598, 13.903699345166714 ], [ 98.099033728676545, 13.903700370255061 ], [ 98.099032679461786, 13.903971598572543 ], [ 98.098918064964181, 13.903971175446742 ], [ 98.098972943534605, 13.904002150711548 ], [ 98.099173335933258, 13.904091615011176 ], [ 98.099381530979869, 13.904162053943027 ], [ 98.099595640789673, 13.904212828771042 ], [ 98.099813723838352, 13.904243479070592 ], [ 98.100033802568817, 13.904253726904056 ], [ 98.100048607727487, 13.904253726912756 ], [ 98.1002753985059, 13.904242843199345 ], [ 98.100500005127813, 13.904210296622839 ], [ 98.100584414360483, 13.904189642270842 ], [ 98.100868601544462, 13.904180069108342 ], [ 98.100877785582597, 13.904179741888697 ], [ 98.101262719717525, 13.90416527886986 ], [ 98.101351253157432, 13.904160291003008 ], [ 98.101510046634985, 13.904148358317785 ], [ 98.101551228757799, 13.904146442594746 ], [ 98.101677157939861, 13.904152486140747 ], [ 98.101958455954573, 13.904152486305719 ], [ 98.102058960802466, 13.904150352949118 ], [ 98.102399478088884, 13.904135889962159 ], [ 98.102739994801311, 13.904121426999509 ], [ 98.102895008152927, 13.904109735348978 ], [ 98.103028254574824, 13.904095272182051 ], [ 98.103153126626594, 13.904078342255289 ], [ 98.10319539732906, 13.904071459867582 ], [ 98.103267000595494, 13.904062716196186 ], [ 98.103433785748649, 13.904036275836662 ], [ 98.10347122511638, 13.904028960912679 ], [ 98.103523252732188, 13.90402048992441 ], [ 98.103612082783854, 13.904006026875457 ], [ 98.103654352626407, 13.903999144627745 ], [ 98.103725955915891, 13.903990400953512 ], [ 98.103766185007018, 13.903985137991091 ], [ 98.103869821104837, 13.903970674806907 ], [ 98.103922987105591, 13.903962637897905 ], [ 98.104011818039751, 13.903948174705251 ], [ 98.104122241753757, 13.903925738454452 ], [ 98.104146225057377, 13.903922809788922 ], [ 98.104205494335972, 13.903917546144889 ], [ 98.104569855178696, 13.903905272302458 ], [ 98.104586437740096, 13.903904655523755 ], [ 98.104704480830364, 13.903899850776657 ], [ 98.104845430645028, 13.903906615227603 ], [ 98.104978871803638, 13.903906615374339 ], [ 98.105003571427559, 13.903910194499192 ], [ 98.105097835330483, 13.903914718404321 ], [ 98.105166426702837, 13.903924657710803 ], [ 98.105216417847927, 13.903927056882985 ], [ 98.105299671949936, 13.903939120905202 ], [ 98.105305390311059, 13.903939395340629 ], [ 98.105403307302794, 13.903953584095266 ], [ 98.105630098091808, 13.903964468102068 ], [ 98.10567451356782, 13.903964468128002 ], [ 98.105841879295468, 13.903956436228956 ], [ 98.105874527042459, 13.903964425124409 ], [ 98.105875364207151, 13.903964546437686 ], [ 98.106052196338538, 13.904007816330092 ], [ 98.106276803051557, 13.904040363226915 ], [ 98.106503593976242, 13.904051247235964 ], [ 98.10654800945224, 13.904051247261879 ], [ 98.106774800405262, 13.904040363516119 ], [ 98.106999407198686, 13.904007816872378 ], [ 98.107219666684799, 13.903953920777758 ], [ 98.107433457586836, 13.903879194292022 ], [ 98.107638720930339, 13.903784357088313 ], [ 98.107833479874103, 13.90367032252172 ], [ 98.107919072784853, 13.903608310403916 ], [ 98.107919634026274, 13.903461777378208 ], [ 98.10810141099374, 13.903462441696975 ], [ 98.108184101127662, 13.903389228567574 ], [ 98.108336586731369, 13.903224876325973 ], [ 98.108471847043802, 13.903046714939849 ], [ 98.108485887515371, 13.903023831290595 ], [ 98.108501472672344, 13.903003302325718 ], [ 98.108515503814743, 13.902980433287503 ], [ 98.108531082267348, 13.90295991315311 ], [ 98.108544778801146, 13.902937589484932 ], [ 98.108605909265592, 13.902937589452158 ], [ 98.108832699070589, 13.902926705454396 ], [ 98.10905730470401, 13.902894158580272 ], [ 98.109277563032578, 13.902840262278641 ], [ 98.109491352793853, 13.902765535610481 ], [ 98.109696615027502, 13.902670698249615 ], [ 98.109891372905992, 13.902556663551266 ], [ 98.110073750774262, 13.902424529755125 ], [ 98.110241992214469, 13.902275569407783 ], [ 98.110394476962156, 13.902111217106329 ], [ 98.110529736510586, 13.901933055681305 ], [ 98.110646468253179, 13.901742800951984 ], [ 98.110743548027756, 13.901542285201018 ], [ 98.110820040941718, 13.901333439527432 ], [ 98.110820366376487, 13.901332170312624 ], [ 98.110894063977526, 13.901130956561387 ], [ 98.110916579593166, 13.901043144285875 ], [ 98.11095328228987, 13.900942936175639 ], [ 98.110955820142308, 13.90093303839158 ], [ 98.110968086886501, 13.900899546906617 ], [ 98.11102325630705, 13.900684382454887 ], [ 98.111050265948023, 13.900506496703454 ], [ 98.111052864532539, 13.900496362029326 ], [ 98.111086179189556, 13.900276951120986 ], [ 98.111097318353671, 13.900055406820009 ], [ 98.111097318066342, 13.900026480589496 ], [ 98.111079980522391, 13.899750321508661 ], [ 98.11106443931692, 13.899668625854144 ], [ 98.111062209945032, 13.899611931529591 ], [ 98.111130930677504, 13.899424301902947 ], [ 98.111186098343737, 13.899209140006974 ], [ 98.111219411965621, 13.898989731821304 ], [ 98.111230550782523, 13.898768190324759 ], [ 98.111230550638879, 13.898753727209501 ], [ 98.111219407438256, 13.898532185870561 ], [ 98.111186089592593, 13.898312778249402 ], [ 98.111130918024557, 13.898097617302717 ], [ 98.111054424110804, 13.897888775084647 ], [ 98.110957344562351, 13.897688262792714 ], [ 98.110883404439036, 13.897567752397258 ], [ 98.110865725973696, 13.897451335634798 ], [ 98.110864075575122, 13.897418523819113 ], [ 98.110860411544124, 13.897394395330865 ], [ 98.110860411542149, 13.897394195181047 ], [ 98.110849268124255, 13.897172651030834 ], [ 98.11081594963207, 13.896953240679725 ], [ 98.110760777002639, 13.896738077164391 ], [ 98.110751835951859, 13.896713666688891 ], [ 98.110751315198144, 13.896710501007345 ], [ 98.110694160256642, 13.896497773373435 ], [ 98.11061796178349, 13.896296367952713 ], [ 98.110594954244348, 13.896221686553563 ], [ 98.110512282114328, 13.896023543595678 ], [ 98.110422529033428, 13.89585583911942 ], [ 98.110420380372375, 13.895851411036681 ], [ 98.110419909284758, 13.895842045208182 ], [ 98.110416245175657, 13.895817916038032 ], [ 98.110416244886338, 13.895788790335393 ], [ 98.11040510154595, 13.895567246182305 ], [ 98.110371783286681, 13.895347835828399 ], [ 98.110368164565159, 13.895333723365379 ], [ 98.110171929199623, 13.895333008408741 ], [ 98.11017503585532, 13.894519320376174 ], [ 98.109897394238359, 13.894518308615677 ], [ 98.109899465876993, 13.893975849937888 ], [ 98.110340498660833, 13.893977456907102 ], [ 98.110345865395999, 13.893942110484209 ], [ 98.110353858982094, 13.893783123546482 ], [ 98.110356962913727, 13.893771017625671 ], [ 98.110367774291021, 13.893699811676543 ], [ 98.110371767093113, 13.893684238986864 ], [ 98.110405080773745, 13.893464827993109 ], [ 98.110416219613015, 13.893243283605582 ], [ 98.110416218895097, 13.893170968029274 ], [ 98.110411490379278, 13.893076957904427 ], [ 98.110416217028529, 13.892982947673181 ], [ 98.110416216741356, 13.892954021442657 ], [ 98.110411124498356, 13.892852779757852 ], [ 98.110416214731245, 13.892751537975544 ], [ 98.110416214585797, 13.892736877007442 ], [ 98.110419878368404, 13.89271274645014 ], [ 98.110423693560691, 13.892636864536312 ], [ 98.110432560393463, 13.892618549608729 ], [ 98.110509050491686, 13.892409703657467 ], [ 98.110521732840766, 13.89236023984666 ], [ 98.110583073547886, 13.892192757081814 ], [ 98.110638240900798, 13.891977592497993 ], [ 98.110671554340371, 13.891758181459336 ], [ 98.11068269309952, 13.891536637026407 ], [ 98.110682692238143, 13.89144985833485 ], [ 98.110671549104794, 13.891228314093896 ], [ 98.110638231464876, 13.891008903652887 ], [ 98.110604587624039, 13.890877695244557 ], [ 98.110593182327349, 13.890803327176529 ], [ 98.110574973381063, 13.890732716861187 ], [ 98.110564202969613, 13.890661789099445 ], [ 98.110525295859532, 13.890510054098668 ], [ 98.110524053885641, 13.890501875239529 ], [ 98.110523491582342, 13.890490695662201 ], [ 98.110494441741693, 13.890299389840793 ], [ 98.110493879534431, 13.890288212163625 ], [ 98.110465942244886, 13.890104232817007 ], [ 98.110464306545467, 13.890071654701897 ], [ 98.110441101697361, 13.889918566751239 ], [ 98.110443153489371, 13.889905052990308 ], [ 98.110445755320825, 13.889894905183061 ], [ 98.110479068460421, 13.889675494117425 ], [ 98.11049020711863, 13.889453949657335 ], [ 98.110490206688013, 13.88941056031155 ], [ 98.110466949249727, 13.889090904653585 ], [ 98.110452143242938, 13.888989662984784 ], [ 98.110415224187506, 13.888807566098492 ], [ 98.110416175396949, 13.888788646756243 ], [ 98.110416174822817, 13.888730794295189 ], [ 98.110409275110555, 13.88860764082486 ], [ 98.110412019618423, 13.888553053185431 ], [ 98.110197811885016, 13.888552273129742 ], [ 98.110198846903501, 13.888281043639445 ], [ 98.110416170367529, 13.888281835024813 ], [ 98.110416170219196, 13.888266882541012 ], [ 98.110425730791931, 13.888251299752952 ], [ 98.110425972688034, 13.888250981121233 ], [ 98.110476916407109, 13.888167947911878 ], [ 98.110477515789029, 13.888010825095794 ], [ 98.110567502695687, 13.888011152698862 ], [ 98.110654591848558, 13.887831261679109 ], [ 98.110673828096367, 13.887778738626798 ], [ 98.11067765312437, 13.887773700200757 ], [ 98.11079438267798, 13.887583442408266 ], [ 98.110805396138545, 13.887560693578859 ], [ 98.110809198848358, 13.887554495364039 ], [ 98.110906272866018, 13.887353979249085 ], [ 98.110982761245751, 13.887145133182095 ], [ 98.110983076007841, 13.887143905516227 ], [ 98.111056784439057, 13.886942649715751 ], [ 98.111111950555923, 13.886727485013346 ], [ 98.111145263248787, 13.886508073853815 ], [ 98.111145824938447, 13.886496901882664 ], [ 98.111174871297266, 13.886305590362163 ], [ 98.111186009796214, 13.886084045801686 ], [ 98.111186009652698, 13.886069582686432 ], [ 98.111182998979373, 13.88602820330973 ], [ 98.11118600864819, 13.885968340948569 ], [ 98.111186008504689, 13.885953877833312 ], [ 98.111174865635093, 13.885732333459575 ], [ 98.111141548777582, 13.885512922886877 ], [ 98.111086378853457, 13.885297759154041 ], [ 98.11100988723696, 13.88508891439472 ], [ 98.110912810635625, 13.884888399882026 ], [ 98.110796083993478, 13.884698146659515 ], [ 98.110660831485248, 13.884519986944959 ], [ 98.110508355688793, 13.884355636486083 ], [ 98.11044360470855, 13.884298303296934 ], [ 98.110441498385953, 13.884281422702642 ], [ 98.110390761068899, 13.884061074364045 ], [ 98.110317767678794, 13.883846772909166 ], [ 98.110255023095064, 13.883709949957238 ], [ 98.110247728623449, 13.883672803700135 ], [ 98.110185829264182, 13.883466243554714 ], [ 98.110104100058166, 13.883266371774523 ], [ 98.110003282131288, 13.88307500068502 ], [ 98.109884289688907, 13.882893865527498 ], [ 98.109819381549229, 13.882813137308705 ], [ 98.109799113796143, 13.882773259415833 ], [ 98.109686358342742, 13.882595032227291 ], [ 98.109653478601942, 13.882552454481896 ], [ 98.109646209349833, 13.882504583157209 ], [ 98.109591036744902, 13.882289413145706 ], [ 98.109523785321031, 13.882105800672816 ], [ 98.109514810201148, 13.881942483668848 ], [ 98.109546273556148, 13.881735248725352 ], [ 98.109557411840214, 13.881513704181161 ], [ 98.109557409114686, 13.881238904991017 ], [ 98.109540070243, 13.8809627239654 ], [ 98.109488319057618, 13.880690682253153 ], [ 98.109486867825026, 13.880685011599915 ], [ 98.10948286064783, 13.880665439361596 ], [ 98.109458707683174, 13.88056051399893 ], [ 98.109443902129243, 13.880502661674363 ], [ 98.109429096515584, 13.880444809116508 ], [ 98.10941429090218, 13.880386956559583 ], [ 98.109351170400032, 13.880182067902131 ], [ 98.109268502019106, 13.879983928389576 ], [ 98.109167026630885, 13.879794313622259 ], [ 98.109047653637035, 13.879614922802649 ], [ 98.108911452818688, 13.879447363508733 ], [ 98.108873647634255, 13.879408956152593 ], [ 98.108865883301974, 13.879384405743789 ], [ 98.108765329803347, 13.879157767737356 ], [ 98.108750524580159, 13.879128841635458 ], [ 98.108606199750525, 13.878885891010968 ], [ 98.108576589492316, 13.878842501907858 ], [ 98.108441376917341, 13.878664029860047 ], [ 98.108288892830359, 13.878499380240372 ], [ 98.108219096131947, 13.878437482912561 ], [ 98.108131785549702, 13.878299474922317 ], [ 98.108002621832043, 13.878132213498278 ], [ 98.107892964258383, 13.878014664673241 ], [ 98.107889349142027, 13.878000538695776 ], [ 98.107839694971645, 13.877833966676217 ], [ 98.107824889577117, 13.877790577464843 ], [ 98.107822980083526, 13.877786074103783 ], [ 98.107810342485422, 13.877702845406112 ], [ 98.107755174458717, 13.877487681726212 ], [ 98.107678685472507, 13.877278837017975 ], [ 98.107581612208975, 13.877078322553968 ], [ 98.107552620473911, 13.877031067227744 ], [ 98.107577499385172, 13.876963137723273 ], [ 98.107632668518448, 13.876747963015413 ], [ 98.107665983054773, 13.876528541220708 ], [ 98.107677122184484, 13.876306985713164 ], [ 98.107677122041096, 13.876292522597877 ], [ 98.107665979645063, 13.876070978255809 ], [ 98.107632664200267, 13.87585156771426 ], [ 98.10757749661434, 13.875636404011694 ], [ 98.107501008238955, 13.8754275592814 ], [ 98.107482880145184, 13.875390113628166 ], [ 98.107473162537687, 13.87519981346108 ], [ 98.107459393277026, 13.875065313782992 ], [ 98.107449519640866, 13.874959223361328 ], [ 98.107437027956308, 13.874727405266302 ], [ 98.10741696844272, 13.874526536213372 ], [ 98.107416308372805, 13.874522022736908 ], [ 98.107407049871711, 13.874359246811684 ], [ 98.107405487286712, 13.874334270942896 ], [ 98.107390680117845, 13.874117324351518 ], [ 98.107363672799778, 13.873892298490786 ], [ 98.107313742575968, 13.873671044736701 ], [ 98.10724139120596, 13.873455786227147 ], [ 98.107197662342898, 13.873359489628724 ], [ 98.107185463069655, 13.873264156668593 ], [ 98.107147166339587, 13.873049523784248 ], [ 98.107087896329958, 13.872839490360347 ], [ 98.107008203788951, 13.872636007866557 ], [ 98.106908829210084, 13.87244096690109 ], [ 98.106790695950394, 13.872256179625223 ], [ 98.106654901649776, 13.872083362926753 ], [ 98.106502708031414, 13.871924122468798 ], [ 98.106335529177983, 13.871779937772091 ], [ 98.106154918392832, 13.87165214846941 ], [ 98.105999426777743, 13.871563066601976 ], [ 98.10583931841731, 13.871421292036004 ], [ 98.105656963283309, 13.87128916013506 ], [ 98.105462230403802, 13.871175127234313 ], [ 98.105256995136614, 13.871080291504448 ], [ 98.105043233972509, 13.871005566239578 ], [ 98.104823005502027, 13.870951671062695 ], [ 98.104598430591892, 13.870919124996194 ], [ 98.104387318368296, 13.870908992437444 ], [ 98.104332591848788, 13.870889861482921 ], [ 98.104112363429564, 13.870835966393145 ], [ 98.103915693055939, 13.87080746442648 ], [ 98.103880127225224, 13.870791030024233 ], [ 98.103666366391067, 13.870716304792497 ], [ 98.103656225222053, 13.870713823008037 ], [ 98.103621951022873, 13.870701841627037 ], [ 98.103401722879113, 13.870647946500696 ], [ 98.103177148305917, 13.870615400484173 ], [ 98.103165674292583, 13.87061484978287 ], [ 98.103161722641772, 13.870614277098817 ], [ 98.103016537251904, 13.870562135477204 ], [ 98.102791123049329, 13.870505522654987 ], [ 98.102561027528907, 13.870471324215265 ], [ 98.102328579462664, 13.870459886272599 ], [ 98.102224945361257, 13.870459886333357 ], [ 98.10206013253277, 13.870465629370992 ], [ 98.102039294369519, 13.870467083457557 ], [ 98.102031491472985, 13.870465173895385 ], [ 98.101963788696708, 13.870441506707419 ], [ 98.101743560933656, 13.870387611571386 ], [ 98.101518986744992, 13.870355065529756 ], [ 98.101292228843633, 13.870344182006244 ], [ 98.101277423971993, 13.870344182014934 ], [ 98.101218761279156, 13.870346997691993 ], [ 98.101074835973108, 13.870326139544867 ], [ 98.100848078107035, 13.87031525604843 ], [ 98.100774053748893, 13.870315256091901 ], [ 98.100708656914065, 13.870318685379662 ], [ 98.100660295782845, 13.870311676703635 ], [ 98.100569604807646, 13.87030732390358 ], [ 98.10053483641066, 13.870299004171278 ], [ 98.10031495294119, 13.870267828044954 ], [ 98.100093022485794, 13.870257404054875 ], [ 98.100048607870903, 13.870257404080979 ], [ 98.099996407277771, 13.8702610282566 ], [ 98.099981763691616, 13.87025744460299 ], [ 98.099757189730937, 13.87022489857616 ], [ 98.099530432059836, 13.870214015057767 ], [ 98.099515627188197, 13.870214015066473 ], [ 98.099288869543557, 13.87022489885031 ], [ 98.099125212810236, 13.870248616760037 ], [ 98.099061353597818, 13.870239362054107 ], [ 98.099055616167234, 13.870239086682568 ], [ 98.098957718673361, 13.870224899024825 ], [ 98.098730961035017, 13.870214015528147 ], [ 98.0986717415485, 13.870214015563008 ], [ 98.098444983938478, 13.870224899325374 ], [ 98.098220410089297, 13.870257445584254 ], [ 98.098190060487838, 13.870264872928262 ], [ 98.098113832997811, 13.87025382575713 ], [ 98.097887075395619, 13.870242942243687 ], [ 98.097872270523993, 13.870242942252409 ], [ 98.097645512946983, 13.870253826031961 ], [ 98.09742093913232, 13.870286372300816 ], [ 98.097200711787124, 13.870340267625705 ], [ 98.097128833619379, 13.870365394526887 ], [ 98.097102770499632, 13.870366453586422 ], [ 98.09692511204004, 13.870380916659819 ], [ 98.096697780862087, 13.870410568905131 ], [ 98.096566810048813, 13.870440786048476 ], [ 98.096362158708217, 13.870430963563612 ], [ 98.096317744093341, 13.870430963589826 ], [ 98.096090986417721, 13.870441847351993 ], [ 98.096009634416745, 13.87045363726855 ], [ 98.095957343993391, 13.870423018856599 ], [ 98.095934092488548, 13.870412275451313 ], [ 98.095927794424469, 13.870408587375262 ], [ 98.095904505829409, 13.870397826088206 ], [ 98.095898184318528, 13.87039412428174 ], [ 98.095874895674172, 13.870383362971216 ], [ 98.095868574125518, 13.870379661142739 ], [ 98.095663340049981, 13.870284825651954 ], [ 98.095449580128431, 13.87021010058047 ], [ 98.095379936658844, 13.870193057127603 ], [ 98.095345943918986, 13.870181174123427 ], [ 98.095125716659481, 13.870127279175913 ], [ 98.09490114299571, 13.870094733306589 ], [ 98.094674385637347, 13.870083849937753 ], [ 98.094348678461458, 13.870083850130371 ], [ 98.094166483144008, 13.870092594946991 ], [ 98.094165597875147, 13.870320786969289 ] ], [ [ 98.100429320114827, 13.901806891841055 ], [ 98.100428272673525, 13.902078120304967 ], [ 98.100150622792356, 13.902077096919847 ], [ 98.100151670556826, 13.901805868476673 ], [ 98.100429320114827, 13.901806891841055 ] ], [ [ 98.098482624502864, 13.902613406597965 ], [ 98.098483674251469, 13.902342178291567 ], [ 98.099038974412764, 13.902344228576244 ], [ 98.09903792531054, 13.902615456924194 ], [ 98.098482624502864, 13.902613406597965 ] ], [ [ 98.100165289449592, 13.89827989816099 ], [ 98.100164241977311, 13.898551126683364 ], [ 98.099608950684086, 13.898549079505495 ], [ 98.099611046898488, 13.898006622537654 ], [ 98.099888691887699, 13.898007646242897 ], [ 98.099887644114816, 13.89827887475062 ], [ 98.100165289449592, 13.89827989816099 ] ], [ [ 98.098500467166687, 13.898002524560477 ], [ 98.098501516532465, 13.897731296150493 ], [ 98.098779161108581, 13.897732321097436 ], [ 98.098778112065872, 13.898003549528203 ], [ 98.098500467166687, 13.898002524560477 ] ], [ [ 98.106000009187184, 13.897216400981499 ], [ 98.106001049762824, 13.896945171994446 ], [ 98.106278693975113, 13.896946188357967 ], [ 98.106277653722543, 13.897217417365622 ], [ 98.106000009187184, 13.897216400981499 ] ], [ [ 98.099343884884888, 13.895293313519652 ], [ 98.099344933056457, 13.895022084986438 ], [ 98.10017785736359, 13.895025155417299 ], [ 98.100176810161059, 13.895296384012777 ], [ 98.099899168379849, 13.895295360830625 ], [ 98.099898120831796, 13.895566589399264 ], [ 98.099620478750055, 13.895565565880801 ], [ 98.099618382940477, 13.896108022958298 ], [ 98.098785454892081, 13.896104950384942 ], [ 98.098786503777191, 13.895833721911535 ], [ 98.099064146114472, 13.895834746397458 ], [ 98.099066243171151, 13.895292289390831 ], [ 98.099343884884888, 13.895293313519652 ] ], [ [ 98.106839180164272, 13.895592074802614 ], [ 98.106840219636851, 13.895320845717226 ], [ 98.107117861977898, 13.895321861010427 ], [ 98.107119940210112, 13.894779402780207 ], [ 98.10739758192743, 13.894780417716692 ], [ 98.107399659424459, 13.894237959420947 ], [ 98.107122018353138, 13.894236944525622 ], [ 98.107123057391206, 13.893965715389198 ], [ 98.106845416665166, 13.893964700198925 ], [ 98.106846456003893, 13.893693471076997 ], [ 98.106568815623149, 13.893692455591793 ], [ 98.106572974046841, 13.892607539125564 ], [ 98.10629533498026, 13.892606523407233 ], [ 98.106296374853329, 13.892335294296053 ], [ 98.105185820102037, 13.892331228350246 ], [ 98.10518790236469, 13.891788770274545 ], [ 98.105465540373132, 13.891789787192979 ], [ 98.105466581148008, 13.891518558125366 ], [ 98.104911305799305, 13.89151652401428 ], [ 98.104912347197669, 13.891245294981834 ], [ 98.104634709879761, 13.891244277473726 ], [ 98.104635751578684, 13.89097304845583 ], [ 98.104080477655771, 13.890971012534516 ], [ 98.104081519978138, 13.890699783551826 ], [ 98.10324861023031, 13.890696727365928 ], [ 98.103250696745221, 13.890154269506263 ], [ 98.103528332659664, 13.890155288509007 ], [ 98.103530418439234, 13.889612830583646 ], [ 98.103252783170561, 13.889611811622242 ], [ 98.103253826349629, 13.889340582671103 ], [ 98.103531461295447, 13.889341601611839 ], [ 98.103532504129248, 13.889070372633942 ], [ 98.105753581918393, 13.889078512639685 ], [ 98.105752541667457, 13.889349741782704 ], [ 98.106030176814528, 13.889350757884683 ], [ 98.106029136864123, 13.889621987042226 ], [ 98.105473865946578, 13.889619954481626 ], [ 98.105470744024089, 13.890433641794043 ], [ 98.10574838044036, 13.890434658293913 ], [ 98.105746299692797, 13.890977116512984 ], [ 98.106023936777177, 13.890978132738635 ], [ 98.106022896692807, 13.891249361859648 ], [ 98.106300534122425, 13.891250377790447 ], [ 98.106298454532521, 13.891792836055428 ], [ 98.106576092630291, 13.891793851711958 ], [ 98.106575053124786, 13.892065080855916 ], [ 98.106852691567809, 13.892066096217563 ], [ 98.106851652362934, 13.892337325376023 ], [ 98.107406929961769, 13.892339355194039 ], [ 98.107405891380466, 13.892610584387581 ], [ 98.107128252246952, 13.892609569615736 ], [ 98.10712721332041, 13.892880798782606 ], [ 98.107404852776867, 13.892881813575029 ], [ 98.107403814150985, 13.893153042756392 ], [ 98.107681453952694, 13.893154057253888 ], [ 98.107679377279965, 13.893696515639489 ], [ 98.107401736832301, 13.893695501100844 ], [ 98.107400698139529, 13.893966730263941 ], [ 98.107678338910162, 13.893967744823158 ], [ 98.107677300518077, 13.894238974000737 ], [ 98.107954941633977, 13.894239988264992 ], [ 98.107952865428928, 13.894782446643019 ], [ 98.108230507213108, 13.894783460632866 ], [ 98.108229469400158, 13.895054689833303 ], [ 98.107951827292979, 13.895053675822899 ], [ 98.107950789134748, 13.895324904996688 ], [ 98.107395504341213, 13.895322875988073 ], [ 98.107394465514659, 13.895594105114633 ], [ 98.107116822828317, 13.895593090116407 ], [ 98.10711578365644, 13.895864319216292 ], [ 98.106560497704606, 13.895862288231962 ], [ 98.106559457864364, 13.89613351728458 ], [ 98.106004171355735, 13.896131484996756 ], [ 98.106005211842032, 13.895860255985344 ], [ 98.106282854762156, 13.895861272266439 ], [ 98.106283894903115, 13.895590043228333 ], [ 98.106839180164272, 13.895592074802614 ] ], [ [ 98.098544521142443, 13.886610926097129 ], [ 98.098545569562546, 13.886339697431369 ], [ 98.098823200575637, 13.886340721505626 ], [ 98.09882215247832, 13.886611950192163 ], [ 98.098544521142443, 13.886610926097129 ] ], [ [ 98.097158464846444, 13.886063343762057 ], [ 98.097159514835383, 13.885792115188105 ], [ 98.097714775367734, 13.885794166091495 ], [ 98.097713726024324, 13.886065394707058 ], [ 98.097158464846444, 13.886063343762057 ] ], [ [ 98.098270035990197, 13.885796215733555 ], [ 98.098272133318332, 13.885253758400994 ], [ 98.098827392739835, 13.885255806698607 ], [ 98.098825296702756, 13.885798264114291 ], [ 98.098270035990197, 13.885796215733555 ] ], [ [ 98.098275279141646, 13.884440072356496 ], [ 98.098276327704383, 13.884168843662822 ], [ 98.098553956112909, 13.884169867886156 ], [ 98.098552907872914, 13.884441096600613 ], [ 98.098275279141646, 13.884440072356496 ] ], [ [ 98.098556052525382, 13.883627410438985 ], [ 98.098557100697846, 13.883356181706269 ], [ 98.099112355646113, 13.883358229082409 ], [ 98.099111308119092, 13.883629457856671 ], [ 98.098556052525382, 13.883627410438985 ] ], [ [ 98.102466841951895, 13.877403446810479 ], [ 98.102467885090874, 13.877132217647528 ], [ 98.103300746228641, 13.877135273570328 ], [ 98.103299704057306, 13.877406502795319 ], [ 98.106908775507094, 13.877419712622164 ], [ 98.106906699483957, 13.877962171590244 ], [ 98.105518591407687, 13.877957096984307 ], [ 98.105519631043251, 13.877685867606324 ], [ 98.104131525138214, 13.877680785224833 ], [ 98.104130483889818, 13.877952014499639 ], [ 98.103297619647478, 13.877948961227057 ], [ 98.103296577408983, 13.878220190433797 ], [ 98.103018955717076, 13.878219172025299 ], [ 98.103021040816827, 13.877676713647075 ], [ 98.102743419792461, 13.877675694964786 ], [ 98.102744462631293, 13.877404465787228 ], [ 98.102466841951895, 13.877403446810479 ] ], [ [ 98.099972440879654, 13.876309345896212 ], [ 98.099971394905111, 13.876580574890953 ], [ 98.100249014414914, 13.876581596641683 ], [ 98.100247968740447, 13.876852825651083 ], [ 98.100525588595261, 13.876853847107434 ], [ 98.100523497824014, 13.877396305149459 ], [ 98.100245877324113, 13.877395283651632 ], [ 98.100244831582231, 13.877666512642783 ], [ 98.099689590004715, 13.877664468660234 ], [ 98.099691682756202, 13.877122010754839 ], [ 98.099414062646275, 13.877120988332365 ], [ 98.099417202572539, 13.876307301490915 ], [ 98.099972440879654, 13.876309345896212 ] ], [ [ 98.103591908649761, 13.873610310833918 ], [ 98.10359295018516, 13.873339081503106 ], [ 98.103870566116555, 13.873340098909411 ], [ 98.103869524903615, 13.873611328260882 ], [ 98.103591908649761, 13.873610310833918 ] ], [ [ 98.098319299388649, 13.87304846198281 ], [ 98.098320347005682, 13.87277723303359 ], [ 98.098597961865735, 13.872778256384063 ], [ 98.098596914571146, 13.873049485354064 ], [ 98.098319299388649, 13.87304846198281 ] ], [ [ 98.096932273043237, 13.872772111555854 ], [ 98.09693332224991, 13.872500882704554 ], [ 98.097210936674898, 13.872501907609337 ], [ 98.097209887790655, 13.872773136481449 ], [ 98.096932273043237, 13.872772111555854 ] ], [ [ 98.106371187059992, 13.872806782296841 ], [ 98.106372225303872, 13.872535552741477 ], [ 98.1066498404914, 13.872536566935588 ], [ 98.106648802569936, 13.87280779651155 ], [ 98.106371187059992, 13.872806782296841 ] ] ], [ [ [ 98.09207658093392, 13.907743064623528 ], [ 98.092075523298192, 13.908014292328293 ], [ 98.091797866982702, 13.908013259011179 ], [ 98.091796809000954, 13.908284486688911 ], [ 98.091519152384805, 13.908283453035004 ], [ 98.091515977333358, 13.909097135968796 ], [ 98.091793634919554, 13.909098169685528 ], [ 98.091791518751833, 13.909640624986114 ], [ 98.09206917700746, 13.909641658428837 ], [ 98.092068119212939, 13.909912886090918 ], [ 98.092345777814629, 13.909913919238676 ], [ 98.092342605265159, 13.910727602251118 ], [ 98.092064945693295, 13.91072656904057 ], [ 98.092066003555857, 13.910455341396789 ], [ 98.09178834433007, 13.910454307891257 ], [ 98.091790460633931, 13.909911852627259 ], [ 98.091512802077617, 13.909910818847704 ], [ 98.091513860518901, 13.909639591227501 ], [ 98.091236202308664, 13.909638557152997 ], [ 98.091238319769857, 13.909096101936186 ], [ 98.090683004710982, 13.909094032923326 ], [ 98.090684064054244, 13.90882280534769 ], [ 98.090406406882238, 13.90882177038841 ], [ 98.090407466526145, 13.908550542827641 ], [ 98.090129809700215, 13.908549507573461 ], [ 98.090128749732955, 13.908820735113258 ], [ 98.088740464327685, 13.908815553999414 ], [ 98.088739402720918, 13.909086781428147 ], [ 98.088184088071401, 13.90908470672948 ], [ 98.088183025795132, 13.909355934110089 ], [ 98.087905368181197, 13.909354896265912 ], [ 98.087904305558766, 13.909626123619397 ], [ 98.087348989752485, 13.909624046941326 ], [ 98.087347926460524, 13.909895274246644 ], [ 98.086792610098698, 13.909893196262919 ], [ 98.086791546137164, 13.910164423520042 ], [ 98.086236229219821, 13.910162344230612 ], [ 98.0862351645887, 13.910433571439519 ], [ 98.085679847115898, 13.910431490844335 ], [ 98.085677716491531, 13.91097394515956 ], [ 98.085400057142579, 13.910972904345938 ], [ 98.085398991472729, 13.911244131473316 ], [ 98.085121331823231, 13.911243090322685 ], [ 98.085120265807092, 13.911514317422876 ], [ 98.084842605857034, 13.911513275935221 ], [ 98.084841539494619, 13.911784503008219 ], [ 98.085119199768101, 13.911785544516972 ], [ 98.08511813370626, 13.912056771604961 ], [ 98.084840473109338, 13.912055730075119 ], [ 98.084837273816305, 13.912869411239203 ], [ 98.084004289251737, 13.912866284564018 ], [ 98.084002154334613, 13.913408738516257 ], [ 98.083724492211928, 13.913407695617023 ], [ 98.083723424395558, 13.913678922562868 ], [ 98.08400108684171, 13.913679965483224 ], [ 98.084000019325941, 13.913951192444088 ], [ 98.083444693809554, 13.913949106245145 ], [ 98.083441489183912, 13.91476278696439 ], [ 98.082886161818166, 13.914760699374657 ], [ 98.082887230696613, 13.914489472516619 ], [ 98.082054240790384, 13.914486338825407 ], [ 98.082055310616397, 13.914215112024728 ], [ 98.081499984773885, 13.914213021359577 ], [ 98.081501055223939, 13.913941794595136 ], [ 98.08122339266059, 13.913940748809743 ], [ 98.081222321887054, 13.914211975553004 ], [ 98.080944659023174, 13.914210929430441 ], [ 98.080945730120206, 13.913939702708362 ], [ 98.080390405108332, 13.91393760955763 ], [ 98.080389333364323, 13.914208836237318 ], [ 98.079834007797388, 13.914206741780214 ], [ 98.079831862946463, 13.914749195036459 ], [ 98.079554199550486, 13.91474814729148 ], [ 98.079555272310941, 13.914476920687624 ], [ 98.079277609261453, 13.914475872647857 ], [ 98.079276536177488, 13.914747099230487 ], [ 98.078998872827526, 13.914746050853493 ], [ 98.078997799397058, 13.915017277408788 ], [ 98.078720135746579, 13.915016228694546 ], [ 98.078716914346558, 13.915829908260111 ], [ 98.078439249748556, 13.915828859166126 ], [ 98.078438175578967, 13.916100085654532 ], [ 98.077882845804965, 13.916097986475958 ], [ 98.07787962121678, 13.91691166577704 ], [ 98.078434952932085, 13.916913765083134 ], [ 98.07843280438567, 13.917456218005018 ], [ 98.078710470924989, 13.917457267226464 ], [ 98.078707248903456, 13.918270946627242 ], [ 98.078984916436539, 13.918271995596326 ], [ 98.078985990143153, 13.918000769114265 ], [ 98.079818991909704, 13.918003914061298 ], [ 98.079820064622552, 13.917732687509464 ], [ 98.080097731600489, 13.917733735171758 ], [ 98.080098803966763, 13.917462508592605 ], [ 98.080654137344425, 13.917464602926556 ], [ 98.080653065625299, 13.917735829548112 ], [ 98.080930732672144, 13.91773687626217 ], [ 98.080924303816559, 13.919364235990482 ], [ 98.081479641862373, 13.919366328724552 ], [ 98.081478570953308, 13.919637555366943 ], [ 98.082311579165051, 13.919640692160662 ], [ 98.082310509203936, 13.91991191886045 ], [ 98.082865848773693, 13.919914008517942 ], [ 98.082862640694643, 13.920727688707581 ], [ 98.083140311484826, 13.920728733125557 ], [ 98.083139242402979, 13.920999959864371 ], [ 98.08341691353975, 13.92100100398733 ], [ 98.083415844758633, 13.921272230741172 ], [ 98.084248859277352, 13.921275361276473 ], [ 98.084247791444355, 13.921546588087581 ], [ 98.084525463320048, 13.921547630988128 ], [ 98.084524395787867, 13.921818857814243 ], [ 98.08480206801012, 13.921819900419727 ], [ 98.084801000778739, 13.922091127260838 ], [ 98.085078673347539, 13.922092169571238 ], [ 98.085077606417002, 13.922363396427343 ], [ 98.085355279332362, 13.922364438442651 ], [ 98.085354212702654, 13.922635665313745 ], [ 98.085631885964588, 13.922636707033945 ], [ 98.085635084814044, 13.921823026339107 ], [ 98.086745774205809, 13.921827189805132 ], [ 98.086744709240264, 13.922098416793787 ], [ 98.087300054720487, 13.922100496671829 ], [ 98.087298990379509, 13.922371723696481 ], [ 98.087784822369827, 13.92237354223006 ], [ 98.087810739067379, 13.922365986636505 ], [ 98.088004225563736, 13.922290473176416 ], [ 98.088189973420427, 13.922198265012634 ], [ 98.088366476561276, 13.922090109786724 ], [ 98.088450432542928, 13.922027722599688 ], [ 98.08849225677568, 13.922014103167326 ], [ 98.088536671741991, 13.921999640101831 ], [ 98.088736803905405, 13.921924232876021 ], [ 98.088928927280762, 13.921831047216019 ], [ 98.089111390834105, 13.921720883924802 ], [ 98.089139065678509, 13.921700488633549 ], [ 98.089177340229767, 13.92167812629957 ], [ 98.089221755504198, 13.921649199868979 ], [ 98.089266170291523, 13.921620273755638 ], [ 98.089280494374506, 13.921609912631551 ], [ 98.089298738780371, 13.921602187769965 ], [ 98.089328349019468, 13.921587724551779 ], [ 98.089357958940738, 13.921573261488838 ], [ 98.089387568861824, 13.921558798425989 ], [ 98.089417178783222, 13.921544335362981 ], [ 98.089446788704393, 13.92152987230009 ], [ 98.089695513206593, 13.921388865200303 ], [ 98.089739928480995, 13.921359938769712 ], [ 98.089784343268505, 13.921331012656237 ], [ 98.089967047724485, 13.921198914601002 ], [ 98.09013560149188, 13.921049943595033 ], [ 98.090288378006591, 13.920885537247329 ], [ 98.090423902968411, 13.920707282119626 ], [ 98.090540868567999, 13.920516898414776 ], [ 98.090550730949062, 13.920496553205744 ], [ 98.090582279649823, 13.920480891919487 ], [ 98.090800993274172, 13.920427374229822 ], [ 98.091014810948394, 13.920352638370321 ], [ 98.091220098815299, 13.920257789432105 ], [ 98.091414879532792, 13.920143741005511 ], [ 98.091597276971825, 13.920011591611102 ], [ 98.091661720408624, 13.919954532485891 ], [ 98.091788258627616, 13.919865435337716 ], [ 98.091972802977736, 13.919703520531105 ], [ 98.091987608005411, 13.919689057326947 ], [ 98.091993694093105, 13.919682497439803 ], [ 98.092024452788024, 13.919667228299824 ], [ 98.092200953693805, 13.919559074288841 ], [ 98.092333835700629, 13.919460330333646 ], [ 98.092395260023821, 13.919417080674991 ], [ 98.092483835864954, 13.919339366390149 ], [ 98.092571284959178, 13.919306416651585 ], [ 98.092662767128147, 13.919262045008431 ], [ 98.092702694917847, 13.919256584354283 ], [ 98.092911466774268, 13.919208438801466 ], [ 98.093114777030024, 13.919141615267776 ], [ 98.093121560626386, 13.919138677443952 ], [ 98.092865149572035, 13.919137723602271 ], [ 98.09286620716702, 13.918866496084815 ], [ 98.093699215270462, 13.91886959380677 ], [ 98.093700271871953, 13.918598366220502 ], [ 98.094071928886549, 13.918599747363587 ], [ 98.094149128675355, 13.918532014055996 ], [ 98.094163933703015, 13.918517550851847 ], [ 98.094316411167512, 13.918353202864481 ], [ 98.09438869717448, 13.918257987913554 ], [ 98.094467950854053, 13.918202184365791 ], [ 98.094623473164972, 13.918065732800878 ], [ 98.094805188756098, 13.917976482112179 ], [ 98.094813403651287, 13.917971429101872 ], [ 98.09481411415122, 13.917788808961372 ], [ 98.094258777800619, 13.917786746825403 ], [ 98.094259833664367, 13.917515519172953 ], [ 98.093982165846583, 13.917514487651726 ], [ 98.093983222011275, 13.917243260014059 ], [ 98.094260889505463, 13.9172442915144 ], [ 98.094261945323936, 13.916973063849753 ], [ 98.094817279733093, 13.916975125860469 ], [ 98.094819390007913, 13.916432670429366 ], [ 98.0950970565993, 13.916433700918892 ], [ 98.095099166136563, 13.915891245421653 ], [ 98.095654498092983, 13.915893305369124 ], [ 98.095653443982741, 13.916164533162508 ], [ 98.095931110318389, 13.916165562683029 ], [ 98.095930056509104, 13.916436790491156 ], [ 98.095652389849903, 13.916435760949787 ], [ 98.095650281516441, 13.916978216506051 ], [ 98.095372614232716, 13.916977186606923 ], [ 98.095370312396199, 13.917569220446145 ], [ 98.09553673071818, 13.917468744336102 ], [ 98.095707963276794, 13.917342552242955 ], [ 98.095866497024076, 13.917201413789249 ], [ 98.09588130205168, 13.91718695058511 ], [ 98.096033779737652, 13.917022602303103 ], [ 98.096169032639111, 13.916844447270398 ], [ 98.096285758366719, 13.916654201042935 ], [ 98.096382832948393, 13.916453695606014 ], [ 98.096459321651537, 13.916244861732245 ], [ 98.096514487982574, 13.916029710388401 ], [ 98.096547800776989, 13.915810313370145 ], [ 98.096558939312231, 13.915588783351216 ], [ 98.096558939024547, 13.915559857120428 ], [ 98.096547835910314, 13.915338722422451 ], [ 98.096514637544303, 13.91511970971829 ], [ 98.0964596625262, 13.914904920428988 ], [ 98.096383438398675, 13.914696415446175 ], [ 98.096286696583249, 13.914496195358241 ], [ 98.096247033907858, 13.91443141083205 ], [ 98.096240657521065, 13.914418952795135 ], [ 98.096225852188326, 13.914390026480882 ], [ 98.096217179303139, 13.914373081600763 ], [ 98.09618143592661, 13.914288784166846 ], [ 98.096166630702626, 13.914259858065105 ], [ 98.096157957816686, 13.914242913183493 ], [ 98.096122214441408, 13.914158615752035 ], [ 98.096107409217453, 13.914129689650284 ], [ 98.09610486903108, 13.914124726693876 ], [ 98.096057812532365, 13.914013748378466 ], [ 98.096055271873524, 13.914006302633627 ], [ 98.096029997685363, 13.91394669592224 ], [ 98.096025661074876, 13.913933986898124 ], [ 98.096000386886431, 13.913874380185881 ], [ 98.095996050276412, 13.913861671163151 ], [ 98.09598124480172, 13.913818281720706 ], [ 98.095964589275368, 13.913779001286981 ], [ 98.096008828687673, 13.913610889403706 ], [ 98.096043836940325, 13.913386084597766 ], [ 98.096055544335925, 13.913158981435762 ], [ 98.096055544048298, 13.913130055204961 ], [ 98.096045602291198, 13.912920778661748 ], [ 98.096015866632428, 13.912713300278115 ], [ 98.095966592594607, 13.912509402575465 ], [ 98.09589820355896, 13.912310837307569 ], [ 98.09581128712621, 13.91211931041088 ], [ 98.095796481902269, 13.912090384309112 ], [ 98.095675958512459, 13.91188303304415 ], [ 98.095588262456928, 13.911763530206509 ], [ 98.095538899255189, 13.911628762216532 ], [ 98.095441821549315, 13.911428257019196 ], [ 98.095325093382783, 13.911238011523382 ], [ 98.09518983883062, 13.911059857685739 ], [ 98.095037360357708, 13.910895511022533 ], [ 98.095022555330047, 13.910881048013321 ], [ 98.095019447236766, 13.910878296091688 ], [ 98.094793800575374, 13.91064626058442 ], [ 98.094768991092991, 13.910617984892856 ], [ 98.094734261255198, 13.910575575586266 ], [ 98.094720186681215, 13.910558388847553 ], [ 98.094600990076785, 13.910357738250973 ], [ 98.094571379817552, 13.910314349148189 ], [ 98.094541769301529, 13.910270959669093 ], [ 98.09451215878444, 13.910227570188495 ], [ 98.094482548268616, 13.91018418070969 ], [ 98.094471301094757, 13.910167699776061 ], [ 98.094438132158814, 13.910111864532665 ], [ 98.094408521899595, 13.910068475429876 ], [ 98.094350431817404, 13.9099882681542 ], [ 98.094345567045153, 13.909978763474637 ], [ 98.094330761712911, 13.909949837161204 ], [ 98.094315956379901, 13.909920910846301 ], [ 98.094301151047674, 13.909891984532926 ], [ 98.094286345714735, 13.909863058218169 ], [ 98.094271540382081, 13.909834131903947 ], [ 98.094256735049882, 13.909805205590599 ], [ 98.094241929716901, 13.909776279275786 ], [ 98.094227124384687, 13.909747352962405 ], [ 98.094212319051707, 13.90971842664753 ], [ 98.09407283842053, 13.909483630814737 ], [ 98.094068200051581, 13.909471882899542 ], [ 98.093972824081675, 13.9092842277828 ], [ 98.093860070352804, 13.909106005508702 ], [ 98.093730907681277, 13.908938747356398 ], [ 98.093650942707981, 13.908853028323264 ], [ 98.093649718890148, 13.908850637256181 ], [ 98.093634913557125, 13.908821710941238 ], [ 98.093620108224627, 13.908792784627318 ], [ 98.093605302892442, 13.908763858313948 ], [ 98.09359049755939, 13.908734931998943 ], [ 98.09357569222685, 13.908706005684962 ], [ 98.093560886894636, 13.908677079371538 ], [ 98.093546081561655, 13.908648153056674 ], [ 98.093531276229442, 13.908619226743282 ], [ 98.093516470896546, 13.908590300428562 ], [ 98.09346298792093, 13.908500269493482 ], [ 98.093457249721325, 13.908489058331767 ], [ 98.09344244438843, 13.90846013201705 ], [ 98.093327997140165, 13.9082621078235 ], [ 98.09319375972423, 13.908076319469266 ], [ 98.093041090964263, 13.907904647537777 ], [ 98.092920384362316, 13.907793720319731 ], [ 98.092912619284078, 13.907778792800332 ], [ 98.092891624525564, 13.90774609598164 ], [ 98.09207658093392, 13.907743064623528 ] ], [ [ 98.089261816413824, 13.917496903430923 ], [ 98.089262878079268, 13.917225676149281 ], [ 98.08954054518766, 13.917226713022835 ], [ 98.089539483845783, 13.917497940325472 ], [ 98.089261816413824, 13.917496903430923 ] ], [ [ 98.085655339418707, 13.916669713996155 ], [ 98.085933005583612, 13.916670754936458 ], [ 98.085931940080954, 13.916941981977876 ], [ 98.08565427359251, 13.916940941016499 ], [ 98.085655339418707, 13.916669713996155 ] ], [ [ 98.085377673276653, 13.916668672739794 ], [ 98.085378739403552, 13.916397445734434 ], [ 98.085656405222053, 13.91639848696971 ], [ 98.085655339418707, 13.916669713996155 ], [ 98.085377673276653, 13.916668672739794 ] ], [ [ 98.084550010246673, 13.915309412302996 ], [ 98.084547876211673, 13.915851866229859 ], [ 98.08427021113171, 13.915850823772603 ], [ 98.084268076358143, 13.916393277632841 ], [ 98.083990410653996, 13.916392234817319 ], [ 98.083989342909334, 13.916663461717166 ], [ 98.083434010922574, 13.91666137509573 ], [ 98.083438284352169, 13.915576467628719 ], [ 98.084271278484181, 13.915579596833334 ], [ 98.084272345813758, 13.915308369887958 ], [ 98.084550010246673, 13.915309412302996 ] ], [ [ 98.080659495595526, 13.916108469727236 ], [ 98.080660567176821, 13.915837243069063 ], [ 98.080938231958797, 13.915838289634776 ], [ 98.080937160701026, 13.916109516314142 ], [ 98.080659495595526, 13.916108469727236 ] ], [ [ 98.079549908278707, 13.915833053645866 ], [ 98.079550981131149, 13.915561827066421 ], [ 98.07982864549767, 13.915562874875057 ], [ 98.079827572968739, 13.915834101475717 ], [ 98.079549908278707, 13.915833053645866 ] ], [ [ 98.079552053960583, 13.915290600480878 ], [ 98.079553126767024, 13.91501937388923 ], [ 98.079830790486525, 13.915020421655427 ], [ 98.079829718003595, 13.915291648268292 ], [ 98.079552053960583, 13.915290600480878 ] ], [ [ 98.084277682118454, 13.913952235069573 ], [ 98.084278749310755, 13.913681008087593 ], [ 98.084556411802694, 13.91368205037598 ], [ 98.084555344933861, 13.913953277379065 ], [ 98.084277682118454, 13.913952235069573 ] ], [ [ 98.086224517021691, 13.913145843193094 ], [ 98.086225581881138, 13.912874616045187 ], [ 98.086503243562603, 13.912875656058485 ], [ 98.086502179026638, 13.913146883227455 ], [ 98.086224517021691, 13.913145843193094 ] ], [ [ 98.087892615208148, 13.912609624105183 ], [ 98.087893678081244, 13.912338396818791 ], [ 98.088171339252654, 13.912339434894241 ], [ 98.088170276703011, 13.912610662201654 ], [ 98.087892615208148, 13.912609624105183 ] ], [ [ 98.086227711531521, 13.912332161731072 ], [ 98.086228776322457, 13.912060934564863 ], [ 98.086506437033606, 13.912061974514973 ], [ 98.086505372566094, 13.912333201702243 ], [ 98.086227711531521, 13.912332161731072 ] ], [ [ 98.086508565900147, 13.911519520122127 ], [ 98.086509630299176, 13.911248292916556 ], [ 98.086787290062858, 13.911249332487548 ], [ 98.08678622598724, 13.911520559714175 ], [ 98.086508565900147, 13.911519520122127 ] ] ], [ [ [ 98.08229231635633, 13.924522771822822 ], [ 98.082293386707306, 13.924251545226813 ], [ 98.081738036871144, 13.924249453627544 ], [ 98.081741249728864, 13.923435773929882 ], [ 98.081463575816414, 13.923434727719417 ], [ 98.081464647046815, 13.923163501162493 ], [ 98.081186973481039, 13.923162454656994 ], [ 98.081189116520406, 13.922620001567195 ], [ 98.080911443625013, 13.922618954787861 ], [ 98.080912515433965, 13.922347728254987 ], [ 98.081467860600299, 13.922349821455091 ], [ 98.081468931738883, 13.922078594873748 ], [ 98.081746604032801, 13.922079640978341 ], [ 98.08174767482474, 13.921808414369719 ], [ 98.082025346817915, 13.921809460136966 ], [ 98.082026417263236, 13.921538233501067 ], [ 98.081748745593757, 13.921537187754991 ], [ 98.081749816339808, 13.921265961134159 ], [ 98.082305159054371, 13.921268052267816 ], [ 98.08230836921291, 13.920454372241709 ], [ 98.081753028440289, 13.920452281235036 ], [ 98.081754099094582, 13.920181054589786 ], [ 98.079810409379107, 13.920173726256257 ], [ 98.079811482275915, 13.919902499753251 ], [ 98.078978473713548, 13.919899354360505 ], [ 98.078977399845826, 13.920170580799835 ], [ 98.078699730047418, 13.920169531682088 ], [ 98.078698655833051, 13.920440758094077 ], [ 98.078143315658011, 13.920438658867683 ], [ 98.078142240773317, 13.920709885231073 ], [ 98.077864570396684, 13.920708835122408 ], [ 98.077865645605044, 13.920437608780274 ], [ 98.077587975575113, 13.920436558376721 ], [ 98.077589051084075, 13.920165332049747 ], [ 98.076756042103554, 13.920162179006068 ], [ 98.076754965623678, 13.920433405269213 ], [ 98.07647729568599, 13.920432353601095 ], [ 98.076472988241093, 13.921517258507476 ], [ 98.076195317031846, 13.921516206438035 ], [ 98.076196394251355, 13.921244980241893 ], [ 98.075918723388853, 13.921243927877585 ], [ 98.075917645845678, 13.921515154052425 ], [ 98.075362303542619, 13.921513048332709 ], [ 98.07536122532899, 13.921784274458822 ], [ 98.074045370657956, 13.921779279920548 ], [ 98.074173050283747, 13.921874930118856 ], [ 98.074371086218875, 13.921994489729585 ], [ 98.074580419350298, 13.922094006527447 ], [ 98.074798930633833, 13.922172473110606 ], [ 98.075024408107637, 13.922229095165068 ], [ 98.075254569284994, 13.922263299506239 ], [ 98.075487084261553, 13.922274739881829 ], [ 98.075697867212057, 13.922274740231542 ], [ 98.075710248342531, 13.922297873964359 ], [ 98.075829637054042, 13.922477273734669 ], [ 98.075965858510486, 13.92264484203265 ], [ 98.076117691911392, 13.922799077085067 ], [ 98.076283776531355, 13.922938596609912 ], [ 98.076462623914736, 13.923062150205388 ], [ 98.076652631215353, 13.923168630556974 ], [ 98.076852095561748, 13.923257083362188 ], [ 98.077059229319261, 13.92332671588391 ], [ 98.077268252876351, 13.923375979413352 ], [ 98.077327609894738, 13.923410734215141 ], [ 98.077532901131519, 13.923505584632148 ], [ 98.077746722526058, 13.923580321748329 ], [ 98.077942232586878, 13.923628161720417 ], [ 98.077951756136912, 13.923637465402463 ], [ 98.077981365846682, 13.923666391523277 ], [ 98.078010975556509, 13.923695317644134 ], [ 98.078040585266436, 13.923724243765092 ], [ 98.078070194976618, 13.923753169886295 ], [ 98.078099804686062, 13.923782096006777 ], [ 98.078114609468017, 13.923796558995928 ], [ 98.078282869501862, 13.923945539032916 ], [ 98.078288568874157, 13.923949668307056 ], [ 98.078430918395966, 13.924075706741695 ], [ 98.078478712118041, 13.924110333941044 ], [ 98.07850494280801, 13.924133558979113 ], [ 98.078552736572746, 13.924168186210679 ], [ 98.078578967290326, 13.924191411272846 ], [ 98.078626761044845, 13.924226038495691 ], [ 98.078652991772955, 13.924249263566848 ], [ 98.078700785517128, 13.924283890780854 ], [ 98.078727016255854, 13.924307115861042 ], [ 98.078909417466846, 13.924439267897407 ], [ 98.079104202602167, 13.924553318720472 ], [ 98.079309495452264, 13.92464816975653 ], [ 98.07933972550002, 13.924658736080829 ], [ 98.079493703991986, 13.924790817460417 ], [ 98.079673998798569, 13.924917755223733 ], [ 98.079865929600302, 13.925027212388905 ], [ 98.080067725826865, 13.925118179196785 ], [ 98.080277525890509, 13.925189816462687 ], [ 98.08049339436036, 13.925241463318635 ], [ 98.080713339818161, 13.925272643310596 ], [ 98.080935333230897, 13.92528306879432 ], [ 98.080950138389795, 13.925283068803205 ], [ 98.081176948528665, 13.925272185165513 ], [ 98.081401574325028, 13.925239638809799 ], [ 98.081621852447853, 13.925185743180343 ], [ 98.08183566144055, 13.925111017332378 ], [ 98.081958384089617, 13.925054321466437 ], [ 98.082014697102068, 13.925029933524645 ], [ 98.082032042066317, 13.925021461320863 ], [ 98.082118331885297, 13.92498654434403 ], [ 98.082135676848182, 13.924978072140908 ], [ 98.082221966667888, 13.924943155163698 ], [ 98.082251576907169, 13.924928691945571 ], [ 98.082281186828268, 13.924914228882855 ], [ 98.082310796749724, 13.924899765819966 ], [ 98.082340406671207, 13.924885302757064 ], [ 98.082370016592407, 13.924870839694295 ], [ 98.082399626513151, 13.92485637663175 ], [ 98.08242631510781, 13.924843340500724 ], [ 98.082585226822331, 13.924820354700639 ], [ 98.082805157835665, 13.924766637947881 ], [ 98.083018651919289, 13.924692157674082 ], [ 98.083223659848372, 13.924597628777056 ], [ 98.083345002474061, 13.92452673312971 ], [ 98.08229231635633, 13.924522771822822 ] ] ], [ [ [ 98.077339344955988, 13.9131123952605 ], [ 98.077617006226916, 13.913113445405934 ], [ 98.07761808111357, 13.91284221891417 ], [ 98.078173403077628, 13.912844318214608 ], [ 98.078172328837866, 13.913115544748896 ], [ 98.078727651540959, 13.913117642827977 ], [ 98.07872979870362, 13.912575189668326 ], [ 98.078452137987469, 13.912574140829252 ], [ 98.07845321185772, 13.91230291426152 ], [ 98.07817555148803, 13.912301865127738 ], [ 98.078176625658685, 13.912030638575153 ], [ 98.07678832577308, 13.912025388273344 ], [ 98.07678724998523, 13.912296614719592 ], [ 98.076231929545543, 13.912294512344685 ], [ 98.07623085308775, 13.912565738742252 ], [ 98.075953192579064, 13.912564687059573 ], [ 98.075949962096857, 13.913378366151756 ], [ 98.076227623575903, 13.913379417898335 ], [ 98.076226547025783, 13.91365064427149 ], [ 98.077059532571795, 13.913653797679236 ], [ 98.077060608151484, 13.913382571242218 ], [ 98.077338269722816, 13.913383621724897 ], [ 98.077339344955988, 13.9131123952605 ] ] ], [ [ [ 98.074559498043101, 13.913915555163657 ], [ 98.074837160053576, 13.913916608532773 ], [ 98.074839316411627, 13.913374156005696 ], [ 98.074006332390368, 13.913370995078422 ], [ 98.074008490596711, 13.91282854265496 ], [ 98.07345316932539, 13.91282643387566 ], [ 98.07345100982522, 13.9133688862137 ], [ 98.07372867109622, 13.913369940804049 ], [ 98.073727591634878, 13.913641166985272 ], [ 98.074005253252508, 13.913642221280993 ], [ 98.074004174091499, 13.913913447477467 ], [ 98.074281836055732, 13.913914501478557 ], [ 98.07428291489326, 13.913643275260741 ], [ 98.074560576557147, 13.913644328924505 ], [ 98.074559498043101, 13.913915555163657 ] ] ], [ [ [ 98.078168031648545, 13.914200450825009 ], [ 98.078445694282465, 13.914201500107531 ], [ 98.078444620251048, 13.914472726632555 ], [ 98.078999946234973, 13.914474824292094 ], [ 98.079002092980829, 13.913932371150985 ], [ 98.078169105980422, 13.913929224315133 ], [ 98.078168031648545, 13.914200450825009 ] ] ], [ [ [ 98.075651829947574, 13.918530613326006 ], [ 98.075374162367609, 13.918529560542524 ], [ 98.07537524030397, 13.91825833434315 ], [ 98.075097573070693, 13.918257281264887 ], [ 98.075094338221461, 13.919070959780733 ], [ 98.075927342903029, 13.919074118259072 ], [ 98.075928420238384, 13.918802892029285 ], [ 98.075650752311702, 13.91880183954059 ], [ 98.075651829947574, 13.918530613326006 ] ] ] ] } },
{ "type": "Feature", "properties": { "zone": "B", "alpha_deg": 9.2, "label": "Within reach only of a channelised flow (alpha 9.2 deg)" }, "geometry": { "type": "MultiPolygon", "coordinates": [ [ [ [ 98.094957416023632, 13.880901786589925 ], [ 98.094958468165316, 13.88063055806702 ], [ 98.094680844244934, 13.880629530016147 ], [ 98.094679791780607, 13.880900758518182 ], [ 98.094957416023632, 13.880901786589925 ] ] ], [ [ [ 98.082618120162039, 13.912318613354101 ], [ 98.082340459447693, 13.912317568959592 ], [ 98.082338320740718, 13.912860022682588 ], [ 98.082060659402444, 13.912858977929805 ], [ 98.082061729090839, 13.912587751092516 ], [ 98.081506407129964, 13.912585660681392 ], [ 98.081505336794663, 13.912856887476346 ], [ 98.081227675525184, 13.912855841775668 ], [ 98.081228746183939, 13.912584615001897 ], [ 98.080951085260892, 13.912583569006442 ], [ 98.08095001427867, 13.912854795759028 ], [ 98.080672353055121, 13.912853749426423 ], [ 98.080671281726481, 13.913124976151718 ], [ 98.080393620202443, 13.913123929481952 ], [ 98.080392548527385, 13.913395156179945 ], [ 98.079837224901311, 13.913393061850087 ], [ 98.079836152556325, 13.913664288499566 ], [ 98.079280828375275, 13.913662192863359 ], [ 98.079281901367196, 13.913390966256324 ], [ 98.079004239634656, 13.913389917985475 ], [ 98.079003166319254, 13.913661144571282 ], [ 98.07872550428624, 13.913660095963222 ], [ 98.078724430624348, 13.913931322521691 ], [ 98.079002092980829, 13.913932371150985 ], [ 98.078999946234973, 13.914474824292094 ], [ 98.078444620251048, 13.914472726632555 ], [ 98.078443546196596, 13.914743953151474 ], [ 98.078721209500557, 13.914745002160485 ], [ 98.078720135746579, 13.915016228694546 ], [ 98.078997799397058, 13.915017277408788 ], [ 98.078998872827526, 13.914746050853493 ], [ 98.079276536177488, 13.914747099230487 ], [ 98.079277609261453, 13.914475872647857 ], [ 98.079555272310941, 13.914476920687624 ], [ 98.079554199550486, 13.91474814729148 ], [ 98.079831862946463, 13.914749195036459 ], [ 98.079834007797388, 13.914206741780214 ], [ 98.080389333364323, 13.914208836237318 ], [ 98.080390405108332, 13.91393760955763 ], [ 98.080945730120206, 13.913939702708362 ], [ 98.080946801194258, 13.913668475980185 ], [ 98.081224463411175, 13.913669522060379 ], [ 98.08122553413881, 13.913398295304908 ], [ 98.081780857994545, 13.913400386475002 ], [ 98.08177978791386, 13.91367161327282 ], [ 98.081502125651042, 13.913670567824589 ], [ 98.081501055223939, 13.913941794595136 ], [ 98.081778717810238, 13.913942840064536 ], [ 98.08177764768368, 13.91421406685015 ], [ 98.082055310616397, 13.914215112024728 ], [ 98.082054240790384, 13.914486338825407 ], [ 98.082887230696613, 13.914489472516619 ], [ 98.082886161818166, 13.914760699374657 ], [ 98.083441489183912, 13.91476278696439 ], [ 98.083444693809554, 13.913949106245145 ], [ 98.0834457619723, 13.913677879326528 ], [ 98.083723424395558, 13.913678922562868 ], [ 98.083724492211928, 13.913407695617023 ], [ 98.083446830112138, 13.913406652401809 ], [ 98.083448966323118, 13.912864198534068 ], [ 98.083726627775974, 13.912865241707022 ], [ 98.083727695523663, 13.912594014742879 ], [ 98.083172373287752, 13.912591928123257 ], [ 98.083173441659426, 13.91232070119527 ], [ 98.082895780899278, 13.912319657432661 ], [ 98.082896849571497, 13.912048430519713 ], [ 98.083729830950361, 13.912051560796277 ], [ 98.083730898629369, 13.911780333813827 ], [ 98.084008558811362, 13.911781376586335 ], [ 98.084010693453848, 13.911238922560893 ], [ 98.083455374406469, 13.911236836784433 ], [ 98.08345323847027, 13.911779290725379 ], [ 98.082620258130419, 13.911776159564395 ], [ 98.082618120162039, 13.912318613354101 ] ], [ [ 98.082058519956831, 13.913401431586079 ], [ 98.082613843950199, 13.913403520860307 ], [ 98.082611705706753, 13.913945974576796 ], [ 98.082056380419473, 13.913943885217947 ], [ 98.082058519956831, 13.913401431586079 ] ], [ [ 98.082890437194479, 13.913675791905895 ], [ 98.083168099571935, 13.913676835774204 ], [ 98.083167031085708, 13.913948062671684 ], [ 98.08288936838477, 13.913947018782238 ], [ 98.082890437194479, 13.913675791905895 ] ], [ [ 98.082617051143444, 13.912589840239804 ], [ 98.082894712204137, 13.91259088433951 ], [ 98.082893643486088, 13.912862111240258 ], [ 98.082615982101956, 13.912861067119403 ], [ 98.082617051143444, 13.912589840239804 ] ] ], [ [ [ 98.078441398018626, 13.915286406171003 ], [ 98.078440323895109, 13.915557632671616 ], [ 98.078162659643652, 13.915556583282847 ], [ 98.078161585173561, 13.915827809756108 ], [ 98.077883920621616, 13.915826760030054 ], [ 98.077882845804965, 13.916097986475958 ], [ 98.078438175578967, 13.916100085654532 ], [ 98.078439249748556, 13.915828859166126 ], [ 98.078716914346558, 13.915829908260111 ], [ 98.078719061969608, 13.915287455222503 ], [ 98.078441398018626, 13.915286406171003 ] ] ], [ [ [ 98.077605180952517, 13.916096936412607 ], [ 98.077601955393689, 13.916910615649904 ], [ 98.07787962121678, 13.91691166577704 ], [ 98.077882845804965, 13.916097986475958 ], [ 98.077605180952517, 13.916096936412607 ] ] ], [ [ [ 98.077878546307971, 13.917182892198527 ], [ 98.078156212477666, 13.91718394203086 ], [ 98.078155137869388, 13.9174551684675 ], [ 98.07843280438567, 13.917456218005018 ], [ 98.078434952932085, 13.916913765083134 ], [ 98.07787962121678, 13.91691166577704 ], [ 98.077878546307971, 13.917182892198527 ] ] ], [ [ [ 98.078430655747169, 13.917998670902488 ], [ 98.07870832293365, 13.917999720166421 ], [ 98.078710470924989, 13.917457267226464 ], [ 98.07843280438567, 13.917456218005018 ], [ 98.078430655747169, 13.917998670902488 ] ] ], [ [ [ 98.078705100773973, 13.918813399530578 ], [ 98.078427432616706, 13.918812350202913 ], [ 98.078424209278992, 13.919626029448402 ], [ 98.07814654017389, 13.919624979740886 ], [ 98.078145465358304, 13.919896206122591 ], [ 98.077590126569973, 13.919894105716667 ], [ 98.077589051084075, 13.920165332049747 ], [ 98.077587975575113, 13.920436558376721 ], [ 98.077865645605044, 13.920437608780274 ], [ 98.077864570396684, 13.920708835122408 ], [ 98.078142240773317, 13.920709885231073 ], [ 98.078143315658011, 13.920438658867683 ], [ 98.078698655833051, 13.920440758094077 ], [ 98.078699730047418, 13.920169531682088 ], [ 98.078977399845826, 13.920170580799835 ], [ 98.078978473713548, 13.919899354360505 ], [ 98.079533812732123, 13.91990145160513 ], [ 98.079534885929561, 13.919630225117238 ], [ 98.079257216732401, 13.919629176674217 ], [ 98.079262583992644, 13.91827304424932 ], [ 98.079540251571743, 13.918274092586222 ], [ 98.07954132463118, 13.918002866061705 ], [ 98.078985990143153, 13.918000769114265 ], [ 98.078984916436539, 13.918271995596326 ], [ 98.078707248903456, 13.918270946627242 ], [ 98.078705100773973, 13.918813399530578 ] ] ], [ [ [ 98.076196394251355, 13.921244980241893 ], [ 98.076195317031846, 13.921516206438035 ], [ 98.076472988241093, 13.921517258507476 ], [ 98.076474065136935, 13.921246032290041 ], [ 98.076196394251355, 13.921244980241893 ] ] ], [ [ [ 98.083418213858636, 13.924483958591395 ], [ 98.083462629133308, 13.924455032160838 ], [ 98.083529528791487, 13.924406641226895 ], [ 98.083533319604811, 13.924404172376217 ], [ 98.083745571349326, 13.924329984258691 ], [ 98.083942052586224, 13.924239204675509 ], [ 98.083955257334623, 13.924235448253013 ], [ 98.083969057078903, 13.924232077995718 ], [ 98.084134568484174, 13.924184994117789 ], [ 98.084142927445498, 13.924183360937583 ], [ 98.084362976474367, 13.924129285463927 ], [ 98.084576545310341, 13.924054418410897 ], [ 98.084781580314626, 13.923959479684628 ], [ 98.084976109914365, 13.923845382196683 ], [ 98.085158263562178, 13.923713223085088 ], [ 98.08532628972371, 13.923564273163747 ], [ 98.085433156010467, 13.923448967909119 ], [ 98.085442431736411, 13.923445947407714 ], [ 98.085649641575785, 13.923367484470489 ], [ 98.085803774279469, 13.923291781905698 ], [ 98.085845540475958, 13.923278054292679 ], [ 98.086041647444219, 13.923193124688156 ], [ 98.086071257683386, 13.923178661470001 ], [ 98.086319984166565, 13.923037653255596 ], [ 98.086364399441123, 13.923008726825019 ], [ 98.086373670780944, 13.923002020532515 ], [ 98.086384701271129, 13.922996632653712 ], [ 98.086470991127086, 13.922961715658554 ], [ 98.086500601366254, 13.922947252440389 ], [ 98.086703310705289, 13.922835449912055 ], [ 98.086792275775323, 13.922774108373593 ], [ 98.086823026827005, 13.9227599005235 ], [ 98.086838160942051, 13.922751039195109 ], [ 98.086937733716908, 13.922722793876012 ], [ 98.086982149142997, 13.922708330660845 ], [ 98.087189358646739, 13.922629867813908 ], [ 98.087256136674753, 13.92259706964343 ], [ 98.087296427676435, 13.922583826890325 ], [ 98.087298160980367, 13.922583076235519 ], [ 98.087298990379509, 13.922371723696481 ], [ 98.087300054720487, 13.922100496671829 ], [ 98.086744709240264, 13.922098416793787 ], [ 98.086745774205809, 13.921827189805132 ], [ 98.085635084814044, 13.921823026339107 ], [ 98.085631885964588, 13.922636707033945 ], [ 98.085354212702654, 13.922635665313745 ], [ 98.085355279332362, 13.922364438442651 ], [ 98.085077606417002, 13.922363396427343 ], [ 98.085078673347539, 13.922092169571238 ], [ 98.084801000778739, 13.922091127260838 ], [ 98.08480206801012, 13.921819900419727 ], [ 98.084524395787867, 13.921818857814243 ], [ 98.084525463320048, 13.921547630988128 ], [ 98.084247791444355, 13.921546588087581 ], [ 98.084248859277352, 13.921275361276473 ], [ 98.083415844758633, 13.921272230741172 ], [ 98.08341691353975, 13.92100100398733 ], [ 98.083139242402979, 13.920999959864371 ], [ 98.083140311484826, 13.920728733125557 ], [ 98.082862640694643, 13.920727688707581 ], [ 98.082865848773693, 13.919914008517942 ], [ 98.082310509203936, 13.91991191886045 ], [ 98.082311579165051, 13.919640692160662 ], [ 98.0820339097382, 13.919639646878883 ], [ 98.082031769145757, 13.920182100230029 ], [ 98.081754099094582, 13.920181054589786 ], [ 98.081753028440289, 13.920452281235036 ], [ 98.08230836921291, 13.920454372241709 ], [ 98.082305159054371, 13.921268052267816 ], [ 98.081749816339808, 13.921265961134159 ], [ 98.081748745593757, 13.921537187754991 ], [ 98.082026417263236, 13.921538233501067 ], [ 98.082025346817915, 13.921809460136966 ], [ 98.08174767482474, 13.921808414369719 ], [ 98.081746604032801, 13.922079640978341 ], [ 98.081468931738883, 13.922078594873748 ], [ 98.081467860600299, 13.922349821455091 ], [ 98.080912515433965, 13.922347728254987 ], [ 98.080911443625013, 13.922618954787861 ], [ 98.081189116520406, 13.922620001567195 ], [ 98.081186973481039, 13.923162454656994 ], [ 98.081464647046815, 13.923163501162493 ], [ 98.081463575816414, 13.923434727719417 ], [ 98.081741249728864, 13.923435773929882 ], [ 98.081738036871144, 13.924249453627544 ], [ 98.082293386707306, 13.924251545226813 ], [ 98.08229231635633, 13.924522771822822 ], [ 98.083345002474061, 13.92452673312971 ], [ 98.083223659848372, 13.924597628777056 ], [ 98.083418213858636, 13.924483958591395 ] ] ], [ [ [ 98.093310878375775, 13.919056688052962 ], [ 98.093315958653633, 13.919054206574991 ], [ 98.093488538020267, 13.918984372753451 ], [ 98.093518148259264, 13.918969909535233 ], [ 98.093547758180705, 13.918955446472122 ], [ 98.093763357335646, 13.918835615184527 ], [ 98.093964585032666, 13.918693928265158 ], [ 98.094149128675355, 13.918532014055996 ], [ 98.094071928886549, 13.918599747363587 ], [ 98.093700271871953, 13.918598366220502 ], [ 98.093699215270462, 13.91886959380677 ], [ 98.09286620716702, 13.918866496084815 ], [ 98.092865149572035, 13.919137723602271 ], [ 98.093121560626386, 13.919138677443952 ], [ 98.093114777030024, 13.919141615267776 ], [ 98.093310878375775, 13.919056688052962 ] ] ], [ [ [ 98.094993241749279, 13.917860809940107 ], [ 98.095087255956287, 13.917789822757557 ], [ 98.09481411415122, 13.917788808961372 ], [ 98.094813403651287, 13.917971429101872 ], [ 98.094805188756098, 13.917976482112179 ], [ 98.094993241749279, 13.917860809940107 ] ] ], [ [ [ 98.094815169367791, 13.917517581267173 ], [ 98.095092837253432, 13.917518611840162 ], [ 98.095093892123828, 13.917247384118998 ], [ 98.095371559708511, 13.917248414355051 ], [ 98.095372614232716, 13.916977186606923 ], [ 98.095373668734311, 13.916705958852695 ], [ 98.09565133569447, 13.916706988730967 ], [ 98.095652389849903, 13.916435760949787 ], [ 98.095930056509104, 13.916436790491156 ], [ 98.095931110318389, 13.916165562683029 ], [ 98.095653443982741, 13.916164533162508 ], [ 98.095654498092983, 13.915893305369124 ], [ 98.095099166136563, 13.915891245421653 ], [ 98.0950970565993, 13.916433700918892 ], [ 98.094819390007913, 13.916432670429366 ], [ 98.094817279733093, 13.916975125860469 ], [ 98.094261945323936, 13.916973063849753 ], [ 98.094260889505463, 13.9172442915144 ], [ 98.093983222011275, 13.917243260014059 ], [ 98.093982165846583, 13.917514487651726 ], [ 98.094259833664367, 13.917515519172953 ], [ 98.094258777800619, 13.917786746825403 ], [ 98.09481411415122, 13.917788808961372 ], [ 98.094815169367791, 13.917517581267173 ] ] ], [ [ [ 98.092801921646199, 13.907606394386622 ], [ 98.092791079341836, 13.90759247013831 ], [ 98.092791014089016, 13.907592342648856 ], [ 98.092776208756376, 13.907563416334627 ], [ 98.092761403424291, 13.907534490021472 ], [ 98.092746598091338, 13.907505563706593 ], [ 98.092693115103557, 13.90741553274766 ], [ 98.092687376916203, 13.907404321609903 ], [ 98.09267257158325, 13.907375395295052 ], [ 98.092546685699006, 13.907163484293848 ], [ 98.092545490917828, 13.907127312341833 ], [ 98.092527643015188, 13.906910752547583 ], [ 98.092488592696711, 13.906696867136104 ], [ 98.092428700825778, 13.906487632299347 ], [ 98.092348520827386, 13.906284981254965 ], [ 98.092248793572779, 13.906090786384697 ], [ 98.0921304405325, 13.905906841935117 ], [ 98.091994555260953, 13.905734847440394 ], [ 98.091842393291444, 13.905576392020292 ], [ 98.091837654561942, 13.905572322273041 ], [ 98.09152973441438, 13.905571176192707 ], [ 98.091528676313558, 13.905842403904371 ], [ 98.091251022629919, 13.905841370123129 ], [ 98.091248905713613, 13.906383825486278 ], [ 98.090971251406089, 13.906382791347328 ], [ 98.090970192590589, 13.906654018998799 ], [ 98.090692537982491, 13.90665298452307 ], [ 98.090690419636729, 13.907195439765815 ], [ 98.090412764404732, 13.90719440493233 ], [ 98.090411704874469, 13.907465632523589 ], [ 98.089578738344898, 13.907462526065205 ], [ 98.089576617276222, 13.90800498110355 ], [ 98.089021305076912, 13.908002908468113 ], [ 98.089018121363239, 13.908816590853926 ], [ 98.090128749732955, 13.908820735113258 ], [ 98.090129809700215, 13.908549507573461 ], [ 98.090407466526145, 13.908550542827641 ], [ 98.090406406882238, 13.90882177038841 ], [ 98.090684064054244, 13.90882280534769 ], [ 98.090683004710982, 13.909094032923326 ], [ 98.091238319769857, 13.909096101936186 ], [ 98.091236202308664, 13.909638557152997 ], [ 98.091513860518901, 13.909639591227501 ], [ 98.091512802077617, 13.909910818847704 ], [ 98.091790460633931, 13.909911852627259 ], [ 98.09178834433007, 13.910454307891257 ], [ 98.092066003555857, 13.910455341396789 ], [ 98.092064945693295, 13.91072656904057 ], [ 98.092342605265159, 13.910727602251118 ], [ 98.092345777814629, 13.909913919238676 ], [ 98.092068119212939, 13.909912886090918 ], [ 98.09206917700746, 13.909641658428837 ], [ 98.091791518751833, 13.909640624986114 ], [ 98.091793634919554, 13.909098169685528 ], [ 98.091515977333358, 13.909097135968796 ], [ 98.091519152384805, 13.908283453035004 ], [ 98.091796809000954, 13.908284486688911 ], [ 98.091797866982702, 13.908013259011179 ], [ 98.092075523298192, 13.908014292328293 ], [ 98.09207658093392, 13.907743064623528 ], [ 98.092891624525564, 13.90774609598164 ], [ 98.092912619284078, 13.907778792800332 ], [ 98.092801921646199, 13.907606394386622 ] ] ], [ [ [ 98.088462807314912, 13.908814516829029 ], [ 98.088461745384777, 13.90908574423675 ], [ 98.088739402720918, 13.909086781428147 ], [ 98.088740464327685, 13.908815553999414 ], [ 98.088462807314912, 13.908814516829029 ] ] ], [ [ [ 98.087906430780819, 13.909083668906328 ], [ 98.087905368181197, 13.909354896265912 ], [ 98.088183025795132, 13.909355934110089 ], [ 98.088184088071401, 13.90908470672948 ], [ 98.087906430780819, 13.909083668906328 ] ] ], [ [ [ 98.087350053021652, 13.909352819629909 ], [ 98.087348989752485, 13.909624046941326 ], [ 98.087904305558766, 13.909626123619397 ], [ 98.087905368181197, 13.909354896265912 ], [ 98.087350053021652, 13.909352819629909 ] ] ], [ [ [ 98.086516016214105, 13.909620929555045 ], [ 98.086517080453376, 13.909349702306777 ], [ 98.085684108090504, 13.909346582140696 ], [ 98.085683042881115, 13.909617809325754 ], [ 98.084850069753728, 13.909614686253461 ], [ 98.084851135933221, 13.909343459131664 ], [ 98.084573478593171, 13.909342417496893 ], [ 98.08457241209031, 13.909613644597581 ], [ 98.084294754449758, 13.909612602625815 ], [ 98.084292620728647, 13.910155056766689 ], [ 98.084014962464224, 13.910154014436802 ], [ 98.084012828004816, 13.910696468511047 ], [ 98.084290486916018, 13.910697510883159 ], [ 98.084289419975391, 13.910968737932246 ], [ 98.084567079232897, 13.91096978000955 ], [ 98.084563879243987, 13.911783461183534 ], [ 98.084008558811362, 13.911781376586335 ], [ 98.084007491455779, 13.912052603589908 ], [ 98.084285151984091, 13.912053646067591 ], [ 98.084284084929067, 13.912324873086177 ], [ 98.084839406701178, 13.912326957135912 ], [ 98.084840473109338, 13.912055730075119 ], [ 98.084841539494619, 13.911784503008219 ], [ 98.084842605857034, 13.911513275935221 ], [ 98.085120265807092, 13.911514317422876 ], [ 98.085121331823231, 13.911243090322685 ], [ 98.085123463786914, 13.910700636104004 ], [ 98.085678781815133, 13.910702718004996 ], [ 98.085679847115898, 13.910431490844335 ], [ 98.085957505840867, 13.910432531299879 ], [ 98.085958570795398, 13.910161304112043 ], [ 98.086236229219821, 13.910162344230612 ], [ 98.086791546137164, 13.910164423520042 ], [ 98.086792610098698, 13.909893196262919 ], [ 98.087347926460524, 13.909895274246644 ], [ 98.087348989752485, 13.909624046941326 ], [ 98.086516016214105, 13.909620929555045 ] ], [ [ 98.085402188413767, 13.910430450072878 ], [ 98.085404319593522, 13.909887995775419 ], [ 98.085681977648889, 13.909889036504714 ], [ 98.085679847115898, 13.910431490844335 ], [ 98.085402188413767, 13.910430450072878 ] ], [ [ 98.084847937326131, 13.910157140478747 ], [ 98.085125595659164, 13.910158181860924 ], [ 98.085124529734472, 13.910429408985514 ], [ 98.084846871078028, 13.910428367582242 ], [ 98.084847937326131, 13.910157140478747 ] ] ], [ [ [ 98.074819905860522, 13.918256227870538 ], [ 98.074816670040491, 13.919069906322401 ], [ 98.075094338221461, 13.919070959780733 ], [ 98.075097573070693, 13.918257281264887 ], [ 98.07537524030397, 13.91825833434315 ], [ 98.075374162367609, 13.918529560542524 ], [ 98.075651829947574, 13.918530613326006 ], [ 98.075650752311702, 13.91880183954059 ], [ 98.075928420238384, 13.918802892029285 ], [ 98.07593057483983, 13.9182604395514 ], [ 98.075652907560354, 13.918259387105319 ], [ 98.075656140260108, 13.91744570840663 ], [ 98.075378473974467, 13.917444655708401 ], [ 98.075379551818429, 13.91717342948461 ], [ 98.075101885879448, 13.917172376491632 ], [ 98.075102964023856, 13.916901150283056 ], [ 98.074547632862391, 13.916899043391563 ], [ 98.074542238673487, 13.918255174160096 ], [ 98.074819905860522, 13.918256227870538 ] ] ], [ [ [ 98.072893526466018, 13.913909228313241 ], [ 98.072892445987947, 13.914180454418165 ], [ 98.073170108183064, 13.914181509704573 ], [ 98.073171188337653, 13.913910283578277 ], [ 98.072893526466018, 13.913909228313241 ] ] ], [ [ [ 98.07316902800531, 13.914452735824764 ], [ 98.073446690547087, 13.914453790816545 ], [ 98.073447770401344, 13.914182564674984 ], [ 98.073170108183064, 13.914181509704573 ], [ 98.07316902800531, 13.914452735824764 ] ] ], [ [ [ 98.094129808684187, 13.879542559066778 ], [ 98.094128755665082, 13.879813787551402 ], [ 98.094406378572344, 13.879814816170063 ], [ 98.094405325853245, 13.880086044669479 ], [ 98.094682949105746, 13.88008707299382 ], [ 98.094685053876134, 13.879544615947156 ], [ 98.094129808684187, 13.879542559066778 ] ] ], [ [ [ 98.094672423897364, 13.882799357862003 ], [ 98.094950050399049, 13.882800386079808 ], [ 98.095227676923329, 13.882801413982353 ], [ 98.095226624923541, 13.883072642477421 ], [ 98.095504251793116, 13.883073670085558 ], [ 98.095506355124726, 13.882531213047628 ], [ 98.095228728900537, 13.882530185481199 ], [ 98.094951102698928, 13.882529157599512 ], [ 98.094952154976227, 13.882257929113129 ], [ 98.094674529119899, 13.88225690093706 ], [ 98.094672423897364, 13.882799357862003 ] ] ], [ [ [ 98.096577981762195, 13.892570774504655 ], [ 98.096575879342481, 13.89311323125874 ], [ 98.09629824043796, 13.893112204141001 ], [ 98.09629718887129, 13.893383432488077 ], [ 98.096019549666394, 13.893382405034004 ], [ 98.096016393862044, 13.894196089976175 ], [ 98.096294034035878, 13.894197117492761 ], [ 98.096295085670249, 13.893925889163958 ], [ 98.09685036543965, 13.893927943208887 ], [ 98.096851416405514, 13.893656714832341 ], [ 98.09712905600108, 13.893657741360702 ], [ 98.097128005358186, 13.893928969758067 ], [ 98.09740564529929, 13.893929995991725 ], [ 98.097406695619199, 13.893658767573546 ], [ 98.097408796191388, 13.893116310718931 ], [ 98.097131157219209, 13.893115284547703 ], [ 98.097132207794431, 13.892844056132065 ], [ 98.096854569167746, 13.892843029666153 ], [ 98.096855620043371, 13.892571801265245 ], [ 98.096577981762195, 13.892570774504655 ] ] ], [ [ [ 98.09767698480799, 13.895558392415824 ], [ 98.097675934653296, 13.895829620812162 ], [ 98.09795357690048, 13.895830646560359 ], [ 98.097954626732161, 13.895559418143218 ], [ 98.09767698480799, 13.895558392415824 ] ] ], [ [ [ 98.097674884476049, 13.896100849202414 ], [ 98.097673834276264, 13.89637207758657 ], [ 98.097396191405537, 13.896371051481196 ], [ 98.097395140860186, 13.89664227983846 ], [ 98.09711749768897, 13.896641253396695 ], [ 98.097116446798012, 13.89691248172705 ], [ 98.096561159877155, 13.896910427855117 ], [ 98.096560108317519, 13.897181656137747 ], [ 98.096282464567878, 13.897180628707558 ], [ 98.096280360734795, 13.897723085212867 ], [ 98.095725072010993, 13.897721029322335 ], [ 98.095724019414433, 13.897992257524175 ], [ 98.095168730134802, 13.897990200329486 ], [ 98.095167676869494, 13.898261428483526 ], [ 98.095445321821089, 13.898262457259534 ], [ 98.095444268856255, 13.898533685428339 ], [ 98.095721914153543, 13.898534713909571 ], [ 98.095722966795279, 13.898263485719918 ], [ 98.096278256811416, 13.898265541693812 ], [ 98.096279308784389, 13.897994313456389 ], [ 98.097112243008638, 13.897997394987566 ], [ 98.097111192004903, 13.898268623287461 ], [ 98.097388837114522, 13.898269649854095 ], [ 98.097387786411332, 13.898540878168713 ], [ 98.097665431866588, 13.898541904440521 ], [ 98.097664381463943, 13.898813132769853 ], [ 98.097942027264835, 13.898814158746827 ], [ 98.097946227447807, 13.897729245309764 ], [ 98.09822387197886, 13.897730270887937 ], [ 98.098224921645198, 13.897459042492649 ], [ 98.0979472774372, 13.897458016935271 ], [ 98.097948327404083, 13.897186788554682 ], [ 98.098225971289025, 13.89718781409127 ], [ 98.098228070509066, 13.896645357270229 ], [ 98.097950427270234, 13.896644331775228 ], [ 98.09795252704626, 13.896101874971407 ], [ 98.097674884476049, 13.896100849202414 ] ], [ [ 98.096836700830593, 13.89745391154969 ], [ 98.097114344948423, 13.897454938369494 ], [ 98.097113293989807, 13.897726166681576 ], [ 98.096835649548908, 13.897725139840954 ], [ 98.096836700830593, 13.89745391154969 ] ] ], [ [ [ 98.097940977162764, 13.899085387090864 ], [ 98.098218623309293, 13.899086412772995 ], [ 98.098219673088252, 13.89881518440817 ], [ 98.097942027264835, 13.898814158746827 ], [ 98.097940977162764, 13.899085387090864 ] ] ], [ [ [ 98.098217573507796, 13.899357641131727 ], [ 98.098495219999961, 13.899358666518998 ], [ 98.098496269478346, 13.899087438139484 ], [ 98.098218623309293, 13.899086412772995 ], [ 98.098217573507796, 13.899357641131727 ] ] ], [ [ [ 98.097650724178465, 13.90233910049664 ], [ 98.097649673460253, 13.902610328740657 ], [ 98.095983771983867, 13.902604164501387 ], [ 98.095981666601347, 13.903146620721282 ], [ 98.096536968296036, 13.903148676813956 ], [ 98.096536440684602, 13.903284696901837 ], [ 98.096762090064942, 13.903284697139055 ], [ 98.096786789800817, 13.903288276283758 ], [ 98.097013579439292, 13.903299160261598 ], [ 98.097043189756619, 13.903299160279055 ], [ 98.09709138080558, 13.903298669997346 ], [ 98.09754938735189, 13.903289349062767 ], [ 98.097753826740586, 13.903299160697861 ], [ 98.097647024732566, 13.903294034983283 ], [ 98.097647571956216, 13.903152785210414 ], [ 98.098202873921579, 13.903154837514197 ], [ 98.098203924038444, 13.902883609240778 ], [ 98.0982060242046, 13.902341152675646 ], [ 98.097650724178465, 13.90233910049664 ] ] ], [ [ [ 98.108015858749937, 13.903538188832314 ], [ 98.10810141099374, 13.903462441696975 ], [ 98.107919634026274, 13.903461777378208 ], [ 98.107919072784853, 13.903608310403916 ], [ 98.108015858749937, 13.903538188832314 ] ] ], [ [ [ 98.110316611043345, 13.895132672310364 ], [ 98.11024011621258, 13.894923827759762 ], [ 98.11019386160001, 13.894828291680929 ], [ 98.110188858231325, 13.894728817772375 ], [ 98.110227776074851, 13.894622558792074 ], [ 98.110282943996083, 13.894407394268292 ], [ 98.110316257777825, 13.894187983291058 ], [ 98.110318713417698, 13.894139142390754 ], [ 98.110331061512611, 13.89405781536262 ], [ 98.110332429879008, 13.894030599540825 ], [ 98.110340498660833, 13.893977456907102 ], [ 98.109899465876993, 13.893975849937888 ], [ 98.109897394238359, 13.894518308615677 ], [ 98.11017503585532, 13.894519320376174 ], [ 98.110171929199623, 13.895333008408741 ], [ 98.110368164565159, 13.895333723365379 ], [ 98.110371783286681, 13.895347835828399 ], [ 98.110316611043345, 13.895132672310364 ] ] ], [ [ [ 98.110416172239255, 13.888470458418771 ], [ 98.110416171378091, 13.888383679727195 ], [ 98.11041417754349, 13.888336541006121 ], [ 98.110416170516913, 13.888296901134778 ], [ 98.110416170367529, 13.888281835024813 ], [ 98.110198846903501, 13.888281043639445 ], [ 98.110197811885016, 13.888552273129742 ], [ 98.110412019618423, 13.888553053185431 ], [ 98.110409275110555, 13.88860764082486 ], [ 98.110416172239255, 13.888470458418771 ] ] ], [ [ [ 98.110542702178677, 13.888060723518921 ], [ 98.110553715375914, 13.888037975246325 ], [ 98.110557517638469, 13.888031777773412 ], [ 98.110567502695687, 13.888011152698862 ], [ 98.110477515789029, 13.888010825095794 ], [ 98.110476916407109, 13.888167947911878 ], [ 98.110542702178677, 13.888060723518921 ] ] ], [ [ [ 98.096890286284804, 13.883621260619179 ], [ 98.096889236153515, 13.883892489221015 ], [ 98.097166864126663, 13.883893515 ], [ 98.097167913935223, 13.883622286377348 ], [ 98.096890286284804, 13.883621260619179 ] ] ], [ [ [ 98.107677300518077, 13.894238974000737 ], [ 98.107678338910162, 13.893967744823158 ], [ 98.107400698139529, 13.893966730263941 ], [ 98.107401736832301, 13.893695501100844 ], [ 98.107679377279965, 13.893696515639489 ], [ 98.107681453952694, 13.893154057253888 ], [ 98.107403814150985, 13.893153042756392 ], [ 98.107404852776867, 13.892881813575029 ], [ 98.10712721332041, 13.892880798782606 ], [ 98.107128252246952, 13.892609569615736 ], [ 98.107405891380466, 13.892610584387581 ], [ 98.107406929961769, 13.892339355194039 ], [ 98.106851652362934, 13.892337325376023 ], [ 98.106296374853329, 13.892335294296053 ], [ 98.10629533498026, 13.892606523407233 ], [ 98.106572974046841, 13.892607539125564 ], [ 98.106568815623149, 13.893692455591793 ], [ 98.106846456003893, 13.893693471076997 ], [ 98.106845416665166, 13.893964700198925 ], [ 98.107123057391206, 13.893965715389198 ], [ 98.107122018353138, 13.894236944525622 ], [ 98.107399659424459, 13.894237959420947 ], [ 98.107677300518077, 13.894238974000737 ] ] ], [ [ [ 98.106561537522538, 13.895591059173256 ], [ 98.106283894903115, 13.895590043228333 ], [ 98.106282854762156, 13.895861272266439 ], [ 98.106005211842032, 13.895860255985344 ], [ 98.106004171355735, 13.896131484996756 ], [ 98.106559457864364, 13.89613351728458 ], [ 98.106560497704606, 13.895862288231962 ], [ 98.106561537522538, 13.895591059173256 ] ] ], [ [ [ 98.103527289736306, 13.890426517462554 ], [ 98.103249653498978, 13.890425498439141 ], [ 98.10324861023031, 13.890696727365928 ], [ 98.103526246790537, 13.890697746410012 ], [ 98.103527289736306, 13.890426517462554 ] ] ], [ [ [ 98.10547490654271, 13.889348725365311 ], [ 98.105473865946578, 13.889619954481626 ], [ 98.106029136864123, 13.889621987042226 ], [ 98.106030176814528, 13.889350757884683 ], [ 98.105752541667457, 13.889349741782704 ], [ 98.10547490654271, 13.889348725365311 ] ] ], [ [ [ 98.09599850713218, 13.898806970279574 ], [ 98.095999559473412, 13.898535742075174 ], [ 98.095721914153543, 13.898534713909571 ], [ 98.095720861489212, 13.89880594209313 ], [ 98.09599850713218, 13.898806970279574 ] ] ], [ [ [ 98.081506407129964, 13.912585660681392 ], [ 98.081507477442329, 13.912314433880344 ], [ 98.081229816819757, 13.912313388222024 ], [ 98.081228746183939, 13.912584615001897 ], [ 98.081506407129964, 13.912585660681392 ] ] ], [ [ [ 98.084283017851163, 13.912596100098659 ], [ 98.084284084929067, 13.912324873086177 ], [ 98.083728763248459, 13.912322787772624 ], [ 98.083727695523663, 13.912594014742879 ], [ 98.084283017851163, 13.912596100098659 ] ] ], [ [ [ 98.075115899954284, 13.913646435304091 ], [ 98.075116977798274, 13.913375209016174 ], [ 98.075394639208028, 13.913376261710678 ], [ 98.07539356168752, 13.913647488019912 ], [ 98.076226547025783, 13.91365064427149 ], [ 98.076227623575903, 13.913379417898335 ], [ 98.075949962096857, 13.913378366151756 ], [ 98.075953192579064, 13.912564687059573 ], [ 98.075675532093484, 13.912563635060939 ], [ 98.075674454965707, 13.912834861409795 ], [ 98.075396794179781, 13.912833809073891 ], [ 98.075395716705458, 13.913105035395338 ], [ 98.074840394555963, 13.913102929733002 ], [ 98.074839316411627, 13.913374156005696 ], [ 98.074838238244155, 13.913645382272287 ], [ 98.075115899954284, 13.913646435304091 ] ] ], [ [ [ 98.079005312927038, 13.913118691393564 ], [ 98.079007459442792, 13.912576238191443 ], [ 98.079285120204972, 13.912577286398598 ], [ 98.079286193104878, 13.912306059767154 ], [ 98.079008532666151, 13.912305011581227 ], [ 98.079009605866489, 13.912033784964912 ], [ 98.078176625658685, 13.912030638575153 ], [ 98.07817555148803, 13.912301865127738 ], [ 98.07845321185772, 13.91230291426152 ], [ 98.078452137987469, 13.912574140829252 ], [ 98.07872979870362, 13.912575189668326 ], [ 98.078727651540959, 13.913117642827977 ], [ 98.079005312927038, 13.913118691393564 ] ] ], [ [ [ 98.078178773930915, 13.91148818545167 ], [ 98.077345795870954, 13.911485036345985 ], [ 98.077344720776097, 13.911756262846994 ], [ 98.077067061145442, 13.911755212491961 ], [ 98.077065985704095, 13.912026438965592 ], [ 98.078176625658685, 13.912030638575153 ], [ 98.078178773930915, 13.91148818545167 ] ] ], [ [ [ 98.075954269360309, 13.912293460683307 ], [ 98.075953192579064, 13.912564687059573 ], [ 98.07623085308775, 13.912565738742252 ], [ 98.076231929545543, 13.912294512344685 ], [ 98.075954269360309, 13.912293460683307 ] ] ], [ [ [ 98.074285072498938, 13.913100822806797 ], [ 98.074007411505107, 13.913099768869742 ], [ 98.074006332390368, 13.913370995078422 ], [ 98.074283993707667, 13.91337204903682 ], [ 98.074285072498938, 13.913100822806797 ] ] ], [ [ [ 98.074009569665179, 13.912557316434079 ], [ 98.07317658876326, 13.912554152855261 ], [ 98.073175508724447, 13.91282537901207 ], [ 98.07345316932539, 13.91282643387566 ], [ 98.074008490596711, 13.91282854265496 ], [ 98.074009569665179, 13.912557316434079 ] ] ], [ [ [ 98.099417202572539, 13.876307301490915 ], [ 98.099414062646275, 13.877120988332365 ], [ 98.099691682756202, 13.877122010754839 ], [ 98.099689590004715, 13.877664468660234 ], [ 98.100244831582231, 13.877666512642783 ], [ 98.100245877324113, 13.877395283651632 ], [ 98.100523497824014, 13.877396305149459 ], [ 98.100525588595261, 13.876853847107434 ], [ 98.100247968740447, 13.876852825651083 ], [ 98.100249014414914, 13.876581596641683 ], [ 98.099971394905111, 13.876580574890953 ], [ 98.099972440879654, 13.876309345896212 ], [ 98.099417202572539, 13.876307301490915 ] ] ], [ [ [ 98.106648802569936, 13.87280779651155 ], [ 98.1066498404914, 13.872536566935588 ], [ 98.106372225303872, 13.872535552741477 ], [ 98.106371187059992, 13.872806782296841 ], [ 98.106648802569936, 13.87280779651155 ] ] ] ] } }
]
}
