{
"type": "FeatureCollection",
"name": "buildings",
"crs": { "type": "name", "properties": { "name": "urn:ogc:def:crs:OGC:1.3:CRS84" } },
"features": [
{ "type": "Feature", "properties": { "bid": "LHL-B0000", "source": "OSM", "src_id": "505432304", "area_m2": 123.3, "overlap": 0.0, "overlap_outwash": 0.0, "dist_m": 34.2, "landslide": "", "f_veg": 0.339, "f_soil": 0.016, "f_grey": 0.642, "f_dark": 0.004, "status": "clear", "status_auto": "clear", "note": "", "reach": "B" }, "geometry": { "type": "Polygon", "coordinates": [ [ [ 98.157577927280983, 13.765972733925576 ], [ 98.157745927262184, 13.765970733945009 ], [ 98.157745227269686, 13.765909433945252 ], [ 98.157577127288519, 13.765911333925807 ], [ 98.157577927280983, 13.765972733925576 ] ] ] } },
{ "type": "Feature", "properties": { "bid": "LHL-B0001", "source": "OSM", "src_id": "505432305", "area_m2": 52.7, "overlap": 0.0, "overlap_outwash": 0.0, "dist_m": 43.0, "landslide": "", "f_veg": 0.0, "f_soil": 0.003, "f_grey": 0.861, "f_dark": 0.136, "status": "clear", "status_auto": "clear", "note": "", "reach": "B" }, "geometry": { "type": "Polygon", "coordinates": [ [ [ 98.157610127269351, 13.766038633928947 ], [ 98.157698327259169, 13.766040233939135 ], [ 98.157699227265127, 13.765990233939506 ], [ 98.157611027275294, 13.765988733929319 ], [ 98.157610127269351, 13.766038633928947 ] ] ] } },
{ "type": "Feature", "properties": { "bid": "LHL-B0002", "source": "OSM", "src_id": "505432307", "area_m2": 125.4, "overlap": 0.0, "overlap_outwash": 0.0, "dist_m": 142.8, "landslide": "", "f_veg": 0.0, "f_soil": 0.057, "f_grey": 0.943, "f_dark": 0.0, "status": "clear", "status_auto": "clear", "note": "", "reach": "" }, "geometry": { "type": "Polygon", "coordinates": [ [ [ 98.157951427117283, 13.766975533963445 ], [ 98.158074127103731, 13.766972533977651 ], [ 98.158071927114307, 13.766887133977848 ], [ 98.157949227127858, 13.766890133963644 ], [ 98.157951427117283, 13.766975533963445 ] ] ] } },
{ "type": "Feature", "properties": { "bid": "LHL-B0003", "source": "OSM", "src_id": "505432308", "area_m2": 106.1, "overlap": 0.0, "overlap_outwash": 0.0, "dist_m": 165.0, "landslide": "", "f_veg": 0.093, "f_soil": 0.722, "f_grey": 0.185, "f_dark": 0.0, "status": "clear", "status_auto": "clear", "note": "", "reach": "" }, "geometry": { "type": "Polygon", "coordinates": [ [ [ 98.157543427140055, 13.767169633915239 ], [ 98.157657427127063, 13.767170133928419 ], [ 98.157657927136427, 13.767092333928893 ], [ 98.157543927149433, 13.767091733915711 ], [ 98.157543427140055, 13.767169633915239 ] ] ] } },
{ "type": "Feature", "properties": { "bid": "LHL-B0004", "source": "OSM", "src_id": "505432309", "area_m2": 79.3, "overlap": 0.0, "overlap_outwash": 0.0, "dist_m": 172.9, "landslide": "", "f_veg": 1.0, "f_soil": 0.0, "f_grey": 0.0, "f_dark": 0.0, "status": "clear", "status_auto": "clear", "note": "", "reach": "" }, "geometry": { "type": "Polygon", "coordinates": [ [ [ 98.157922127088327, 13.76724223395864 ], [ 98.158005527078473, 13.76724543396827 ], [ 98.158008727087719, 13.76716603396906 ], [ 98.157925327097558, 13.767162933959435 ], [ 98.157922127088327, 13.76724223395864 ] ] ] } },
{ "type": "Feature", "properties": { "bid": "LHL-B0005", "source": "OSM", "src_id": "505432310", "area_m2": 163.2, "overlap": 0.0, "overlap_outwash": 0.0, "dist_m": 196.4, "landslide": "", "f_veg": 0.019, "f_soil": 0.001, "f_grey": 0.98, "f_dark": 0.0, "status": "clear", "status_auto": "clear", "note": "", "reach": "" }, "geometry": { "type": "Polygon", "coordinates": [ [ [ 98.157958627058051, 13.767458033961722 ], [ 98.158120527039344, 13.767461033980428 ], [ 98.158122127049353, 13.767376733981058 ], [ 98.157960227068074, 13.767373833962351 ], [ 98.157958627058051, 13.767458033961722 ] ] ] } },
{ "type": "Feature", "properties": { "bid": "LHL-B0006", "source": "OSM", "src_id": "505432311", "area_m2": 106.7, "overlap": 0.0, "overlap_outwash": 0.0, "dist_m": 211.3, "landslide": "", "f_veg": 0.0, "f_soil": 0.998, "f_grey": 0.002, "f_dark": 0.0, "status": "clear", "status_auto": "clear", "note": "", "reach": "B" }, "geometry": { "type": "Polygon", "coordinates": [ [ [ 98.157549627091583, 13.767564333913864 ], [ 98.157713227071895, 13.767573733932732 ], [ 98.157716527078108, 13.767519333933404 ], [ 98.157552927097782, 13.767510033914535 ], [ 98.157549627091583, 13.767564333913864 ] ] ] } },
{ "type": "Feature", "properties": { "bid": "LHL-B0007", "source": "OSM", "src_id": "505432312", "area_m2": 125.6, "overlap": 0.0, "overlap_outwash": 0.0, "dist_m": 229.7, "landslide": "", "f_veg": 0.184, "f_soil": 0.015, "f_grey": 0.758, "f_dark": 0.043, "status": "clear", "status_auto": "clear", "note": "", "reach": "B" }, "geometry": { "type": "Polygon", "coordinates": [ [ [ 98.157927527025947, 13.767752433956563 ], [ 98.158064427008995, 13.767764233972335 ], [ 98.158071427017418, 13.767688133973543 ], [ 98.157934527034371, 13.767676333957777 ], [ 98.157927527025947, 13.767752433956563 ] ] ] } },
{ "type": "Feature", "properties": { "bid": "LHL-B0008", "source": "OSM", "src_id": "505432313", "area_m2": 73.9, "overlap": 0.0, "overlap_outwash": 0.0, "dist_m": 281.0, "landslide": "", "f_veg": 0.991, "f_soil": 0.001, "f_grey": 0.008, "f_dark": 0.0, "status": "clear", "status_auto": "clear", "note": "", "reach": "B" }, "geometry": { "type": "Polygon", "coordinates": [ [ [ 98.157466627023467, 13.768204933900872 ], [ 98.157558927012715, 13.768207233911532 ], [ 98.157560727020609, 13.768140333912097 ], [ 98.157468427031361, 13.768137933901439 ], [ 98.157466627023467, 13.768204933900872 ] ] ] } },
{ "type": "Feature", "properties": { "bid": "LHL-B0009", "source": "OSM", "src_id": "505432314", "area_m2": 100.7, "overlap": 0.0, "overlap_outwash": 0.0, "dist_m": 297.4, "landslide": "", "f_veg": 0.239, "f_soil": 0.0, "f_grey": 0.742, "f_dark": 0.019, "status": "clear", "status_auto": "clear", "note": "", "reach": "B" }, "geometry": { "type": "Polygon", "coordinates": [ [ [ 98.157428327010365, 13.768349133895676 ], [ 98.157558026994678, 13.768357133910634 ], [ 98.157562227002032, 13.76829243391146 ], [ 98.157432527017704, 13.768284433896508 ], [ 98.157428327010365, 13.768349133895676 ] ] ] } },
{ "type": "Feature", "properties": { "bid": "LHL-B0010", "source": "OSM", "src_id": "505432315", "area_m2": 260.9, "overlap": 0.0, "overlap_outwash": 0.0, "dist_m": 335.9, "landslide": "", "f_veg": 0.108, "f_soil": 0.089, "f_grey": 0.777, "f_dark": 0.026, "status": "clear", "status_auto": "clear", "note": "", "reach": "B" }, "geometry": { "type": "Polygon", "coordinates": [ [ [ 98.157456226955944, 13.768772533896659 ], [ 98.157685526929328, 13.768777633923149 ], [ 98.15768772694058, 13.768682533923906 ], [ 98.15745842696721, 13.76867743389742 ], [ 98.157456226955944, 13.768772533896659 ] ] ] } },
{ "type": "Feature", "properties": { "bid": "LHL-B0011", "source": "OSM", "src_id": "505432316", "area_m2": 199.7, "overlap": 0.0, "overlap_outwash": 0.0, "dist_m": 339.6, "landslide": "", "f_veg": 0.105, "f_soil": 0.0, "f_grey": 0.891, "f_dark": 0.004, "status": "clear", "status_auto": "clear", "note": "", "reach": "B" }, "geometry": { "type": "Polygon", "coordinates": [ [ [ 98.157353426948333, 13.768931733883932 ], [ 98.157550826924648, 13.768942533906701 ], [ 98.157555726934291, 13.768858233907709 ], [ 98.157358426957984, 13.768847333884951 ], [ 98.157353426948333, 13.768931733883932 ] ] ] } },
{ "type": "Feature", "properties": { "bid": "LHL-B0012", "source": "OSM", "src_id": "505432318", "area_m2": 36.6, "overlap": 0.0, "overlap_outwash": 0.0, "dist_m": 339.3, "landslide": "", "f_veg": 0.982, "f_soil": 0.0, "f_grey": 0.014, "f_dark": 0.005, "status": "clear", "status_auto": "clear", "note": "", "reach": "A" }, "geometry": { "type": "Polygon", "coordinates": [ [ [ 98.157218126951548, 13.769032033867747 ], [ 98.15729102694327, 13.769032033876183 ], [ 98.157291026948343, 13.768990033876401 ], [ 98.157218126956636, 13.76899003386797 ], [ 98.157218126951548, 13.769032033867747 ] ] ] } },
{ "type": "Feature", "properties": { "bid": "LHL-B0013", "source": "OSM", "src_id": "505432319", "area_m2": 61.0, "overlap": 0.0, "overlap_outwash": 0.0, "dist_m": 351.8, "landslide": "", "f_veg": 0.143, "f_soil": 0.734, "f_grey": 0.122, "f_dark": 0.001, "status": "clear", "status_auto": "clear", "note": "", "reach": "B" }, "geometry": { "type": "Polygon", "coordinates": [ [ [ 98.157284826931971, 13.769131233874939 ], [ 98.157383426919878, 13.7691385338863 ], [ 98.157387526925646, 13.769087133887046 ], [ 98.15728882693773, 13.769079833875672 ], [ 98.157284826931971, 13.769131233874939 ] ] ] } },
{ "type": "Feature", "properties": { "bid": "LHL-B0014", "source": "OSM", "src_id": "505432320", "area_m2": 145.4, "overlap": 0.0, "overlap_outwash": 0.0, "dist_m": 366.3, "landslide": "", "f_veg": 0.484, "f_soil": 0.224, "f_grey": 0.282, "f_dark": 0.01, "status": "clear", "status_auto": "clear", "note": "", "reach": "B" }, "geometry": { "type": "Polygon", "coordinates": [ [ [ 98.157385426906401, 13.769248233885952 ], [ 98.157505726892154, 13.769253133899836 ], [ 98.157506926895422, 13.769224933900126 ], [ 98.157555726889655, 13.76922693390576 ], [ 98.157557926895663, 13.769175133906284 ], [ 98.157388826915678, 13.769168333886766 ], [ 98.157385426906401, 13.769248233885952 ] ] ] } },
{ "type": "Feature", "properties": { "bid": "LHL-B0015", "source": "OSM", "src_id": "505432321", "area_m2": 128.9, "overlap": null, "overlap_outwash": null, "dist_m": null, "landslide": null, "f_veg": null, "f_soil": null, "f_grey": null, "f_dark": null, "status": "not_surveyed", "status_auto": "not_surveyed", "note": "", "reach": "A" }, "geometry": { "type": "Polygon", "coordinates": [ [ [ 98.1573862, 13.7693746 ], [ 98.157548, 13.7694057 ], [ 98.1575611, 13.7693416 ], [ 98.1573993, 13.7693105 ], [ 98.1573862, 13.7693746 ] ] ] } },
{ "type": "Feature", "properties": { "bid": "LHL-B0016", "source": "OSM", "src_id": "505432322", "area_m2": 129.0, "overlap": null, "overlap_outwash": null, "dist_m": null, "landslide": null, "f_veg": null, "f_soil": null, "f_grey": null, "f_dark": null, "status": "not_surveyed", "status_auto": "not_surveyed", "note": "", "reach": "B" }, "geometry": { "type": "Polygon", "coordinates": [ [ [ 98.157727, 13.7695212 ], [ 98.157791100000011, 13.7695299 ], [ 98.1577883, 13.7695493 ], [ 98.1578399, 13.7695563 ], [ 98.1578545, 13.769454 ], [ 98.1577389, 13.7694384 ], [ 98.157727, 13.7695212 ] ] ] } },
{ "type": "Feature", "properties": { "bid": "LHL-B0017", "source": "OSM", "src_id": "508851998", "area_m2": 115.6, "overlap": 0.0, "overlap_outwash": 0.0, "dist_m": 364.6, "landslide": "", "f_veg": 0.96, "f_soil": 0.0, "f_grey": 0.027, "f_dark": 0.014, "status": "clear", "status_auto": "clear", "note": "", "reach": "" }, "geometry": { "type": "Polygon", "coordinates": [ [ [ 98.15601302813964, 13.760341833774586 ], [ 98.156124228135198, 13.760274333787798 ], [ 98.156083928147325, 13.760211833783467 ], [ 98.155972828151775, 13.760279233770271 ], [ 98.15601302813964, 13.760341833774586 ] ] ] } },
{ "type": "Feature", "properties": { "bid": "LHL-B0018", "source": "OSM", "src_id": "508851999", "area_m2": 73.6, "overlap": 0.0, "overlap_outwash": 0.0, "dist_m": 299.5, "landslide": "", "f_veg": 0.043, "f_soil": 0.021, "f_grey": 0.933, "f_dark": 0.003, "status": "clear", "status_auto": "clear", "note": "", "reach": "B" }, "geometry": { "type": "Polygon", "coordinates": [ [ [ 98.156055028058333, 13.760974733776077 ], [ 98.156146128051049, 13.76094953378673 ], [ 98.15612782806069, 13.760887033784952 ], [ 98.156036728067988, 13.760912133774294 ], [ 98.156055028058333, 13.760974733776077 ] ] ] } },
{ "type": "Feature", "properties": { "bid": "LHL-B0019", "source": "OSM", "src_id": "508852000", "area_m2": 73.4, "overlap": 0.0, "overlap_outwash": 0.0, "dist_m": 309.2, "landslide": "", "f_veg": 0.0, "f_soil": 0.02, "f_grey": 0.98, "f_dark": 0.0, "status": "clear", "status_auto": "clear", "note": "", "reach": "B" }, "geometry": { "type": "Polygon", "coordinates": [ [ [ 98.156277128059813, 13.760754433802912 ], [ 98.15639172805183, 13.76071283381637 ], [ 98.156373528059589, 13.760665833814524 ], [ 98.156259128067532, 13.760707333801086 ], [ 98.156277128059813, 13.760754433802912 ] ] ] } },
{ "type": "Feature", "properties": { "bid": "LHL-B0020", "source": "OSM", "src_id": "508852001", "area_m2": 102.7, "overlap": 0.0, "overlap_outwash": 0.0, "dist_m": 275.8, "landslide": "", "f_veg": 0.002, "f_soil": 0.023, "f_grey": 0.964, "f_dark": 0.011, "status": "clear", "status_auto": "clear", "note": "", "reach": "B" }, "geometry": { "type": "Polygon", "coordinates": [ [ [ 98.156496328006185, 13.76099213382698 ], [ 98.156615127998435, 13.76094493384096 ], [ 98.156589028008895, 13.760882933838271 ], [ 98.156470328016653, 13.760930133824303 ], [ 98.156496328006185, 13.76099213382698 ] ] ] } },
{ "type": "Feature", "properties": { "bid": "LHL-B0021", "source": "OSM", "src_id": "508852002", "area_m2": 150.3, "overlap": 0.0, "overlap_outwash": 0.0, "dist_m": 225.0, "landslide": "", "f_veg": 0.094, "f_soil": 0.498, "f_grey": 0.397, "f_dark": 0.011, "status": "clear", "status_auto": "clear", "note": "", "reach": "" }, "geometry": { "type": "Polygon", "coordinates": [ [ [ 98.157153727900649, 13.761248533901593 ], [ 98.157274327894882, 13.761183233915881 ], [ 98.157228727909668, 13.76110373391103 ], [ 98.157108127915436, 13.761169033896744 ], [ 98.157153727900649, 13.761248533901593 ] ] ] } },
{ "type": "Feature", "properties": { "bid": "LHL-B0022", "source": "OSM", "src_id": "508852003", "area_m2": 210.3, "overlap": 0.0, "overlap_outwash": 0.0, "dist_m": 257.9, "landslide": "", "f_veg": 0.122, "f_soil": 0.502, "f_grey": 0.368, "f_dark": 0.008, "status": "clear", "status_auto": "clear", "note": "", "reach": "" }, "geometry": { "type": "Polygon", "coordinates": [ [ [ 98.156906927957735, 13.761007933874344 ], [ 98.157069827951801, 13.760904233893726 ], [ 98.157018827966738, 13.760828733888228 ], [ 98.156856027972651, 13.760932333868869 ], [ 98.156906927957735, 13.761007933874344 ] ] ] } },
{ "type": "Feature", "properties": { "bid": "LHL-B0023", "source": "OSM", "src_id": "508852004", "area_m2": 102.8, "overlap": 0.0, "overlap_outwash": 0.0, "dist_m": 290.1, "landslide": "", "f_veg": 0.0, "f_soil": 0.042, "f_grey": 0.958, "f_dark": 0.0, "status": "clear", "status_auto": "clear", "note": "", "reach": "" }, "geometry": { "type": "Polygon", "coordinates": [ [ [ 98.156799928002798, 13.760735733863431 ], [ 98.156895627999461, 13.760673433874821 ], [ 98.156852828011836, 13.760611433870199 ], [ 98.156757228015124, 13.760673733858821 ], [ 98.156799928002798, 13.760735733863431 ] ] ] } },
{ "type": "Feature", "properties": { "bid": "LHL-B0024", "source": "OSM", "src_id": "508852005", "area_m2": 117.4, "overlap": 0.0, "overlap_outwash": 0.0, "dist_m": 325.0, "landslide": "", "f_veg": 0.007, "f_soil": 0.289, "f_grey": 0.704, "f_dark": 0.0, "status": "clear", "status_auto": "clear", "note": "", "reach": "" }, "geometry": { "type": "Polygon", "coordinates": [ [ [ 98.156640528054737, 13.760455733846495 ], [ 98.156766828046884, 13.760402233861374 ], [ 98.156737628058082, 13.760336933858346 ], [ 98.156611228065941, 13.760390433843458 ], [ 98.156640528054737, 13.760455733846495 ] ] ] } },
{ "type": "Feature", "properties": { "bid": "LHL-B0025", "source": "OSM", "src_id": "508852006", "area_m2": 119.5, "overlap": 0.0, "overlap_outwash": 0.0, "dist_m": 439.2, "landslide": "", "f_veg": 0.061, "f_soil": 0.014, "f_grey": 0.875, "f_dark": 0.051, "status": "clear", "status_auto": "clear", "note": "", "reach": "B" }, "geometry": { "type": "Polygon", "coordinates": [ [ [ 98.15487252834815, 13.759687033646285 ], [ 98.15500102833937, 13.75963903366139 ], [ 98.154974128350617, 13.759571333658645 ], [ 98.154845628359382, 13.759619333643537 ], [ 98.15487252834815, 13.759687033646285 ] ] ] } },
{ "type": "Feature", "properties": { "bid": "LHL-B0026", "source": "OSM", "src_id": "508852007", "area_m2": 102.3, "overlap": 0.0, "overlap_outwash": 0.0, "dist_m": 435.3, "landslide": "", "f_veg": 0.031, "f_soil": 0.368, "f_grey": 0.592, "f_dark": 0.009, "status": "clear", "status_auto": "clear", "note": "", "reach": "B" }, "geometry": { "type": "Polygon", "coordinates": [ [ [ 98.154814728379733, 13.759479933640712 ], [ 98.154925228373557, 13.759427533653756 ], [ 98.154893828384658, 13.759365033650461 ], [ 98.154783228390869, 13.759417433637408 ], [ 98.154814728379733, 13.759479933640712 ] ] ] } },
{ "type": "Feature", "properties": { "bid": "LHL-B0027", "source": "OSM", "src_id": "508852008", "area_m2": 192.5, "overlap": 0.0, "overlap_outwash": 0.0, "dist_m": 430.0, "landslide": "", "f_veg": 0.037, "f_soil": 0.058, "f_grey": 0.831, "f_dark": 0.074, "status": "clear", "status_auto": "clear", "note": "", "reach": "B" }, "geometry": { "type": "Polygon", "coordinates": [ [ [ 98.154747028410981, 13.759284933633928 ], [ 98.154886728405572, 13.759198733650528 ], [ 98.154833028421592, 13.75911663364476 ], [ 98.154693328427015, 13.759202833628159 ], [ 98.154747028410981, 13.759284933633928 ] ] ] } },
{ "type": "Feature", "properties": { "bid": "LHL-B0028", "source": "OSM", "src_id": "508852009", "area_m2": 113.1, "overlap": null, "overlap_outwash": null, "dist_m": null, "landslide": null, "f_veg": null, "f_soil": null, "f_grey": null, "f_dark": null, "status": "not_surveyed", "status_auto": "not_surveyed", "note": "", "reach": "" }, "geometry": { "type": "Polygon", "coordinates": [ [ [ 98.1544907, 13.7585501 ], [ 98.1545875, 13.7584796 ], [ 98.1545392, 13.758417 ], [ 98.1544425, 13.7584875 ], [ 98.1544907, 13.7585501 ] ] ] } },
{ "type": "Feature", "properties": { "bid": "LHL-B0029", "source": "OSM", "src_id": "508852020", "area_m2": 118.2, "overlap": null, "overlap_outwash": null, "dist_m": null, "landslide": null, "f_veg": null, "f_soil": null, "f_grey": null, "f_dark": null, "status": "not_surveyed", "status_auto": "not_surveyed", "note": "", "reach": "B" }, "geometry": { "type": "Polygon", "coordinates": [ [ [ 98.153564, 13.758326 ], [ 98.153671700000018, 13.7582591 ], [ 98.153628700000013, 13.758194 ], [ 98.1535211, 13.7582609 ], [ 98.153564, 13.758326 ] ] ] } },
{ "type": "Feature", "properties": { "bid": "LHL-B0030", "source": "OSM", "src_id": "508852022", "area_m2": 212.7, "overlap": 0.0, "overlap_outwash": 0.0, "dist_m": 377.8, "landslide": "", "f_veg": 0.764, "f_soil": 0.0, "f_grey": 0.227, "f_dark": 0.009, "status": "clear", "status_auto": "clear", "note": "", "reach": "B" }, "geometry": { "type": "Polygon", "coordinates": [ [ [ 98.15396072858924, 13.758548033547013 ], [ 98.154126128578866, 13.758478633566492 ], [ 98.154085828594404, 13.758388033562319 ], [ 98.153920428604778, 13.758457333542843 ], [ 98.15396072858924, 13.758548033547013 ] ] ] } },
{ "type": "Feature", "properties": { "bid": "LHL-B0031", "source": "OSM", "src_id": "508852023", "area_m2": 147.9, "overlap": null, "overlap_outwash": null, "dist_m": null, "landslide": null, "f_veg": null, "f_soil": null, "f_grey": null, "f_dark": null, "status": "not_surveyed", "status_auto": "not_surveyed", "note": "", "reach": "" }, "geometry": { "type": "Polygon", "coordinates": [ [ [ 98.1547999, 13.7584284 ], [ 98.1549415, 13.7583544 ], [ 98.1549039, 13.7582866 ], [ 98.1547624, 13.7583607 ], [ 98.1547999, 13.7584284 ] ] ] } },
{ "type": "Feature", "properties": { "bid": "LHL-B0032", "source": "OSM", "src_id": "508852024", "area_m2": 96.9, "overlap": 0.0, "overlap_outwash": 0.0, "dist_m": 461.1, "landslide": "", "f_veg": 0.151, "f_soil": 0.038, "f_grey": 0.804, "f_dark": 0.007, "status": "clear", "status_auto": "clear", "note": "", "reach": "" }, "geometry": { "type": "Polygon", "coordinates": [ [ [ 98.154869828464356, 13.758728333651078 ], [ 98.154994228457582, 13.758667833665774 ], [ 98.154967428466918, 13.758615733662959 ], [ 98.154843028473707, 13.758676233648263 ], [ 98.154869828464356, 13.758728333651078 ] ] ] } },
{ "type": "Feature", "properties": { "bid": "LHL-B0033", "source": "OSM", "src_id": "508853705", "area_m2": 91.7, "overlap": 0.0, "overlap_outwash": 0.0, "dist_m": 96.0, "landslide": "", "f_veg": 0.683, "f_soil": 0.201, "f_grey": 0.116, "f_dark": 0.0, "status": "clear", "status_auto": "clear", "note": "", "reach": "" }, "geometry": { "type": "Polygon", "coordinates": [ [ [ 98.157833627703624, 13.762240133974917 ], [ 98.157824627694382, 13.762324933973428 ], [ 98.157914127683142, 13.762333933983726 ], [ 98.157923127692385, 13.762249133985213 ], [ 98.157833627703624, 13.762240133974917 ] ] ] } },
{ "type": "Feature", "properties": { "bid": "LHL-B0034", "source": "OSM", "src_id": "508853707", "area_m2": 101.8, "overlap": 0.0, "overlap_outwash": 0.0, "dist_m": 184.7, "landslide": "", "f_veg": 0.0, "f_soil": 0.247, "f_grey": 0.747, "f_dark": 0.006, "status": "clear", "status_auto": "clear", "note": "", "reach": "" }, "geometry": { "type": "Polygon", "coordinates": [ [ [ 98.157323727850567, 13.761503333919892 ], [ 98.157365827836927, 13.761576633924367 ], [ 98.157454427832675, 13.761528633934862 ], [ 98.15741232784633, 13.761455333930385 ], [ 98.157323727850567, 13.761503333919892 ] ] ] } },
{ "type": "Feature", "properties": { "bid": "LHL-B0035", "source": "OSM", "src_id": "508856998", "area_m2": 72.8, "overlap": 0.0, "overlap_outwash": 0.0, "dist_m": 115.8, "landslide": "", "f_veg": 0.999, "f_soil": 0.001, "f_grey": 0.0, "f_dark": 0.0, "status": "clear", "status_auto": "clear", "note": "", "reach": "" }, "geometry": { "type": "Polygon", "coordinates": [ [ [ 98.15792212716039, 13.766646833961799 ], [ 98.157916427154504, 13.766700733960855 ], [ 98.158028127140469, 13.766711933973708 ], [ 98.15803382714634, 13.766658033974656 ], [ 98.15792212716039, 13.766646833961799 ] ] ] } },
{ "type": "Feature", "properties": { "bid": "LHL-B0036", "source": "OSM", "src_id": "508856999", "area_m2": 121.5, "overlap": 0.0, "overlap_outwash": 0.0, "dist_m": 141.0, "landslide": "", "f_veg": 0.001, "f_soil": 0.023, "f_grey": 0.968, "f_dark": 0.008, "status": "clear", "status_auto": "clear", "note": "", "reach": "B" }, "geometry": { "type": "Polygon", "coordinates": [ [ [ 98.157238227202811, 13.766937233881185 ], [ 98.157354127189137, 13.766941533894562 ], [ 98.157357627199332, 13.766854033895431 ], [ 98.157241527213017, 13.766849733882033 ], [ 98.157238227202811, 13.766937233881185 ] ] ] } },
{ "type": "Feature", "properties": { "bid": "LHL-B0037", "source": "OSM", "src_id": "508874592", "area_m2": 78.4, "overlap": 0.0, "overlap_outwash": 0.0, "dist_m": 380.0, "landslide": "", "f_veg": 0.974, "f_soil": 0.005, "f_grey": 0.02, "f_dark": 0.0, "status": "clear", "status_auto": "clear", "note": "", "reach": "" }, "geometry": { "type": "Polygon", "coordinates": [ [ [ 98.155975728163043, 13.760183233771116 ], [ 98.156083528155051, 13.760148333783757 ], [ 98.156064728163798, 13.76009363378188 ], [ 98.155956928171804, 13.760128533769239 ], [ 98.155975728163043, 13.760183233771116 ] ] ] } },
{ "type": "Feature", "properties": { "bid": "LHL-B0038", "source": "OSM", "src_id": "508874593", "area_m2": 137.1, "overlap": 0.0, "overlap_outwash": 0.0, "dist_m": 322.5, "landslide": "", "f_veg": 0.139, "f_soil": 0.023, "f_grey": 0.789, "f_dark": 0.049, "status": "clear", "status_auto": "clear", "note": "", "reach": "" }, "geometry": { "type": "Polygon", "coordinates": [ [ [ 98.156173328081877, 13.760669233791372 ], [ 98.156305928072754, 13.760620433806954 ], [ 98.156276328085227, 13.760544833803934 ], [ 98.156143828094358, 13.760593633788362 ], [ 98.156173328081877, 13.760669233791372 ] ] ] } },
{ "type": "Feature", "properties": { "bid": "LHL-B0039", "source": "OSM", "src_id": "508874594", "area_m2": 185.8, "overlap": 0.0, "overlap_outwash": 0.0, "dist_m": 235.8, "landslide": "", "f_veg": 0.109, "f_soil": 0.0, "f_grey": 0.889, "f_dark": 0.001, "status": "clear", "status_auto": "clear", "note": "", "reach": "B" }, "geometry": { "type": "Polygon", "coordinates": [ [ [ 98.156571327973467, 13.761192433834584 ], [ 98.156648927948098, 13.761329533842822 ], [ 98.156735927943842, 13.761283033853124 ], [ 98.156658327969225, 13.761145933844885 ], [ 98.156571327973467, 13.761192433834584 ] ] ] } },
{ "type": "Feature", "properties": { "bid": "LHL-B0040", "source": "OSM", "src_id": "1564861847", "area_m2": 33.2, "overlap": 0.0, "overlap_outwash": 0.0, "dist_m": 233.0, "landslide": "", "f_veg": 0.079, "f_soil": 0.05, "f_grey": 0.872, "f_dark": 0.0, "status": "clear", "status_auto": "clear", "note": "", "reach": "B" }, "geometry": { "type": "Polygon", "coordinates": [ [ [ 98.157864627031842, 13.767762833949236 ], [ 98.157913827026164, 13.767763533954923 ], [ 98.157914727032889, 13.767707133955328 ], [ 98.157865527038567, 13.767706333949638 ], [ 98.157864627031842, 13.767762833949236 ] ] ] } },
{ "type": "Feature", "properties": { "bid": "LHL-B0041", "source": "OSM", "src_id": "1564861848", "area_m2": 27.6, "overlap": 0.0, "overlap_outwash": 0.0, "dist_m": 146.9, "landslide": "", "f_veg": 0.278, "f_soil": 0.532, "f_grey": 0.125, "f_dark": 0.065, "status": "clear", "status_auto": "clear", "note": "", "reach": "" }, "geometry": { "type": "Polygon", "coordinates": [ [ [ 98.158105227102027, 13.766957433981325 ], [ 98.158155127096506, 13.766956233987099 ], [ 98.158154027102242, 13.766910033987221 ], [ 98.158104027107754, 13.766911233981432 ], [ 98.158105227102027, 13.766957433981325 ] ] ] } },
{ "type": "Feature", "properties": { "bid": "LHL-B0042", "source": "OSM", "src_id": "1565433088", "area_m2": 57.7, "overlap": null, "overlap_outwash": null, "dist_m": null, "landslide": null, "f_veg": null, "f_soil": null, "f_grey": null, "f_dark": null, "status": "not_surveyed", "status_auto": "not_surveyed", "note": "", "reach": "" }, "geometry": { "type": "Polygon", "coordinates": [ [ [ 98.1543204, 13.7583247 ], [ 98.1543423, 13.7583674 ], [ 98.1544328, 13.7583237 ], [ 98.1544109, 13.7582809 ], [ 98.1543204, 13.7583247 ] ] ] } },
{ "type": "Feature", "properties": { "bid": "LHL-B0043", "source": "OSM", "src_id": "1565433093", "area_m2": 102.4, "overlap": 0.0, "overlap_outwash": 0.0, "dist_m": 485.1, "landslide": "", "f_veg": 0.0, "f_soil": 0.0, "f_grey": 0.996, "f_dark": 0.004, "status": "clear", "status_auto": "clear", "note": "", "reach": "B" }, "geometry": { "type": "Polygon", "coordinates": [ [ [ 98.155342528324496, 13.759441833701901 ], [ 98.155456728316935, 13.759397333715324 ], [ 98.155430128327751, 13.759332833712596 ], [ 98.155315828335347, 13.759377233699157 ], [ 98.155342528324496, 13.759441833701901 ] ] ] } },
{ "type": "Feature", "properties": { "bid": "LHL-B0044", "source": "OSM", "src_id": "1565433094", "area_m2": 147.8, "overlap": 0.0, "overlap_outwash": 0.0, "dist_m": 474.3, "landslide": "", "f_veg": 0.025, "f_soil": 0.0, "f_grey": 0.913, "f_dark": 0.062, "status": "clear", "status_auto": "clear", "note": "", "reach": "B" }, "geometry": { "type": "Polygon", "coordinates": [ [ [ 98.155389828308955, 13.759526033706914 ], [ 98.155537928299495, 13.759465333724348 ], [ 98.155507128311584, 13.75939443372117 ], [ 98.155359028321001, 13.759455233703733 ], [ 98.155389828308955, 13.759526033706914 ] ] ] } },
{ "type": "Feature", "properties": { "bid": "LHL-B0045", "source": "OSM", "src_id": "1565433096", "area_m2": 38.1, "overlap": 0.0, "overlap_outwash": 0.0, "dist_m": 228.4, "landslide": "", "f_veg": 0.949, "f_soil": 0.0, "f_grey": 0.051, "f_dark": 0.0, "status": "clear", "status_auto": "clear", "note": "", "reach": "B" }, "geometry": { "type": "Polygon", "coordinates": [ [ [ 98.15151392892551, 13.758061233266979 ], [ 98.151581828918324, 13.758057133274844 ], [ 98.151578828924329, 13.758010333274751 ], [ 98.151510928931515, 13.758014433266881 ], [ 98.15151392892551, 13.758061233266979 ] ] ] } },
{ "type": "Feature", "properties": { "bid": "LHL-B0046", "source": "OSM", "src_id": "1565483092", "area_m2": 95.0, "overlap": null, "overlap_outwash": null, "dist_m": null, "landslide": null, "f_veg": null, "f_soil": null, "f_grey": null, "f_dark": null, "status": "not_surveyed", "status_auto": "not_surveyed", "note": "", "reach": "A" }, "geometry": { "type": "Polygon", "coordinates": [ [ [ 98.155813600000016, 13.7695215 ], [ 98.1559078, 13.7695177 ], [ 98.1559042, 13.7694335 ], [ 98.15581, 13.7694373 ], [ 98.155813600000016, 13.7695215 ] ] ] } },
{ "type": "Feature", "properties": { "bid": "LHL-B0047", "source": "OSM", "src_id": "1565483095", "area_m2": 200.7, "overlap": 0.0, "overlap_outwash": 0.0, "dist_m": 328.8, "landslide": "", "f_veg": 0.073, "f_soil": 0.0, "f_grey": 0.91, "f_dark": 0.016, "status": "clear", "status_auto": "clear", "note": "", "reach": "A" }, "geometry": { "type": "Polygon", "coordinates": [ [ [ 98.153808028262347, 13.761394433514189 ], [ 98.153893228257147, 13.761357633524227 ], [ 98.153879828262205, 13.761328333522837 ], [ 98.153993228255288, 13.761279233536202 ], [ 98.153966628265309, 13.761221333533436 ], [ 98.15376802827744, 13.761307233510035 ], [ 98.153808028262347, 13.761394433514189 ] ] ] } },
{ "type": "Feature", "properties": { "bid": "LHL-B0048", "source": "OSM", "src_id": "1565483096", "area_m2": 19.1, "overlap": 0.0, "overlap_outwash": 0.0, "dist_m": 331.1, "landslide": "", "f_veg": 0.699, "f_soil": 0.0, "f_grey": 0.301, "f_dark": 0.0, "status": "clear", "status_auto": "clear", "note": "", "reach": "A" }, "geometry": { "type": "Polygon", "coordinates": [ [ [ 98.153707328316841, 13.761038333504455 ], [ 98.153747028314243, 13.761022633509123 ], [ 98.153732628320043, 13.760988133507645 ], [ 98.153692828322633, 13.761003933502961 ], [ 98.153707328316841, 13.761038333504455 ] ] ] } },
{ "type": "Feature", "properties": { "bid": "LHL-B0049", "source": "OSM", "src_id": "1565483097", "area_m2": 9.3, "overlap": 0.0, "overlap_outwash": 0.0, "dist_m": 366.6, "landslide": "", "f_veg": 0.0, "f_soil": 0.0, "f_grey": 1.0, "f_dark": 0.0, "status": "clear", "status_auto": "clear", "note": "", "reach": "B" }, "geometry": { "type": "Polygon", "coordinates": [ [ [ 98.154444628252492, 13.760879233590495 ], [ 98.15446972825012, 13.760875233593415 ], [ 98.154464528254351, 13.760845033592977 ], [ 98.154439528256702, 13.760849133590066 ], [ 98.154444628252492, 13.760879233590495 ] ] ] } },
{ "type": "Feature", "properties": { "bid": "LHL-B0050", "source": "OSM", "src_id": "1565483098", "area_m2": 47.4, "overlap": 0.0, "overlap_outwash": 0.0, "dist_m": 324.3, "landslide": "", "f_veg": 0.015, "f_soil": 0.023, "f_grey": 0.888, "f_dark": 0.074, "status": "clear", "status_auto": "clear", "note": "", "reach": "B" }, "geometry": { "type": "Polygon", "coordinates": [ [ [ 98.153823928419996, 13.76007603352306 ], [ 98.153898828415734, 13.760041033531898 ], [ 98.153877428423357, 13.759998033529653 ], [ 98.153802628427584, 13.760033133520828 ], [ 98.153823928419996, 13.76007603352306 ] ] ] } },
{ "type": "Feature", "properties": { "bid": "LHL-B0051", "source": "OSM", "src_id": "1565483099", "area_m2": 57.4, "overlap": 0.0, "overlap_outwash": 0.0, "dist_m": 362.0, "landslide": "", "f_veg": 0.0, "f_soil": 0.13, "f_grey": 0.87, "f_dark": 0.0, "status": "clear", "status_auto": "clear", "note": "", "reach": "" }, "geometry": { "type": "Polygon", "coordinates": [ [ [ 98.154105228465056, 13.759439533558954 ], [ 98.154188728458294, 13.75941713356872 ], [ 98.154173528466472, 13.759363733567247 ], [ 98.154090028473249, 13.759386133557486 ], [ 98.154105228465056, 13.759439533558954 ] ] ] } },
{ "type": "Feature", "properties": { "bid": "LHL-B0052", "source": "OSM", "src_id": "1565483102", "area_m2": 10.4, "overlap": 0.0, "overlap_outwash": 0.0, "dist_m": 235.5, "landslide": "", "f_veg": 0.109, "f_soil": 0.0, "f_grey": 0.891, "f_dark": 0.0, "status": "clear", "status_auto": "clear", "note": "", "reach": "B" }, "geometry": { "type": "Polygon", "coordinates": [ [ [ 98.155846627996013, 13.761685433748214 ], [ 98.155883627992452, 13.76168023375252 ], [ 98.155880227995596, 13.761657233752244 ], [ 98.155843127999177, 13.761662433747929 ], [ 98.155846627996013, 13.761685433748214 ] ] ] } },
{ "type": "Feature", "properties": { "bid": "LHL-B0053", "source": "OSM", "src_id": "1565584313", "area_m2": 38.8, "overlap": null, "overlap_outwash": null, "dist_m": null, "landslide": null, "f_veg": null, "f_soil": null, "f_grey": null, "f_dark": null, "status": "not_surveyed", "status_auto": "not_surveyed", "note": "", "reach": "B" }, "geometry": { "type": "Polygon", "coordinates": [ [ [ 98.1637305, 13.7641338 ], [ 98.1637873, 13.7641007 ], [ 98.1637614, 13.7640587 ], [ 98.1637046, 13.7640918 ], [ 98.1637305, 13.7641338 ] ] ] } },
{ "type": "Feature", "properties": { "bid": "LHL-B0054", "source": "OSM", "src_id": "1565584314", "area_m2": 41.1, "overlap": 0.0, "overlap_outwash": 0.0, "dist_m": 304.6, "landslide": "", "f_veg": 0.445, "f_soil": 0.024, "f_grey": 0.525, "f_dark": 0.006, "status": "clear", "status_auto": "clear", "note": "", "reach": "" }, "geometry": { "type": "Polygon", "coordinates": [ [ [ 98.160758526995977, 13.765347834296637 ], [ 98.160817926991186, 13.765331734303594 ], [ 98.160802426999425, 13.765278134302081 ], [ 98.160743027004216, 13.765294234295128 ], [ 98.160758526995977, 13.765347834296637 ] ] ] } },
{ "type": "Feature", "properties": { "bid": "LHL-B0055", "source": "OSM", "src_id": "1565584315", "area_m2": 51.3, "overlap": 0.0, "overlap_outwash": 0.0, "dist_m": 285.2, "landslide": "", "f_veg": 1.0, "f_soil": 0.0, "f_grey": 0.0, "f_dark": 0.0, "status": "clear", "status_auto": "clear", "note": "", "reach": "" }, "geometry": { "type": "Polygon", "coordinates": [ [ [ 98.160592627027825, 13.765240034278026 ], [ 98.16066622702229, 13.765216834286656 ], [ 98.160648627030682, 13.765164034284901 ], [ 98.160575027036202, 13.765187334276266 ], [ 98.160592627027825, 13.765240034278026 ] ] ] } },
{ "type": "Feature", "properties": { "bid": "LHL-B0056", "source": "OSM", "src_id": "1565584316", "area_m2": 181.6, "overlap": 0.0, "overlap_outwash": 0.0, "dist_m": 147.7, "landslide": "", "f_veg": 0.015, "f_soil": 0.769, "f_grey": 0.129, "f_dark": 0.087, "status": "clear", "status_auto": "clear", "note": "", "reach": "" }, "geometry": { "type": "Polygon", "coordinates": [ [ [ 98.159227227090796, 13.765998834116131 ], [ 98.159378427074856, 13.765989034133671 ], [ 98.159371527087742, 13.765889034133401 ], [ 98.159220327103682, 13.765898834115861 ], [ 98.159227227090796, 13.765998834116131 ] ] ] } },
{ "type": "Feature", "properties": { "bid": "LHL-B0057", "source": "OSM", "src_id": "1565584317", "area_m2": 55.6, "overlap": 0.0, "overlap_outwash": 0.0, "dist_m": 202.4, "landslide": "", "f_veg": 1.0, "f_soil": 0.0, "f_grey": 0.0, "f_dark": 0.0, "status": "clear", "status_auto": "clear", "note": "", "reach": "" }, "geometry": { "type": "Polygon", "coordinates": [ [ [ 98.159781427059443, 13.765738734181587 ], [ 98.159863527051854, 13.765724634191157 ], [ 98.15985342705963, 13.765669734190277 ], [ 98.159771427067241, 13.765683834180725 ], [ 98.159781427059443, 13.765738734181587 ] ] ] } },
{ "type": "Feature", "properties": { "bid": "LHL-B0058", "source": "OSM", "src_id": "1565584318", "area_m2": 76.6, "overlap": 0.0, "overlap_outwash": 0.0, "dist_m": 223.0, "landslide": "", "f_veg": 1.0, "f_soil": 0.0, "f_grey": 0.0, "f_dark": 0.0, "status": "clear", "status_auto": "clear", "note": "", "reach": "" }, "geometry": { "type": "Polygon", "coordinates": [ [ [ 98.159955827027147, 13.765842234201212 ], [ 98.160054027017424, 13.765830634212628 ], [ 98.160045927026104, 13.765766334212028 ], [ 98.159947827035822, 13.765777934200626 ], [ 98.159955827027147, 13.765842234201212 ] ] ] } },
{ "type": "Feature", "properties": { "bid": "LHL-B0059", "source": "OSM", "src_id": "1565584319", "area_m2": 148.7, "overlap": 0.714, "overlap_outwash": 0.0, "dist_m": 0.0, "landslide": "LL-01", "f_veg": 0.0, "f_soil": 0.869, "f_grey": 0.129, "f_dark": 0.002, "status": "clear", "status_auto": "destroyed", "note": "Chip review: maroon roof intact (read as soil); the yard was already bare on 10 Jan.", "reach": "B" }, "geometry": { "type": "Polygon", "coordinates": [ [ [ 98.15764422731668, 13.765615733935133 ], [ 98.157802727297138, 13.765628633953389 ], [ 98.157809427305793, 13.765550733954576 ], [ 98.157650927325349, 13.765537833936317 ], [ 98.15764422731668, 13.765615733935133 ] ] ] } },
{ "type": "Feature", "properties": { "bid": "LHL-B0060", "source": "OSM", "src_id": "1565584320", "area_m2": 172.0, "overlap": 0.0, "overlap_outwash": 1.0, "dist_m": 27.0, "landslide": "", "f_veg": 0.016, "f_soil": 0.603, "f_grey": 0.344, "f_dark": 0.037, "status": "outwash", "status_auto": "outwash", "note": "", "reach": "" }, "geometry": { "type": "Polygon", "coordinates": [ [ [ 98.158244727502733, 13.763515434015684 ], [ 98.158383927487492, 13.763510934031801 ], [ 98.158384627484921, 13.763531434031773 ], [ 98.158419627481081, 13.763530334035824 ], [ 98.158416227493433, 13.763431434035953 ], [ 98.1582420275125, 13.763437034015787 ], [ 98.158244727502733, 13.763515434015684 ] ] ] } },
{ "type": "Feature", "properties": { "bid": "LHL-B0061", "source": "OSM", "src_id": "1565584321", "area_m2": 91.7, "overlap": 0.301, "overlap_outwash": 0.0, "dist_m": 0.0, "landslide": "LL-01", "f_veg": 0.056, "f_soil": 0.09, "f_grey": 0.82, "f_dark": 0.034, "status": "edge", "status_auto": "damaged", "note": "Chip review: grey roof intact at the mouth of LL-01; the outline caught the roof, debris lies beside it.", "reach": "" }, "geometry": { "type": "Polygon", "coordinates": [ [ [ 98.157967927555816, 13.763336033984634 ], [ 98.15806532754425, 13.76334033399587 ], [ 98.158069027553339, 13.763261733996716 ], [ 98.157971627564905, 13.76325743398548 ], [ 98.157967927555816, 13.763336033984634 ] ] ] } },
{ "type": "Feature", "properties": { "bid": "LHL-B0062", "source": "OSM", "src_id": "1565584322", "area_m2": 100.2, "overlap": 0.0, "overlap_outwash": 0.0, "dist_m": 21.0, "landslide": "", "f_veg": 0.005, "f_soil": 0.626, "f_grey": 0.354, "f_dark": 0.015, "status": "clear", "status_auto": "clear", "note": "", "reach": "" }, "geometry": { "type": "Polygon", "coordinates": [ [ [ 98.157898527602583, 13.763014533978318 ], [ 98.157996927596827, 13.762969833989928 ], [ 98.157963327609096, 13.762899933986418 ], [ 98.157864927614852, 13.762944533974805 ], [ 98.157898527602583, 13.763014533978318 ] ] ] } },
{ "type": "Feature", "properties": { "bid": "LHL-B0063", "source": "OSM", "src_id": "1565584323", "area_m2": 140.5, "overlap": 0.0, "overlap_outwash": 0.0, "dist_m": 123.9, "landslide": "", "f_veg": 0.009, "f_soil": 0.94, "f_grey": 0.025, "f_dark": 0.025, "status": "clear", "status_auto": "clear", "note": "", "reach": "" }, "geometry": { "type": "Polygon", "coordinates": [ [ [ 98.157267427776503, 13.762168233909858 ], [ 98.157389727769399, 13.762112433924285 ], [ 98.157351627783243, 13.762033733920301 ], [ 98.157229327790361, 13.762089533905868 ], [ 98.157267427776503, 13.762168233909858 ] ] ] } },
{ "type": "Feature", "properties": { "bid": "LHL-B0064", "source": "OSM", "src_id": "1565584324", "area_m2": 47.3, "overlap": 0.0, "overlap_outwash": 0.0, "dist_m": 126.3, "landslide": "", "f_veg": 0.005, "f_soil": 0.0, "f_grey": 0.991, "f_dark": 0.004, "status": "clear", "status_auto": "clear", "note": "", "reach": "" }, "geometry": { "type": "Polygon", "coordinates": [ [ [ 98.157412727767607, 13.762105733926978 ], [ 98.157463827765653, 13.762073933933058 ], [ 98.15742752777642, 13.762019033929151 ], [ 98.157376427778345, 13.762050933923076 ], [ 98.157412727767607, 13.762105733926978 ] ] ] } },
{ "type": "Feature", "properties": { "bid": "LHL-B0065", "source": "OSM", "src_id": "1565584325", "area_m2": 23.1, "overlap": 0.0, "overlap_outwash": 0.0, "dist_m": 94.4, "landslide": "", "f_veg": 0.0, "f_soil": 0.028, "f_grey": 0.958, "f_dark": 0.014, "status": "clear", "status_auto": "clear", "note": "", "reach": "B" }, "geometry": { "type": "Polygon", "coordinates": [ [ [ 98.156731127744962, 13.762931733843814 ], [ 98.156779027741607, 13.762914433849449 ], [ 98.15676542774743, 13.76287903384806 ], [ 98.156717527750772, 13.762896333842432 ], [ 98.156731127744962, 13.762931733843814 ] ] ] } },
{ "type": "Feature", "properties": { "bid": "LHL-B0066", "source": "OSM", "src_id": "1565584328", "area_m2": 71.5, "overlap": 0.0, "overlap_outwash": 0.0, "dist_m": 514.7, "landslide": "", "f_veg": 0.22, "f_soil": 0.0, "f_grey": 0.775, "f_dark": 0.005, "status": "clear", "status_auto": "clear", "note": "", "reach": "" }, "geometry": { "type": "Polygon", "coordinates": [ [ [ 98.162754327071895, 13.762851334540564 ], [ 98.162811227066456, 13.762843134547182 ], [ 98.162795627080655, 13.762740334545921 ], [ 98.162738727086122, 13.762748434539301 ], [ 98.162754327071895, 13.762851334540564 ] ] ] } },
{ "type": "Feature", "properties": { "bid": "LHL-B0067", "source": "OSM", "src_id": "1565584329", "area_m2": 53.0, "overlap": 0.0, "overlap_outwash": 0.0, "dist_m": 537.0, "landslide": "", "f_veg": 0.163, "f_soil": 0.01, "f_grey": 0.826, "f_dark": 0.001, "status": "clear", "status_auto": "clear", "note": "", "reach": "" }, "geometry": { "type": "Polygon", "coordinates": [ [ [ 98.162972827030529, 13.762988434565107 ], [ 98.163041427024524, 13.762973934573116 ], [ 98.163027627033543, 13.76291233457184 ], [ 98.162959027039577, 13.762926734563838 ], [ 98.162972827030529, 13.762988434565107 ] ] ] } },
{ "type": "Feature", "properties": { "bid": "LHL-B0068", "source": "OSM", "src_id": "1565584330", "area_m2": 120.8, "overlap": 0.0, "overlap_outwash": 0.0, "dist_m": 549.0, "landslide": "", "f_veg": 0.612, "f_soil": 0.028, "f_grey": 0.36, "f_dark": 0.0, "status": "clear", "status_auto": "clear", "note": "", "reach": "" }, "geometry": { "type": "Polygon", "coordinates": [ [ [ 98.162976727126662, 13.762190634569748 ], [ 98.163049827120602, 13.762172134578302 ], [ 98.163015127140213, 13.762042634574968 ], [ 98.162942127146266, 13.762061034566429 ], [ 98.162976727126662, 13.762190634569748 ] ] ] } },
{ "type": "Feature", "properties": { "bid": "LHL-B0069", "source": "OSM", "src_id": "1565584331", "area_m2": 156.6, "overlap": 0.0, "overlap_outwash": 0.0, "dist_m": 516.1, "landslide": "", "f_veg": 0.024, "f_soil": 0.41, "f_grey": 0.566, "f_dark": 0.0, "status": "clear", "status_auto": "clear", "note": "", "reach": "" }, "geometry": { "type": "Polygon", "coordinates": [ [ [ 98.162681527148536, 13.762286234535116 ], [ 98.162753627139793, 13.762290934543428 ], [ 98.162766127160282, 13.762109934545824 ], [ 98.162694127169019, 13.762105234537524 ], [ 98.162681527148536, 13.762286234535116 ] ] ] } },
{ "type": "Feature", "properties": { "bid": "LHL-B0070", "source": "OSM", "src_id": "1565584332", "area_m2": 43.1, "overlap": 0.0, "overlap_outwash": 0.0, "dist_m": 530.2, "landslide": "", "f_veg": 0.744, "f_soil": 0.087, "f_grey": 0.162, "f_dark": 0.007, "status": "clear", "status_auto": "clear", "note": "", "reach": "" }, "geometry": { "type": "Polygon", "coordinates": [ [ [ 98.162781027155674, 13.762134134547418 ], [ 98.162827927150346, 13.762134134552843 ], [ 98.162827927159654, 13.762057334553241 ], [ 98.162781027164968, 13.762057334547819 ], [ 98.162781027155674, 13.762134134547418 ] ] ] } },
{ "type": "Feature", "properties": { "bid": "LHL-B0071", "source": "OSM", "src_id": "1565584334", "area_m2": 45.2, "overlap": 0.0, "overlap_outwash": 0.0, "dist_m": 541.1, "landslide": "", "f_veg": 0.237, "f_soil": 0.028, "f_grey": 0.735, "f_dark": 0.0, "status": "clear", "status_auto": "clear", "note": "", "reach": "" }, "geometry": { "type": "Polygon", "coordinates": [ [ [ 98.162925327115261, 13.762332834563059 ], [ 98.1629894271084, 13.762329434570491 ], [ 98.162986227115894, 13.762270634570426 ], [ 98.162922127122769, 13.762273934563 ], [ 98.162925327115261, 13.762332834563059 ] ] ] } },
{ "type": "Feature", "properties": { "bid": "LHL-B0072", "source": "OSM", "src_id": "1565584335", "area_m2": 63.4, "overlap": 0.0, "overlap_outwash": 0.0, "dist_m": 522.4, "landslide": "", "f_veg": 0.047, "f_soil": 0.04, "f_grey": 0.91, "f_dark": 0.003, "status": "clear", "status_auto": "clear", "note": "", "reach": "" }, "geometry": { "type": "Polygon", "coordinates": [ [ [ 98.162796927093808, 13.762630434546645 ], [ 98.162850827087468, 13.762632234552871 ], [ 98.162854327098955, 13.76253403455379 ], [ 98.162800327105302, 13.762532234547557 ], [ 98.162796927093808, 13.762630434546645 ] ] ] } },
{ "type": "Feature", "properties": { "bid": "LHL-B0073", "source": "OSM", "src_id": "1565584336", "area_m2": 137.1, "overlap": 0.0, "overlap_outwash": 0.0, "dist_m": 532.0, "landslide": "", "f_veg": 0.036, "f_soil": 0.418, "f_grey": 0.542, "f_dark": 0.003, "status": "clear", "status_auto": "clear", "note": "", "reach": "" }, "geometry": { "type": "Polygon", "coordinates": [ [ [ 98.162872027097805, 13.762527034555873 ], [ 98.16292832709091, 13.762531234562363 ], [ 98.162942127110384, 13.76235753456487 ], [ 98.162866627119627, 13.762351834556176 ], [ 98.16285992711019, 13.762436034554954 ], [ 98.162879127107843, 13.762437434557167 ], [ 98.162872027097805, 13.762527034555873 ] ] ] } },
{ "type": "Feature", "properties": { "bid": "LHL-B0074", "source": "OSM", "src_id": "1565584337", "area_m2": 134.4, "overlap": 0.0, "overlap_outwash": 0.0, "dist_m": 528.4, "landslide": "", "f_veg": 0.477, "f_soil": 0.0, "f_grey": 0.512, "f_dark": 0.012, "status": "clear", "status_auto": "clear", "note": "", "reach": "" }, "geometry": { "type": "Polygon", "coordinates": [ [ [ 98.162857827081766, 13.762672834553468 ], [ 98.162892427060669, 13.762814834556721 ], [ 98.162967327054247, 13.762797634565469 ], [ 98.162932827075352, 13.762655634562227 ], [ 98.162857827081766, 13.762672834553468 ] ] ] } },
{ "type": "Feature", "properties": { "bid": "LHL-B0075", "source": "OSM", "src_id": "1565584338", "area_m2": 66.4, "overlap": 0.0, "overlap_outwash": 0.0, "dist_m": 415.8, "landslide": "", "f_veg": 0.606, "f_soil": 0.02, "f_grey": 0.374, "f_dark": 0.0, "status": "clear", "status_auto": "clear", "note": "", "reach": "" }, "geometry": { "type": "Polygon", "coordinates": [ [ [ 98.161877527068114, 13.763703634434695 ], [ 98.161944527065017, 13.763666434442639 ], [ 98.16190782707676, 13.763604034438721 ], [ 98.161840727079849, 13.763641234430766 ], [ 98.161877527068114, 13.763703634434695 ] ] ] } },
{ "type": "Feature", "properties": { "bid": "LHL-B0076", "source": "OSM", "src_id": "1565584339", "area_m2": 50.8, "overlap": 0.0, "overlap_outwash": 0.0, "dist_m": 527.7, "landslide": "", "f_veg": 0.013, "f_soil": 0.732, "f_grey": 0.189, "f_dark": 0.067, "status": "clear", "status_auto": "clear", "note": "", "reach": "" }, "geometry": { "type": "Polygon", "coordinates": [ [ [ 98.162892226916242, 13.764008334550429 ], [ 98.162954526911534, 13.763988834557736 ], [ 98.162934026921349, 13.763927034555689 ], [ 98.162871626926034, 13.763946634548368 ], [ 98.162892226916242, 13.764008334550429 ] ] ] } },
{ "type": "Feature", "properties": { "bid": "LHL-B0077", "source": "OSM", "src_id": "1565584340", "area_m2": 18.9, "overlap": 0.0, "overlap_outwash": 0.0, "dist_m": 425.9, "landslide": "", "f_veg": 0.262, "f_soil": 0.001, "f_grey": 0.737, "f_dark": 0.0, "status": "clear", "status_auto": "clear", "note": "", "reach": "" }, "geometry": { "type": "Polygon", "coordinates": [ [ [ 98.16166532732376, 13.761789934420236 ], [ 98.161698727319163, 13.761796634424062 ], [ 98.161708427323575, 13.761751134425424 ], [ 98.161675127328152, 13.761744434421608 ], [ 98.16166532732376, 13.761789934420236 ] ] ] } },
{ "type": "Feature", "properties": { "bid": "LHL-B0078", "source": "OSM", "src_id": "1565584341", "area_m2": 39.7, "overlap": 0.0, "overlap_outwash": 0.0, "dist_m": 363.2, "landslide": "", "f_veg": 0.089, "f_soil": 0.0, "f_grey": 0.895, "f_dark": 0.017, "status": "clear", "status_auto": "clear", "note": "", "reach": "" }, "geometry": { "type": "Polygon", "coordinates": [ [ [ 98.157641828005666, 13.759922833965033 ], [ 98.157699428002118, 13.759898233971819 ], [ 98.157677628010418, 13.759849933969559 ], [ 98.157620028013994, 13.759874533962771 ], [ 98.157641828005666, 13.759922833965033 ] ] ] } },
{ "type": "Feature", "properties": { "bid": "LHL-B0079", "source": "OSM", "src_id": "1565634352", "area_m2": 239.5, "overlap": null, "overlap_outwash": null, "dist_m": null, "landslide": null, "f_veg": null, "f_soil": null, "f_grey": null, "f_dark": null, "status": "not_surveyed", "status_auto": "not_surveyed", "note": "", "reach": "B" }, "geometry": { "type": "Polygon", "coordinates": [ [ [ 98.1554369, 13.7586022 ], [ 98.1555542, 13.7585418 ], [ 98.1555193, 13.7584777 ], [ 98.1555563, 13.7584587 ], [ 98.1555277, 13.7584061 ], [ 98.1553732, 13.7584856 ], [ 98.1554369, 13.7586022 ] ] ] } },
{ "type": "Feature", "properties": { "bid": "LHL-B0080", "source": "OSM", "src_id": "1565634378", "area_m2": 208.2, "overlap": 0.0, "overlap_outwash": 0.0, "dist_m": 445.8, "landslide": "", "f_veg": 0.0, "f_soil": 0.796, "f_grey": 0.146, "f_dark": 0.058, "status": "clear", "status_auto": "clear", "note": "", "reach": "B" }, "geometry": { "type": "Polygon", "coordinates": [ [ [ 98.155963728252672, 13.759453433773613 ], [ 98.15600552823895, 13.759527633778051 ], [ 98.156186028230081, 13.759431833799413 ], [ 98.156144228243804, 13.759357533794972 ], [ 98.155963728252672, 13.759453433773613 ] ] ] } },
{ "type": "Feature", "properties": { "bid": "LHL-B0081", "source": "OSM", "src_id": "1565634379", "area_m2": 19.8, "overlap": 0.0, "overlap_outwash": 0.0, "dist_m": 411.9, "landslide": "", "f_veg": 0.155, "f_soil": 0.004, "f_grey": 0.742, "f_dark": 0.099, "status": "clear", "status_auto": "clear", "note": "", "reach": "" }, "geometry": { "type": "Polygon", "coordinates": [ [ [ 98.15664402815392, 13.759632133851275 ], [ 98.156681728152677, 13.759607333855758 ], [ 98.156660728158698, 13.759577133853494 ], [ 98.156623028159984, 13.759601933849007 ], [ 98.15664402815392, 13.759632133851275 ] ] ] } },
{ "type": "Feature", "properties": { "bid": "LHL-B0082", "source": "OSM", "src_id": "1565634380", "area_m2": 199.2, "overlap": 0.0, "overlap_outwash": 0.0, "dist_m": 392.4, "landslide": "", "f_veg": 0.083, "f_soil": 0.731, "f_grey": 0.133, "f_dark": 0.053, "status": "clear", "status_auto": "clear", "note": "", "reach": "" }, "geometry": { "type": "Polygon", "coordinates": [ [ [ 98.156363228172779, 13.759739433818252 ], [ 98.156283428175868, 13.75978883380877 ], [ 98.156299028171233, 13.759812633810444 ], [ 98.156265728172514, 13.759833233806487 ], [ 98.156323428155318, 13.759921233812689 ], [ 98.156436528150962, 13.759851233826131 ], [ 98.156363228172779, 13.759739433818252 ] ] ] } },
{ "type": "Feature", "properties": { "bid": "LHL-B0083", "source": "OSM", "src_id": "1565634381", "area_m2": 146.9, "overlap": 0.0, "overlap_outwash": 0.0, "dist_m": 359.6, "landslide": "", "f_veg": 0.001, "f_soil": 0.878, "f_grey": 0.093, "f_dark": 0.028, "status": "clear", "status_auto": "clear", "note": "", "reach": "" }, "geometry": { "type": "Polygon", "coordinates": [ [ [ 98.156358028126277, 13.760129033815586 ], [ 98.156409728110972, 13.760207133821138 ], [ 98.156521028106738, 13.760137633834374 ], [ 98.156469228122063, 13.7600595338288 ], [ 98.156358028126277, 13.760129033815586 ] ] ] } },
{ "type": "Feature", "properties": { "bid": "LHL-B0084", "source": "OSM", "src_id": "1565634382", "area_m2": 126.0, "overlap": 0.0, "overlap_outwash": 0.0, "dist_m": 340.4, "landslide": "", "f_veg": 0.08, "f_soil": 0.004, "f_grey": 0.83, "f_dark": 0.086, "status": "clear", "status_auto": "clear", "note": "", "reach": "" }, "geometry": { "type": "Polygon", "coordinates": [ [ [ 98.156534628080038, 13.760345733834836 ], [ 98.156660028075336, 13.760267033849749 ], [ 98.156620628086984, 13.76020773384551 ], [ 98.156495228091686, 13.760286433830604 ], [ 98.156534628080038, 13.760345733834836 ] ] ] } },
{ "type": "Feature", "properties": { "bid": "LHL-B0085", "source": "OSM", "src_id": "1565634383", "area_m2": 64.1, "overlap": 0.0, "overlap_outwash": 0.0, "dist_m": 323.8, "landslide": "", "f_veg": 0.0, "f_soil": 0.0, "f_grey": 0.985, "f_dark": 0.015, "status": "clear", "status_auto": "clear", "note": "", "reach": "" }, "geometry": { "type": "Polygon", "coordinates": [ [ [ 98.157136028021156, 13.760268833904744 ], [ 98.157142528012614, 13.760333333905155 ], [ 98.157224828004217, 13.760325633914711 ], [ 98.157218328012775, 13.760261033914299 ], [ 98.157136028021156, 13.760268833904744 ] ] ] } },
{ "type": "Feature", "properties": { "bid": "LHL-B0086", "source": "OSM", "src_id": "1565634384", "area_m2": 71.1, "overlap": 0.0, "overlap_outwash": 0.0, "dist_m": 312.1, "landslide": "", "f_veg": 0.047, "f_soil": 0.0, "f_grey": 0.939, "f_dark": 0.014, "status": "clear", "status_auto": "clear", "note": "", "reach": "" }, "geometry": { "type": "Polygon", "coordinates": [ [ [ 98.156670628045234, 13.760505933849702 ], [ 98.156702728035285, 13.760558233853137 ], [ 98.15678652803166, 13.760509733863076 ], [ 98.156754428041637, 13.76045733385965 ], [ 98.156670628045234, 13.760505933849702 ] ] ] } },
{ "type": "Feature", "properties": { "bid": "LHL-B0087", "source": "OSM", "src_id": "1565634385", "area_m2": 55.4, "overlap": 0.0, "overlap_outwash": 0.0, "dist_m": 266.3, "landslide": "", "f_veg": 0.928, "f_soil": 0.001, "f_grey": 0.071, "f_dark": 0.0, "status": "clear", "status_auto": "clear", "note": "", "reach": "B" }, "geometry": { "type": "Polygon", "coordinates": [ [ [ 98.156297828004909, 13.761188833802992 ], [ 98.156366627999532, 13.761168733811052 ], [ 98.156347428009184, 13.761106933809161 ], [ 98.156278628014562, 13.761127133801107 ], [ 98.156297828004909, 13.761188833802992 ] ] ] } },
{ "type": "Feature", "properties": { "bid": "LHL-B0088", "source": "OSM", "src_id": "1565634386", "area_m2": 60.8, "overlap": 0.0, "overlap_outwash": 0.0, "dist_m": 278.1, "landslide": "", "f_veg": 0.84, "f_soil": 0.004, "f_grey": 0.156, "f_dark": 0.0, "status": "clear", "status_auto": "clear", "note": "", "reach": "B" }, "geometry": { "type": "Polygon", "coordinates": [ [ [ 98.155828428044614, 13.761300633748155 ], [ 98.155890028039678, 13.761283633755365 ], [ 98.155867728051433, 13.761207333753196 ], [ 98.155806028056375, 13.761224333745975 ], [ 98.155828428044614, 13.761300633748155 ] ] ] } },
{ "type": "Feature", "properties": { "bid": "LHL-B0089", "source": "OSM", "src_id": "1565634387", "area_m2": 430.1, "overlap": 0.0, "overlap_outwash": 0.0, "dist_m": 266.1, "landslide": "", "f_veg": 0.917, "f_soil": 0.011, "f_grey": 0.071, "f_dark": 0.001, "status": "clear", "status_auto": "clear", "note": "", "reach": "B" }, "geometry": { "type": "Polygon", "coordinates": [ [ [ 98.155921228033719, 13.761303733758867 ], [ 98.156274628002819, 13.761227933800109 ], [ 98.156252528017063, 13.761130833798072 ], [ 98.155899228047943, 13.761206733756836 ], [ 98.155921228033719, 13.761303733758867 ] ] ] } },
{ "type": "Feature", "properties": { "bid": "LHL-B0090", "source": "OSM", "src_id": "1565634388", "area_m2": 41.0, "overlap": 0.0, "overlap_outwash": 0.0, "dist_m": 187.8, "landslide": "", "f_veg": 0.307, "f_soil": 0.088, "f_grey": 0.598, "f_dark": 0.007, "status": "clear", "status_auto": "clear", "note": "", "reach": "" }, "geometry": { "type": "Polygon", "coordinates": [ [ [ 98.157008027869139, 13.761645633882647 ], [ 98.157068627866337, 13.761611933889828 ], [ 98.157043427874356, 13.761569333887143 ], [ 98.156982827877158, 13.761603033879963 ], [ 98.157008027869139, 13.761645633882647 ] ] ] } },
{ "type": "Feature", "properties": { "bid": "LHL-B0091", "source": "OSM", "src_id": "1565634389", "area_m2": 132.4, "overlap": 0.0, "overlap_outwash": 0.0, "dist_m": 247.0, "landslide": "", "f_veg": 0.027, "f_soil": 0.0, "f_grey": 0.923, "f_dark": 0.05, "status": "clear", "status_auto": "clear", "note": "", "reach": "" }, "geometry": { "type": "Polygon", "coordinates": [ [ [ 98.157051327944785, 13.760979633891187 ], [ 98.157093427930548, 13.761057933895637 ], [ 98.157204527924776, 13.761001533908777 ], [ 98.157162427939014, 13.760923233904327 ], [ 98.157051327944785, 13.760979633891187 ] ] ] } },
{ "type": "Feature", "properties": { "bid": "LHL-B0092", "source": "OSM", "src_id": "1565634390", "area_m2": 109.0, "overlap": 0.0, "overlap_outwash": 0.0, "dist_m": 208.5, "landslide": "", "f_veg": 0.049, "f_soil": 0.015, "f_grey": 0.925, "f_dark": 0.011, "status": "clear", "status_auto": "clear", "note": "", "reach": "" }, "geometry": { "type": "Polygon", "coordinates": [ [ [ 98.157288027877854, 13.761311133916784 ], [ 98.157317127867856, 13.761366433919857 ], [ 98.157447727860912, 13.761301433935293 ], [ 98.157418527870917, 13.761246133932211 ], [ 98.157288027877854, 13.761311133916784 ] ] ] } },
{ "type": "Feature", "properties": { "bid": "LHL-B0093", "source": "OSM", "src_id": "1565634391", "area_m2": 75.2, "overlap": 0.0, "overlap_outwash": 0.0, "dist_m": 163.4, "landslide": "", "f_veg": 0.002, "f_soil": 0.19, "f_grey": 0.802, "f_dark": 0.006, "status": "clear", "status_auto": "clear", "note": "", "reach": "" }, "geometry": { "type": "Polygon", "coordinates": [ [ [ 98.157509827799359, 13.761752133940076 ], [ 98.157603927794185, 13.761706733951197 ], [ 98.157576527803784, 13.761653133948313 ], [ 98.157482427808944, 13.761698533937199 ], [ 98.157509827799359, 13.761752133940076 ] ] ] } },
{ "type": "Feature", "properties": { "bid": "LHL-B0094", "source": "OSM", "src_id": "1565634392", "area_m2": 127.7, "overlap": 0.0, "overlap_outwash": 0.0, "dist_m": 156.2, "landslide": "", "f_veg": 0.177, "f_soil": 0.735, "f_grey": 0.052, "f_dark": 0.036, "status": "clear", "status_auto": "clear", "note": "", "reach": "" }, "geometry": { "type": "Polygon", "coordinates": [ [ [ 98.157169827820994, 13.761891933900042 ], [ 98.157300427813965, 13.761827733915476 ], [ 98.157266527825669, 13.761762633911902 ], [ 98.157135927832712, 13.761826733896466 ], [ 98.157169827820994, 13.761891933900042 ] ] ] } },
{ "type": "Feature", "properties": { "bid": "LHL-B0095", "source": "OSM", "src_id": "1565634393", "area_m2": 68.3, "overlap": 0.0, "overlap_outwash": 0.0, "dist_m": 175.1, "landslide": "", "f_veg": 0.0, "f_soil": 0.001, "f_grey": 0.978, "f_dark": 0.022, "status": "clear", "status_auto": "clear", "note": "", "reach": "" }, "geometry": { "type": "Polygon", "coordinates": [ [ [ 98.158228527732192, 13.761633834023774 ], [ 98.15829282772782, 13.761609634031331 ], [ 98.158262027740676, 13.761532434028185 ], [ 98.158197727745033, 13.761556634020623 ], [ 98.158228527732192, 13.761633834023774 ] ] ] } },
{ "type": "Feature", "properties": { "bid": "LHL-B0096", "source": "OSM", "src_id": "1565634394", "area_m2": 58.8, "overlap": 0.0, "overlap_outwash": 0.0, "dist_m": 123.2, "landslide": "", "f_veg": 0.714, "f_soil": 0.002, "f_grey": 0.265, "f_dark": 0.019, "status": "clear", "status_auto": "clear", "note": "", "reach": "" }, "geometry": { "type": "Polygon", "coordinates": [ [ [ 98.157752727730994, 13.762089633966363 ], [ 98.157826927726589, 13.76205653397512 ], [ 98.157801027736141, 13.762001833972413 ], [ 98.157726827740561, 13.762034933963662 ], [ 98.157752727730994, 13.762089633966363 ] ] ] } },
{ "type": "Feature", "properties": { "bid": "LHL-B0097", "source": "OSM", "src_id": "1565634395", "area_m2": 124.4, "overlap": 0.0, "overlap_outwash": 0.0, "dist_m": 74.1, "landslide": "", "f_veg": 0.007, "f_soil": 0.004, "f_grey": 0.981, "f_dark": 0.009, "status": "clear", "status_auto": "clear", "note": "", "reach": "" }, "geometry": { "type": "Polygon", "coordinates": [ [ [ 98.157961127653905, 13.762531633988109 ], [ 98.158074527648381, 13.76247093400154 ], [ 98.158034627661422, 13.762400533997305 ], [ 98.157921227666947, 13.762461233983874 ], [ 98.157961127653905, 13.762531633988109 ] ] ] } },
{ "type": "Feature", "properties": { "bid": "LHL-B0098", "source": "OSM", "src_id": "1565634396", "area_m2": 151.1, "overlap": 0.0, "overlap_outwash": 0.0, "dist_m": 65.0, "landslide": "", "f_veg": 0.072, "f_soil": 0.362, "f_grey": 0.543, "f_dark": 0.024, "status": "clear", "status_auto": "clear", "note": "", "reach": "" }, "geometry": { "type": "Polygon", "coordinates": [ [ [ 98.157993827649264, 13.762539233991848 ], [ 98.158024627638966, 13.762595533995112 ], [ 98.158078527636235, 13.762567634001492 ], [ 98.158109227625971, 13.762623634004743 ], [ 98.158169927622879, 13.762592334011924 ], [ 98.158108427643441, 13.76248003400541 ], [ 98.157993827649264, 13.762539233991848 ] ] ] } },
{ "type": "Feature", "properties": { "bid": "LHL-B0099", "source": "OSM", "src_id": "1565634397", "area_m2": 135.7, "overlap": 0.0, "overlap_outwash": 0.0, "dist_m": 46.5, "landslide": "", "f_veg": 0.089, "f_soil": 0.81, "f_grey": 0.047, "f_dark": 0.054, "status": "clear", "status_auto": "clear", "note": "", "reach": "" }, "geometry": { "type": "Polygon", "coordinates": [ [ [ 98.158226627586075, 13.762843434017151 ], [ 98.158374027573672, 13.762807834034378 ], [ 98.158355427584553, 13.762735334032607 ], [ 98.158208027596956, 13.762770934015384 ], [ 98.158226627586075, 13.762843434017151 ] ] ] } },
{ "type": "Feature", "properties": { "bid": "LHL-B0100", "source": "OSM", "src_id": "1565634398", "area_m2": 185.1, "overlap": 0.0, "overlap_outwash": 0.0, "dist_m": 165.1, "landslide": "", "f_veg": 0.252, "f_soil": 0.036, "f_grey": 0.694, "f_dark": 0.019, "status": "clear", "status_auto": "clear", "note": "", "reach": "B" }, "geometry": { "type": "Polygon", "coordinates": [ [ [ 98.157022927841169, 13.761862933883215 ], [ 98.157262327828334, 13.761744633911517 ], [ 98.157236227837316, 13.761694833908763 ], [ 98.156981727850948, 13.761820633878681 ], [ 98.157022927841169, 13.761862933883215 ] ] ] } },
{ "type": "Feature", "properties": { "bid": "LHL-B0101", "source": "OSM", "src_id": "1565634399", "area_m2": 28.2, "overlap": 0.0, "overlap_outwash": 0.0, "dist_m": 388.1, "landslide": "", "f_veg": 0.389, "f_soil": 0.001, "f_grey": 0.609, "f_dark": 0.002, "status": "clear", "status_auto": "clear", "note": "", "reach": "" }, "geometry": { "type": "Polygon", "coordinates": [ [ [ 98.161585827194756, 13.762930534405037 ], [ 98.161632127190643, 13.762921134410444 ], [ 98.161621727197712, 13.762872434409495 ], [ 98.161575427201839, 13.76288173440409 ], [ 98.161585827194756, 13.762930534405037 ] ] ] } },
{ "type": "Feature", "properties": { "bid": "LHL-B0102", "source": "OSM", "src_id": "1565636222", "area_m2": 151.4, "overlap": 0.0, "overlap_outwash": 0.0, "dist_m": 69.4, "landslide": "", "f_veg": 0.019, "f_soil": 0.917, "f_grey": 0.039, "f_dark": 0.025, "status": "clear", "status_auto": "clear", "note": "", "reach": "B" }, "geometry": { "type": "Polygon", "coordinates": [ [ [ 98.157494227249899, 13.766308133914119 ], [ 98.157646927232179, 13.76631143393176 ], [ 98.157648827241999, 13.76622853393242 ], [ 98.157496127259705, 13.766225233914776 ], [ 98.157494227249899, 13.766308133914119 ] ] ] } },
{ "type": "Feature", "properties": { "bid": "LHL-B0103", "source": "OSM", "src_id": "1565636223", "area_m2": 80.4, "overlap": 0.0, "overlap_outwash": 0.0, "dist_m": 58.1, "landslide": "", "f_veg": 0.048, "f_soil": 0.025, "f_grey": 0.887, "f_dark": 0.04, "status": "clear", "status_auto": "clear", "note": "", "reach": "B" }, "geometry": { "type": "Polygon", "coordinates": [ [ [ 98.157582927254168, 13.766189633925004 ], [ 98.157688427242235, 13.766189333937202 ], [ 98.157688227249977, 13.766125633937516 ], [ 98.157582727261911, 13.76612593392532 ], [ 98.157582927254168, 13.766189633925004 ] ] ] } },
{ "type": "Feature", "properties": { "bid": "LHL-B0104", "source": "OSM", "src_id": "1565636224", "area_m2": 52.7, "overlap": 0.0, "overlap_outwash": 0.0, "dist_m": 33.9, "landslide": "", "f_veg": 0.058, "f_soil": 0.032, "f_grey": 0.909, "f_dark": 0.0, "status": "clear", "status_auto": "clear", "note": "", "reach": "B" }, "geometry": { "type": "Polygon", "coordinates": [ [ [ 98.15745062729809, 13.765950733910971 ], [ 98.157538827287908, 13.76595233392116 ], [ 98.157539727293823, 13.765902333921533 ], [ 98.157451527304033, 13.765900833911342 ], [ 98.15745062729809, 13.765950733910971 ] ] ] } },
{ "type": "Feature", "properties": { "bid": "LHL-B0105", "source": "OSM", "src_id": "1565636225", "area_m2": 37.8, "overlap": 0.0, "overlap_outwash": 0.0, "dist_m": 203.2, "landslide": "", "f_veg": 0.772, "f_soil": 0.0, "f_grey": 0.228, "f_dark": 0.0, "status": "clear", "status_auto": "clear", "note": "", "reach": "B" }, "geometry": { "type": "Polygon", "coordinates": [ [ [ 98.157377627121448, 13.76747873389443 ], [ 98.157443627113935, 13.767479033902063 ], [ 98.157443827119707, 13.76743113390234 ], [ 98.15737782712722, 13.767430833894707 ], [ 98.157377627121448, 13.76747873389443 ] ] ] } },
{ "type": "Feature", "properties": { "bid": "LHL-B0106", "source": "OSM", "src_id": "1565636226", "area_m2": 188.4, "overlap": 0.0, "overlap_outwash": 0.0, "dist_m": 271.0, "landslide": "", "f_veg": 0.518, "f_soil": 0.042, "f_grey": 0.439, "f_dark": 0.001, "status": "clear", "status_auto": "clear", "note": "", "reach": "B" }, "geometry": { "type": "Polygon", "coordinates": [ [ [ 98.157464627042117, 13.768052733901445 ], [ 98.157465427033287, 13.768124933901158 ], [ 98.157683527008828, 13.768122633926392 ], [ 98.157682727017672, 13.768050333926679 ], [ 98.157464627042117, 13.768052733901445 ] ] ] } },
{ "type": "Feature", "properties": { "bid": "LHL-B0107", "source": "OSM", "src_id": "1565636227", "area_m2": 85.3, "overlap": 0.0, "overlap_outwash": 0.0, "dist_m": 297.9, "landslide": "", "f_veg": 0.265, "f_soil": 0.016, "f_grey": 0.715, "f_dark": 0.004, "status": "clear", "status_auto": "clear", "note": "", "reach": "B" }, "geometry": { "type": "Polygon", "coordinates": [ [ [ 98.157591026989579, 13.768368333914392 ], [ 98.157685826978351, 13.768372333925335 ], [ 98.157689226987046, 13.768297233926122 ], [ 98.157594426998273, 13.768293233915182 ], [ 98.157591026989579, 13.768368333914392 ] ] ] } },
{ "type": "Feature", "properties": { "bid": "LHL-B0108", "source": "OSM", "src_id": "1565636228", "area_m2": 57.5, "overlap": 0.0, "overlap_outwash": 0.0, "dist_m": 313.5, "landslide": "", "f_veg": 0.464, "f_soil": 0.0, "f_grey": 0.531, "f_dark": 0.005, "status": "clear", "status_auto": "clear", "note": "", "reach": "B" }, "geometry": { "type": "Polygon", "coordinates": [ [ [ 98.157528726982292, 13.768486833906557 ], [ 98.157619726971461, 13.768491033917057 ], [ 98.157622326977545, 13.76843833391764 ], [ 98.157531326988376, 13.768434133907137 ], [ 98.157528726982292, 13.768486833906557 ] ] ] } },
{ "type": "Feature", "properties": { "bid": "LHL-B0109", "source": "OSM", "src_id": "1565636229", "area_m2": 250.2, "overlap": 0.0, "overlap_outwash": 0.0, "dist_m": 322.3, "landslide": "", "f_veg": 0.007, "f_soil": 0.727, "f_grey": 0.261, "f_dark": 0.004, "status": "clear", "status_auto": "clear", "note": "", "reach": "B" }, "geometry": { "type": "Polygon", "coordinates": [ [ [ 98.157603426955347, 13.768639533914389 ], [ 98.157608026967594, 13.768534133915479 ], [ 98.157443526987066, 13.768527333896495 ], [ 98.157441626981992, 13.768571033896038 ], [ 98.157384226988796, 13.768568633889418 ], [ 98.157381626981618, 13.76863043388879 ], [ 98.157603426955347, 13.768639533914389 ] ] ] } },
{ "type": "Feature", "properties": { "bid": "LHL-B0110", "source": "OSM", "src_id": "1565636230", "area_m2": 200.4, "overlap": 0.0, "overlap_outwash": 0.0, "dist_m": 355.9, "landslide": "", "f_veg": 0.462, "f_soil": 0.08, "f_grey": 0.438, "f_dark": 0.02, "status": "clear", "status_auto": "clear", "note": "", "reach": "B" }, "geometry": { "type": "Polygon", "coordinates": [ [ [ 98.157403326923898, 13.769086833888872 ], [ 98.157633126896314, 13.769099333915383 ], [ 98.157637326904648, 13.769026633916257 ], [ 98.157407526932232, 13.769014133889748 ], [ 98.157403326923898, 13.769086833888872 ] ] ] } },
{ "type": "Feature", "properties": { "bid": "LHL-B0111", "source": "OSM", "src_id": "1565640664", "area_m2": 98.4, "overlap": null, "overlap_outwash": null, "dist_m": null, "landslide": null, "f_veg": null, "f_soil": null, "f_grey": null, "f_dark": null, "status": "not_surveyed", "status_auto": "not_surveyed", "note": "", "reach": "B" }, "geometry": { "type": "Polygon", "coordinates": [ [ [ 98.1577256, 13.7696518 ], [ 98.1578393, 13.7696635 ], [ 98.1578471, 13.7695919 ], [ 98.1577334, 13.7695802 ], [ 98.1577256, 13.7696518 ] ] ] } },
{ "type": "Feature", "properties": { "bid": "LHL-B0112", "source": "OSM", "src_id": "1565640665", "area_m2": 157.0, "overlap": 0.0, "overlap_outwash": 0.0, "dist_m": 377.8, "landslide": "", "f_veg": 0.307, "f_soil": 0.075, "f_grey": 0.617, "f_dark": 0.001, "status": "clear", "status_auto": "clear", "note": "", "reach": "B" }, "geometry": { "type": "Polygon", "coordinates": [ [ [ 98.157776526881534, 13.769087133932036 ], [ 98.157973026859949, 13.769081233954788 ], [ 98.157970926868273, 13.769014533954898 ], [ 98.157774426889873, 13.769020333932145 ], [ 98.157776526881534, 13.769087133932036 ] ] ] } },
{ "type": "Feature", "properties": { "bid": "LHL-B0113", "source": "OSM", "src_id": "1565640666", "area_m2": 53.8, "overlap": 0.0, "overlap_outwash": 0.0, "dist_m": 275.2, "landslide": "", "f_veg": 0.0, "f_soil": 0.389, "f_grey": 0.611, "f_dark": 0.0, "status": "clear", "status_auto": "clear", "note": "", "reach": "B" }, "geometry": { "type": "Polygon", "coordinates": [ [ [ 98.157915126978921, 13.768152633953013 ], [ 98.157972426972535, 13.768151833959642 ], [ 98.157971426980467, 13.768087133959865 ], [ 98.157889726989595, 13.768088233950415 ], [ 98.157915126978921, 13.768152633953013 ] ] ] } },
{ "type": "Feature", "properties": { "bid": "LHL-B0114", "source": "OSM", "src_id": "1565640667", "area_m2": 121.1, "overlap": 0.0, "overlap_outwash": 0.0, "dist_m": 184.1, "landslide": "", "f_veg": 0.0, "f_soil": 0.592, "f_grey": 0.408, "f_dark": 0.0, "status": "clear", "status_auto": "clear", "note": "", "reach": "" }, "geometry": { "type": "Polygon", "coordinates": [ [ [ 98.157942927074458, 13.767337333960548 ], [ 98.15808102705877, 13.767337633976513 ], [ 98.158081227067598, 13.767264333976925 ], [ 98.157943127083328, 13.767263933960956 ], [ 98.157942927074458, 13.767337333960548 ] ] ] } },
{ "type": "Feature", "properties": { "bid": "LHL-B0115", "source": "OSM", "src_id": "1565640668", "area_m2": 91.9, "overlap": 0.0, "overlap_outwash": 0.0, "dist_m": 159.8, "landslide": "", "f_veg": 0.161, "f_soil": 0.005, "f_grey": 0.834, "f_dark": 0.0, "status": "clear", "status_auto": "clear", "note": "", "reach": "" }, "geometry": { "type": "Polygon", "coordinates": [ [ [ 98.15795952709982, 13.767112133963661 ], [ 98.158075727088217, 13.76709913397716 ], [ 98.158068027097002, 13.767033833976619 ], [ 98.157951827108604, 13.767046833963112 ], [ 98.15795952709982, 13.767112133963661 ] ] ] } },
{ "type": "Feature", "properties": { "bid": "LHL-B0116", "source": "OSM", "src_id": "1565640669", "area_m2": 47.0, "overlap": 0.0, "overlap_outwash": 0.0, "dist_m": 185.9, "landslide": "", "f_veg": 0.639, "f_soil": 0.345, "f_grey": 0.016, "f_dark": 0.0, "status": "clear", "status_auto": "clear", "note": "", "reach": "" }, "geometry": { "type": "Polygon", "coordinates": [ [ [ 98.158368627034633, 13.767267434010142 ], [ 98.158443127027311, 13.767258034018807 ], [ 98.158436227034386, 13.767206134018283 ], [ 98.1583616270417, 13.767215634009604 ], [ 98.158368627034633, 13.767267434010142 ] ] ] } },
{ "type": "Feature", "properties": { "bid": "LHL-B0117", "source": "OSM", "src_id": "1565640670", "area_m2": 47.0, "overlap": 0.0, "overlap_outwash": 0.0, "dist_m": 117.6, "landslide": "", "f_veg": 0.0, "f_soil": 0.008, "f_grey": 0.931, "f_dark": 0.061, "status": "clear", "status_auto": "clear", "note": "", "reach": "" }, "geometry": { "type": "Polygon", "coordinates": [ [ [ 98.158326127116823, 13.766628234008612 ], [ 98.158400727109495, 13.766618834017288 ], [ 98.158393727116561, 13.766566934016758 ], [ 98.158319227123883, 13.766576334008086 ], [ 98.158326127116823, 13.766628234008612 ] ] ] } },
{ "type": "Feature", "properties": { "bid": "LHL-B0118", "source": "OSM", "src_id": "1565640671", "area_m2": 47.0, "overlap": 0.0, "overlap_outwash": 0.0, "dist_m": 135.5, "landslide": "", "f_veg": 0.906, "f_soil": 0.0, "f_grey": 0.094, "f_dark": 0.0, "status": "clear", "status_auto": "clear", "note": "", "reach": "" }, "geometry": { "type": "Polygon", "coordinates": [ [ [ 98.157886227135677, 13.766884633956385 ], [ 98.157960827128363, 13.766875133965065 ], [ 98.157953827135415, 13.766823333964531 ], [ 98.157879327142737, 13.766832733955868 ], [ 98.157886227135677, 13.766884633956385 ] ] ] } },
{ "type": "Feature", "properties": { "bid": "LHL-B0119", "source": "OSM", "src_id": "1565640672", "area_m2": 145.9, "overlap": 0.0, "overlap_outwash": 0.0, "dist_m": 130.6, "landslide": "", "f_veg": 0.234, "f_soil": 0.0, "f_grey": 0.766, "f_dark": 0.0, "status": "clear", "status_auto": "clear", "note": "", "reach": "" }, "geometry": { "type": "Polygon", "coordinates": [ [ [ 98.157998127126675, 13.766854033969489 ], [ 98.158156827111128, 13.766833833987945 ], [ 98.15814662712144, 13.766758233987169 ], [ 98.157987927136986, 13.76677843396871 ], [ 98.157998127126675, 13.766854033969489 ] ] ] } },
{ "type": "Feature", "properties": { "bid": "LHL-B0120", "source": "OSM", "src_id": "1565640673", "area_m2": 108.4, "overlap": 0.0, "overlap_outwash": 0.0, "dist_m": 94.2, "landslide": "", "f_veg": 0.0, "f_soil": 0.952, "f_grey": 0.02, "f_dark": 0.028, "status": "clear", "status_auto": "clear", "note": "", "reach": "" }, "geometry": { "type": "Polygon", "coordinates": [ [ [ 98.157969827171797, 13.766507833968051 ], [ 98.158120827154391, 13.766510133985495 ], [ 98.158121827161537, 13.766450133985931 ], [ 98.157970827178943, 13.766447833968488 ], [ 98.157969827171797, 13.766507833968051 ] ] ] } },
{ "type": "Feature", "properties": { "bid": "LHL-B0121", "source": "OSM", "src_id": "1565640674", "area_m2": 108.4, "overlap": 0.0, "overlap_outwash": 0.0, "dist_m": 86.1, "landslide": "", "f_veg": 0.001, "f_soil": 0.001, "f_grey": 0.938, "f_dark": 0.06, "status": "clear", "status_auto": "clear", "note": "", "reach": "" }, "geometry": { "type": "Polygon", "coordinates": [ [ [ 98.157933227184486, 13.766437133964192 ], [ 98.158084227167109, 13.766439433981642 ], [ 98.15808522717424, 13.766379433982078 ], [ 98.157934227191632, 13.76637713396463 ], [ 98.157933227184486, 13.766437133964192 ] ] ] } },
{ "type": "Feature", "properties": { "bid": "LHL-B0122", "source": "OSM", "src_id": "1565640675", "area_m2": 127.7, "overlap": 0.0, "overlap_outwash": 0.0, "dist_m": 77.9, "landslide": "", "f_veg": 0.024, "f_soil": 0.005, "f_grey": 0.964, "f_dark": 0.007, "status": "clear", "status_auto": "clear", "note": "", "reach": "" }, "geometry": { "type": "Polygon", "coordinates": [ [ [ 98.157930527193983, 13.766361333964282 ], [ 98.158112427172583, 13.766367633985279 ], [ 98.15811462717943, 13.766309033985847 ], [ 98.15793272720083, 13.766302633964846 ], [ 98.157930527193983, 13.766361333964282 ] ] ] } },
{ "type": "Feature", "properties": { "bid": "LHL-B0123", "source": "OSM", "src_id": "1565640676", "area_m2": 43.2, "overlap": 0.0, "overlap_outwash": 0.0, "dist_m": 322.7, "landslide": "", "f_veg": 0.283, "f_soil": 0.032, "f_grey": 0.681, "f_dark": 0.005, "status": "clear", "status_auto": "clear", "note": "", "reach": "" }, "geometry": { "type": "Polygon", "coordinates": [ [ [ 98.16061102682464, 13.766901534271387 ], [ 98.160660526820351, 13.766890734277167 ], [ 98.160644426830572, 13.76682133427567 ], [ 98.160594926834875, 13.76683213426989 ], [ 98.16061102682464, 13.766901534271387 ] ] ] } },
{ "type": "Feature", "properties": { "bid": "LHL-B0124", "source": "OSM", "src_id": "1565640677", "area_m2": 82.1, "overlap": 0.0, "overlap_outwash": 0.0, "dist_m": 295.1, "landslide": "", "f_veg": 0.0, "f_soil": 0.218, "f_grey": 0.765, "f_dark": 0.018, "status": "clear", "status_auto": "clear", "note": "", "reach": "" }, "geometry": { "type": "Polygon", "coordinates": [ [ [ 98.160445426869643, 13.766684934253378 ], [ 98.160523726864099, 13.766657234262583 ], [ 98.160494726876763, 13.76657983425963 ], [ 98.160416426882293, 13.766607534250431 ], [ 98.160445426869643, 13.766684934253378 ] ] ] } },
{ "type": "Feature", "properties": { "bid": "LHL-B0125", "source": "OSM", "src_id": "1565640678", "area_m2": 125.5, "overlap": 0.0, "overlap_outwash": 0.0, "dist_m": 263.4, "landslide": "", "f_veg": 0.146, "f_soil": 0.168, "f_grey": 0.669, "f_dark": 0.017, "status": "clear", "status_auto": "clear", "note": "", "reach": "" }, "geometry": { "type": "Polygon", "coordinates": [ [ [ 98.160093726898495, 13.766775934212228 ], [ 98.160178326892577, 13.766745534222171 ], [ 98.16013322691208, 13.766626834217581 ], [ 98.160078026915912, 13.76664663421109 ], [ 98.160088426911429, 13.766674034212148 ], [ 98.160059026913487, 13.766684534208695 ], [ 98.160093726898495, 13.766775934212228 ] ] ] } },
{ "type": "Feature", "properties": { "bid": "LHL-B0126", "source": "OSM", "src_id": "1565640679", "area_m2": 124.1, "overlap": 0.0, "overlap_outwash": 0.0, "dist_m": 245.6, "landslide": "", "f_veg": 0.049, "f_soil": 0.229, "f_grey": 0.716, "f_dark": 0.005, "status": "clear", "status_auto": "clear", "note": "", "reach": "" }, "geometry": { "type": "Polygon", "coordinates": [ [ [ 98.15986362691828, 13.766828134185344 ], [ 98.159972426909277, 13.766800434198069 ], [ 98.159948226922836, 13.766711134195745 ], [ 98.159839526931819, 13.766738834183027 ], [ 98.15986362691828, 13.766828134185344 ] ] ] } },
{ "type": "Feature", "properties": { "bid": "LHL-B0127", "source": "OSM", "src_id": "1565640680", "area_m2": 62.7, "overlap": 0.0, "overlap_outwash": 0.0, "dist_m": 234.6, "landslide": "", "f_veg": 0.024, "f_soil": 0.031, "f_grey": 0.941, "f_dark": 0.004, "status": "clear", "status_auto": "clear", "note": "", "reach": "" }, "geometry": { "type": "Polygon", "coordinates": [ [ [ 98.159669126931959, 13.766897334162481 ], [ 98.159748826925409, 13.766876634171808 ], [ 98.159731926934768, 13.766815234170181 ], [ 98.159652226941304, 13.766836034160855 ], [ 98.159669126931959, 13.766897334162481 ] ] ] } },
{ "type": "Feature", "properties": { "bid": "LHL-B0128", "source": "OSM", "src_id": "1565640681", "area_m2": 147.0, "overlap": 0.0, "overlap_outwash": 0.0, "dist_m": 253.4, "landslide": "", "f_veg": 0.033, "f_soil": 0.09, "f_grey": 0.822, "f_dark": 0.056, "status": "clear", "status_auto": "clear", "note": "", "reach": "" }, "geometry": { "type": "Polygon", "coordinates": [ [ [ 98.160189026919355, 13.766514334224626 ], [ 98.160184826935449, 13.766385434224821 ], [ 98.160089526945868, 13.766388434213786 ], [ 98.160093826929796, 13.766517334213605 ], [ 98.160189026919355, 13.766514334224626 ] ] ] } },
{ "type": "Feature", "properties": { "bid": "LHL-B0129", "source": "OSM", "src_id": "1565640682", "area_m2": 97.3, "overlap": 0.0, "overlap_outwash": 0.0, "dist_m": 266.2, "landslide": "", "f_veg": 0.153, "f_soil": 0.147, "f_grey": 0.7, "f_dark": 0.0, "status": "clear", "status_auto": "clear", "note": "", "reach": "" }, "geometry": { "type": "Polygon", "coordinates": [ [ [ 98.160277026925556, 13.76638073423551 ], [ 98.160355626919156, 13.766359934244711 ], [ 98.16032852693391, 13.766263534242084 ], [ 98.160249926940281, 13.766284434232881 ], [ 98.160277026925556, 13.76638073423551 ] ] ] } },
{ "type": "Feature", "properties": { "bid": "LHL-B0130", "source": "OSM", "src_id": "1565640683", "area_m2": 8.3, "overlap": 0.0, "overlap_outwash": 0.0, "dist_m": 310.2, "landslide": "", "f_veg": 1.0, "f_soil": 0.0, "f_grey": 0.0, "f_dark": 0.0, "status": "clear", "status_auto": "clear", "note": "", "reach": "" }, "geometry": { "type": "Polygon", "coordinates": [ [ [ 98.160613326869623, 13.766527834273624 ], [ 98.16064002686764, 13.766519134276759 ], [ 98.160631926871389, 13.766495834275943 ], [ 98.160605226873344, 13.766504634272808 ], [ 98.160613326869623, 13.766527834273624 ] ] ] } },
{ "type": "Feature", "properties": { "bid": "LHL-B0131", "source": "OSM", "src_id": "1565640684", "area_m2": 22.0, "overlap": 0.0, "overlap_outwash": 0.0, "dist_m": 359.9, "landslide": "", "f_veg": 0.273, "f_soil": 0.0, "f_grey": 0.677, "f_dark": 0.05, "status": "clear", "status_auto": "clear", "note": "", "reach": "" }, "geometry": { "type": "Polygon", "coordinates": [ [ [ 98.161018026793101, 13.766780834319091 ], [ 98.161057526789563, 13.766773134323701 ], [ 98.161048326796021, 13.766728434322877 ], [ 98.161008826799588, 13.766736034318265 ], [ 98.161018026793101, 13.766780834319091 ] ] ] } },
{ "type": "Feature", "properties": { "bid": "LHL-B0132", "source": "VIDA/microsoft", "src_id": "00220000000000002da2", "area_m2": 80.2, "overlap": 0.0, "overlap_outwash": 0.0, "dist_m": 277.7, "landslide": "", "f_veg": 0.697, "f_soil": 0.014, "f_grey": 0.287, "f_dark": 0.001, "status": "clear", "status_auto": "clear", "note": "", "reach": "" }, "geometry": { "type": "Polygon", "coordinates": [ [ [ 98.160351537573959, 13.766645337774269 ], [ 98.160315854508511, 13.766578550460654 ], [ 98.160236734853626, 13.766618446579557 ], [ 98.160272417880492, 13.766685233933943 ], [ 98.160351537573959, 13.766645337774269 ] ] ] } },
{ "type": "Feature", "properties": { "bid": "LHL-B0133", "source": "VIDA/microsoft", "src_id": "00220000000000003c71", "area_m2": 115.8, "overlap": 0.0, "overlap_outwash": 0.0, "dist_m": 202.1, "landslide": "", "f_veg": 0.032, "f_soil": 0.389, "f_grey": 0.528, "f_dark": 0.052, "status": "clear", "status_auto": "clear", "note": "", "reach": "" }, "geometry": { "type": "Polygon", "coordinates": [ [ [ 98.158192326016504, 13.767515523654996 ], [ 98.15819132559794, 13.767415223293682 ], [ 98.15809478409993, 13.76741614199212 ], [ 98.158095701148056, 13.767516357431992 ], [ 98.158192326016504, 13.767515523654996 ] ] ] } },
{ "type": "Feature", "properties": { "bid": "LHL-B0134", "source": "VIDA/microsoft", "src_id": "0022000000000000ec2f", "area_m2": 20.6, "overlap": null, "overlap_outwash": null, "dist_m": null, "landslide": null, "f_veg": null, "f_soil": null, "f_grey": null, "f_dark": null, "status": "not_surveyed", "status_auto": "not_surveyed", "note": "", "reach": "" }, "geometry": { "type": "Polygon", "coordinates": [ [ [ 98.154849507670676, 13.75851001988033 ], [ 98.15483875353641, 13.758471174528566 ], [ 98.154797487687077, 13.758481836597548 ], [ 98.154808241815246, 13.758520769656203 ], [ 98.154849507670676, 13.75851001988033 ] ] ] } },
{ "type": "Feature", "properties": { "bid": "LHL-B0135", "source": "VIDA/microsoft", "src_id": "0022000000000001300a", "area_m2": 95.2, "overlap": 0.0, "overlap_outwash": 0.478, "dist_m": 23.0, "landslide": "", "f_veg": 0.492, "f_soil": 0.255, "f_grey": 0.253, "f_dark": 0.0, "status": "outwash", "status_auto": "outwash", "note": "", "reach": "" }, "geometry": { "type": "Polygon", "coordinates": [ [ [ 98.158211251333782, 13.76337813177879 ], [ 98.158209250459919, 13.763477037592404 ], [ 98.158289618455754, 13.763478672552802 ], [ 98.158291702701163, 13.763379676289622 ], [ 98.158211251333782, 13.76337813177879 ] ] ] } },
{ "type": "Feature", "properties": { "bid": "LHL-B0136", "source": "VIDA/microsoft", "src_id": "0022000000000001b789", "area_m2": 78.9, "overlap": 0.0, "overlap_outwash": 0.0, "dist_m": 506.2, "landslide": "", "f_veg": 0.596, "f_soil": 0.378, "f_grey": 0.022, "f_dark": 0.004, "status": "clear", "status_auto": "clear", "note": "", "reach": "B" }, "geometry": { "type": "Polygon", "coordinates": [ [ [ 98.15537992036063, 13.758755820908435 ], [ 98.155331484733281, 13.758648853251321 ], [ 98.155279797852131, 13.758670910463534 ], [ 98.155328233445218, 13.758777878158824 ], [ 98.15537992036063, 13.758755820908435 ] ] ] } },
{ "type": "Feature", "properties": { "bid": "LHL-B0137", "source": "VIDA/microsoft", "src_id": "0022000000000002104f", "area_m2": 86.3, "overlap": 0.0, "overlap_outwash": 0.0, "dist_m": 52.2, "landslide": "", "f_veg": 0.678, "f_soil": 0.0, "f_grey": 0.304, "f_dark": 0.018, "status": "clear", "status_auto": "clear", "note": "", "reach": "A" }, "geometry": { "type": "Polygon", "coordinates": [ [ [ 98.151279594261439, 13.760262107275592 ], [ 98.151185312641417, 13.760305394085579 ], [ 98.151215739490041, 13.760367970150432 ], [ 98.151310021149342, 13.760324683297711 ], [ 98.151279594261439, 13.760262107275592 ] ] ] } },
{ "type": "Feature", "properties": { "bid": "LHL-B0138", "source": "VIDA/microsoft", "src_id": "00220000000000021e2d", "area_m2": 23.3, "overlap": 0.0, "overlap_outwash": 0.0, "dist_m": 434.1, "landslide": "", "f_veg": 0.553, "f_soil": 0.001, "f_grey": 0.438, "f_dark": 0.008, "status": "clear", "status_auto": "clear", "note": "", "reach": "" }, "geometry": { "type": "Polygon", "coordinates": [ [ [ 98.158550315344058, 13.759272712755283 ], [ 98.158565988831711, 13.759315341390092 ], [ 98.158606423125548, 13.759301373603979 ], [ 98.158590749629255, 13.759258657280938 ], [ 98.158550315344058, 13.759272712755283 ] ] ] } },
{ "type": "Feature", "properties": { "bid": "LHL-B0139", "source": "VIDA/microsoft", "src_id": "0022000000000002275a", "area_m2": 17.2, "overlap": 0.0, "overlap_outwash": 0.0, "dist_m": 7.4, "landslide": "LL-01", "f_veg": 1.0, "f_soil": 0.0, "f_grey": 0.0, "f_dark": 0.0, "status": "not_building", "status_auto": "edge", "note": "Chip review: canopy in both images, no roof.", "reach": "A" }, "geometry": { "type": "Polygon", "coordinates": [ [ [ 98.154506248871115, 13.7657428773676 ], [ 98.15451141749827, 13.765778664683305 ], [ 98.154550849167393, 13.765773236732118 ], [ 98.154545680537424, 13.765737537125153 ], [ 98.154506248871115, 13.7657428773676 ] ] ] } },
{ "type": "Feature", "properties": { "bid": "LHL-B0140", "source": "VIDA/microsoft", "src_id": "00220000000000023360", "area_m2": 37.4, "overlap": 0.0, "overlap_outwash": 0.0, "dist_m": 509.3, "landslide": "", "f_veg": 0.705, "f_soil": 0.292, "f_grey": 0.0, "f_dark": 0.003, "status": "clear", "status_auto": "clear", "note": "", "reach": "" }, "geometry": { "type": "Polygon", "coordinates": [ [ [ 98.162755933475509, 13.764358615147181 ], [ 98.162698738639989, 13.764356476790995 ], [ 98.162696487525608, 13.764411101621686 ], [ 98.162753765733783, 13.764413237209475 ], [ 98.162755933475509, 13.764358615147181 ] ] ] } },
{ "type": "Feature", "properties": { "bid": "LHL-B0141", "source": "VIDA/microsoft", "src_id": "002200000000000243ed", "area_m2": 24.5, "overlap": 0.0, "overlap_outwash": 0.0, "dist_m": 323.2, "landslide": "", "f_veg": 0.989, "f_soil": 0.0, "f_grey": 0.011, "f_dark": 0.0, "status": "clear", "status_auto": "clear", "note": "", "reach": "" }, "geometry": { "type": "Polygon", "coordinates": [ [ [ 98.157260765102123, 13.760288090830354 ], [ 98.157265517083061, 13.760325293466984 ], [ 98.157319789781653, 13.760318672652446 ], [ 98.157315037797176, 13.760281470022791 ], [ 98.157260765102123, 13.760288090830354 ] ] ] } },
{ "type": "Feature", "properties": { "bid": "LHL-B0142", "source": "VIDA/microsoft", "src_id": "00220000000000024f0d", "area_m2": 24.5, "overlap": 0.0, "overlap_outwash": 0.0, "dist_m": 123.0, "landslide": "", "f_veg": 0.663, "f_soil": 0.204, "f_grey": 0.124, "f_dark": 0.008, "status": "clear", "status_auto": "clear", "note": "", "reach": "B" }, "geometry": { "type": "Polygon", "coordinates": [ [ [ 98.156657431474756, 13.766253363073126 ], [ 98.156621750205517, 13.766242617409384 ], [ 98.156605160081639, 13.766294999821742 ], [ 98.156640841342821, 13.766305657785518 ], [ 98.156657431474756, 13.766253363073126 ] ] ] } },
{ "type": "Feature", "properties": { "bid": "LHL-B0143", "source": "VIDA/microsoft", "src_id": "00220000000000033279", "area_m2": 79.6, "overlap": 0.0, "overlap_outwash": 0.0, "dist_m": 293.0, "landslide": "", "f_veg": 0.925, "f_soil": 0.001, "f_grey": 0.029, "f_dark": 0.046, "status": "clear", "status_auto": "clear", "note": "", "reach": "B" }, "geometry": { "type": "Polygon", "coordinates": [ [ [ 98.156332383059421, 13.760909142049892 ], [ 98.156322879218848, 13.760837367293512 ], [ 98.156231675674292, 13.760848718896026 ], [ 98.156241096136014, 13.760920496435839 ], [ 98.156332383059421, 13.760909142049892 ] ] ] } }
]
}
