{
"type": "FeatureCollection",
"name": "envelopes",
"crs": { "type": "name", "properties": { "name": "urn:ogc:def:crs:OGC:1.3:CRS84" } },
"features": [
{ "type": "Feature", "properties": { "id": "LL-01", "name": "Debris flow to the road", "kind": "landslide", "priority": 2, "split": 0, "description": "A debris flow that broke away in two prongs on the hills west of Lel Hla, ran 1.2 km east down a forested valley, scouring it to grey sand, and reached the road at the south end of the village; its fan crossed the road (LL-OW1)." }, "geometry": { "type": "Polygon", "coordinates": [ [ [ 98.14664, 13.76693 ], [ 98.14871, 13.76701 ], [ 98.14986, 13.767 ], [ 98.151, 13.7668 ], [ 98.15186, 13.76631 ], [ 98.153, 13.7661 ], [ 98.15443, 13.76596 ], [ 98.155, 13.7658 ], [ 98.1556, 13.7654 ], [ 98.1566, 13.7651 ], [ 98.1574, 13.7656 ], [ 98.15797, 13.7656 ], [ 98.158, 13.7632 ], [ 98.1572, 13.7632 ], [ 98.1565, 13.7636 ], [ 98.1555, 13.7638 ], [ 98.1545, 13.7642 ], [ 98.15414, 13.76451 ], [ 98.15329, 13.76518 ], [ 98.15243, 13.76535 ], [ 98.15243, 13.76444 ], [ 98.15157, 13.76451 ], [ 98.14914, 13.76479 ], [ 98.14829, 13.76521 ], [ 98.14664, 13.76613 ], [ 98.14664, 13.76693 ] ] ] } },
{ "type": "Feature", "properties": { "id": "LL-OW1", "name": "Gardens east of the road under sediment", "kind": "outwash", "priority": 3, "split": 0, "description": "Gardens and scrub east of the road, green on 10 Jan 2026, now under the sand of LL-01's fan." }, "geometry": { "type": "Polygon", "coordinates": [ [ [ 98.1581, 13.763 ], [ 98.1581, 13.7645 ], [ 98.159, 13.7643 ], [ 98.16, 13.7636 ], [ 98.1604, 13.7628 ], [ 98.1598, 13.7625 ], [ 98.1588, 13.7627 ], [ 98.1581, 13.763 ] ] ] } },
{ "type": "Feature", "properties": { "id": "LZ", "name": "Hills west of Lel Hla", "kind": "landslide", "priority": 5, "split": 1, "description": "Zone split into connected scars and scoured channels." }, "geometry": { "type": "Polygon", "coordinates": [ [ [ 98.14, 13.755 ], [ 98.1541, 13.755 ], [ 98.1541, 13.7645 ], [ 98.155, 13.766 ], [ 98.155, 13.7707 ], [ 98.14, 13.7707 ], [ 98.14, 13.755 ] ] ] } },
{ "type": "Feature", "properties": { "id": "LX-1", "name": "Main road", "kind": "exclude", "priority": 0, "split": 0, "description": "The road through Lel Hla and its cut banks." }, "geometry": { "type": "Polygon", "coordinates": [ [ [ 98.152132081225787, 13.755595879619763 ], [ 98.152135557082062, 13.755600167533881 ], [ 98.152355557071431, 13.755840167563649 ], [ 98.152358851216775, 13.755843414581964 ], [ 98.152362464098871, 13.75584631967836 ], [ 98.152366358748139, 13.755848853125791 ], [ 98.152796358789018, 13.756098853168909 ], [ 98.152800106909226, 13.756100810270048 ], [ 98.154251457123905, 13.756776781681356 ], [ 98.15448911167131, 13.757042954821506 ], [ 98.154786175113941, 13.757904439249209 ], [ 98.154788032839832, 13.757908994054704 ], [ 98.155058032754454, 13.758478994095229 ], [ 98.15505957767607, 13.758481963456205 ], [ 98.155061342107857, 13.758484813546445 ], [ 98.156371341900979, 13.760434813737627 ], [ 98.15637283297589, 13.760436902534979 ], [ 98.156872045110774, 13.761095862701731 ], [ 98.158027179818859, 13.762818607191285 ], [ 98.158133473200735, 13.763214791898815 ], [ 98.158073921343146, 13.764465375728721 ], [ 98.157844327837779, 13.765872882063965 ], [ 98.157843910134162, 13.765876252365224 ], [ 98.15780391004364, 13.766346252352639 ], [ 98.157803752485066, 13.766349619097035 ], [ 98.157793762581321, 13.767508421549532 ], [ 98.157694024525583, 13.769094251724519 ], [ 98.157294609103047, 13.771091326905351 ], [ 98.157293957929596, 13.771095717335715 ], [ 98.157293750166431, 13.771100149010515 ], [ 98.157293987814441, 13.7711045792503 ], [ 98.157294668584967, 13.771108965389447 ], [ 98.157295785921846, 13.771113265187024 ], [ 98.157297329064534, 13.771117437233636 ], [ 98.157299283151744, 13.77112144135018 ], [ 98.157301629364568, 13.771125238974822 ], [ 98.15730434510769, 13.771128793534348 ], [ 98.157307404227041, 13.771132070796398 ], [ 98.157310777261642, 13.771135039199129 ], [ 98.157314431727301, 13.77113767015519 ], [ 98.15731833242954, 13.771139938327028 ], [ 98.157322441802421, 13.771141821870897 ], [ 98.157326720270447, 13.771143302647221 ], [ 98.157331126629614, 13.771144366395315 ], [ 98.157335618444236, 13.771145002870695 ], [ 98.157340152455674, 13.77114520594375 ], [ 98.157344684998861, 13.771144973658771 ], [ 98.157349172422954, 13.771144308252788 ], [ 98.15735357151155, 13.77114321613403 ], [ 98.157357839899007, 13.771141707820197 ], [ 98.157361936478395, 13.771139797837192 ], [ 98.157365821797413, 13.771137504579194 ], [ 98.157369458438268, 13.771134850131551 ], [ 98.157372811378153, 13.771131860058041 ], [ 98.157375848326396, 13.771128563154734 ], [ 98.157378540035538, 13.771124991172613 ], [ 98.157380860582947, 13.771121178511839 ], [ 98.157382787620492, 13.771117161890421 ], [ 98.157384302589762, 13.771112979990635 ], [ 98.157385390900814, 13.771108673086468 ], [ 98.157785390538479, 13.769108672992841 ], [ 98.1577861625521, 13.769102773796735 ], [ 98.157886162243528, 13.767512773760535 ], [ 98.157886247743363, 13.767510380909194 ], [ 98.157896232979667, 13.766352067138921 ], [ 98.157935945798599, 13.765885440447809 ], [ 98.158165671903873, 13.764477117870589 ], [ 98.15816619877279, 13.764472101888785 ], [ 98.158226198527331, 13.763212101863603 ], [ 98.158226179919652, 13.763207538266506 ], [ 98.15822569068358, 13.763202999757452 ], [ 98.158224735805064, 13.763198532589252 ], [ 98.158114735730095, 13.76278853260469 ], [ 98.158113212152273, 13.762783890211127 ], [ 98.158111185963108, 13.762779435194625 ], [ 98.158108680729697, 13.762775219372594 ], [ 98.156948680545639, 13.761045219541995 ], [ 98.156947167071877, 13.761043097387569 ], [ 98.156447942665324, 13.760384121319584 ], [ 98.15514053237051, 13.758437976738925 ], [ 98.154873022561603, 13.757873234025679 ], [ 98.154573824731145, 13.757005560786748 ], [ 98.154572166977033, 13.75700143395167 ], [ 98.154570103635805, 13.756997485695976 ], [ 98.154567654553901, 13.75699375399636 ], [ 98.154564843288071, 13.756990274746517 ], [ 98.154314843273937, 13.756710274780632 ], [ 98.154311560798689, 13.756706956757242 ], [ 98.154307949305789, 13.756703983205922 ], [ 98.154304046444651, 13.756701385125584 ], [ 98.154299892902188, 13.756699189600912 ], [ 98.152841813183457, 13.756020084028957 ], [ 98.152419721722723, 13.755774682041972 ], [ 98.152206313798558, 13.755541873433401 ], [ 98.151357918652039, 13.754354120496497 ], [ 98.151355141040639, 13.754350612060509 ], [ 98.151352025001955, 13.754347386646435 ], [ 98.151348600545106, 13.754344475316769 ], [ 98.151344900649505, 13.754341906109195 ], [ 98.151340960947167, 13.75433970376657 ], [ 98.151336819379537, 13.75433788949865 ], [ 98.151332515832195, 13.754336480777821 ], [ 98.151328091750599, 13.754335491170819 ], [ 98.151323589741096, 13.754334930208095 ], [ 98.151319053160435, 13.754334803292027 ], [ 98.151314525698382, 13.754335111644878 ], [ 98.151310050956809, 13.75433585229705 ], [ 98.151305672029906, 13.754337018115651 ], [ 98.151301431089124, 13.754338597873218 ], [ 98.151297368977012, 13.754340576355833 ], [ 98.151293524813923, 13.754342934509634 ], [ 98.151289935621236, 13.754345649624316 ], [ 98.151286635964823, 13.754348695551858 ], [ 98.151283657622173, 13.75435204295832 ], [ 98.151281029276376, 13.754355659606365 ], [ 98.15127877623982, 13.754359510665704 ], [ 98.151276920210506, 13.754363559048539 ], [ 98.151275479063017, 13.754367765766746 ], [ 98.151274466676412, 13.754372090307333 ], [ 98.15127389280056, 13.75437649102262 ], [ 98.151273762962234, 13.754380925531313 ], [ 98.151274078411831, 13.754385351126674 ], [ 98.151274836111455, 13.754389725187799 ], [ 98.151276028764073, 13.754394005590086 ], [ 98.151277644883791, 13.754398151110923 ], [ 98.151279668906511, 13.754402121826661 ], [ 98.151282081339815, 13.754405879497131 ], [ 98.152132081225787, 13.755595879619763 ] ] ] } },
{ "type": "Feature", "properties": { "id": "LX-2", "name": "Plot bare in Jan 2026", "kind": "exclude", "priority": 0, "split": 0, "description": "Plots beside the road, already bare on the Esri Vivid image of 10 Jan 2026 (LL-01's debris has since covered them)." }, "geometry": { "type": "Polygon", "coordinates": [ [ [ 98.1572, 13.7633 ], [ 98.1579, 13.7633 ], [ 98.1579, 13.7654 ], [ 98.1572, 13.7654 ], [ 98.1572, 13.7633 ] ] ] } },
{ "type": "Feature", "properties": { "id": "LX-3", "name": "Smeared flight corner", "kind": "exclude", "priority": 0, "split": 0, "description": "The south-west corner of the flights is smeared (orthorectification edge); left out." }, "geometry": { "type": "Polygon", "coordinates": [ [ [ 98.1465, 13.756 ], [ 98.152, 13.756 ], [ 98.152, 13.76 ], [ 98.1465, 13.76 ], [ 98.1465, 13.756 ] ] ] } },
{ "type": "Feature", "properties": { "id": "LX-4", "name": "Rock slab", "kind": "exclude", "priority": 0, "split": 0, "description": "Rejected on chip review: a rock slab already dark and bare on 10 Jan 2026." }, "geometry": { "type": "Polygon", "coordinates": [ [ [ 98.14875, 13.76716 ], [ 98.14927, 13.76716 ], [ 98.14927, 13.76753 ], [ 98.14875, 13.76753 ], [ 98.14875, 13.76716 ] ] ] } },
{ "type": "Feature", "properties": { "id": "LX-5", "name": "Rock slabs", "kind": "exclude", "priority": 0, "split": 0, "description": "Rejected on chip review: rock slabs already bare on 10 Jan 2026." }, "geometry": { "type": "Polygon", "coordinates": [ [ [ 98.14767, 13.76277 ], [ 98.1482, 13.76277 ], [ 98.1482, 13.76343 ], [ 98.14767, 13.76343 ], [ 98.14767, 13.76277 ] ] ] } },
{ "type": "Feature", "properties": { "id": "LX-6", "name": "House and yard", "kind": "exclude", "priority": 0, "split": 0, "description": "Rejected on chip review: a house, its yard and track." }, "geometry": { "type": "Polygon", "coordinates": [ [ [ 98.15371, 13.761 ], [ 98.15413, 13.761 ], [ 98.15413, 13.76141 ], [ 98.15371, 13.76141 ], [ 98.15371, 13.761 ] ] ] } },
{ "type": "Feature", "properties": { "id": "LX-7", "name": "Cleared plantation", "kind": "exclude", "priority": 0, "split": 0, "description": "Rejected on chip review: young plantation on ground already cleared on 10 Jan 2026." }, "geometry": { "type": "Polygon", "coordinates": [ [ [ 98.15201, 13.76196 ], [ 98.15314, 13.76196 ], [ 98.15314, 13.7631 ], [ 98.15201, 13.7631 ], [ 98.15201, 13.76196 ] ] ] } },
{ "type": "Feature", "properties": { "id": "LX-8", "name": "Rock slab", "kind": "exclude", "priority": 0, "split": 0, "description": "Rejected on chip review: a rock slab already dark on 10 Jan 2026." }, "geometry": { "type": "Polygon", "coordinates": [ [ [ 98.15312, 13.76345 ], [ 98.15351, 13.76345 ], [ 98.15351, 13.76375 ], [ 98.15312, 13.76375 ], [ 98.15312, 13.76345 ] ] ] } },
{ "type": "Feature", "properties": { "id": "LX-9", "name": "Rock slab", "kind": "exclude", "priority": 0, "split": 0, "description": "Rejected on chip review: a rock slab already dark on 10 Jan 2026." }, "geometry": { "type": "Polygon", "coordinates": [ [ [ 98.15093, 13.76376 ], [ 98.15139, 13.76376 ], [ 98.15139, 13.76406 ], [ 98.15093, 13.76406 ], [ 98.15093, 13.76376 ] ] ] } }
]
}
