{
"type": "FeatureCollection",
"name": "footprint",
"crs": { "type": "name", "properties": { "name": "urn:ogc:def:crs:OGC:1.3:CRS84" } },
"features": [
{ "type": "Feature", "properties": { "site": "lhl" }, "geometry": { "type": "MultiPolygon", "coordinates": [ [ [ [ 98.14909125740401, 13.758236568209146 ], [ 98.14909125740401, 13.758251029220524 ], [ 98.149106053259999, 13.758251029220524 ], [ 98.149106053259999, 13.758236568209146 ], [ 98.14909125740401, 13.758236568209146 ] ] ], [ [ [ 98.149106053259999, 13.758265490231901 ], [ 98.149120849116002, 13.758265490231901 ], [ 98.149120849116002, 13.758251029220524 ], [ 98.149106053259999, 13.758251029220524 ], [ 98.149106053259999, 13.758265490231901 ] ] ], [ [ [ 98.149135644972006, 13.758265490231901 ], [ 98.149120849116002, 13.758265490231901 ], [ 98.149120849116002, 13.758294412254658 ], [ 98.149135644972006, 13.758294412254658 ], [ 98.149135644972006, 13.758265490231901 ] ] ], [ [ [ 98.149135644972006, 13.758294412254658 ], [ 98.149135644972006, 13.758308873266037 ], [ 98.149150440828009, 13.758308873266037 ], [ 98.149150440828009, 13.758294412254658 ], [ 98.149135644972006, 13.758294412254658 ] ] ], [ [ [ 98.149150440828009, 13.758323334277414 ], [ 98.149165236683999, 13.758323334277414 ], [ 98.149165236683999, 13.758308873266037 ], [ 98.149150440828009, 13.758308873266037 ], [ 98.149150440828009, 13.758323334277414 ] ] ], [ [ [ 98.158560605244006, 13.769386007981677 ], [ 98.158560605244006, 13.76928478090203 ], [ 98.158590196955998, 13.76928478090203 ], [ 98.158590196955998, 13.769299241913409 ], [ 98.158678972092005, 13.769299241913409 ], [ 98.158678972092005, 13.769313702924785 ], [ 98.158782543084001, 13.769313702924785 ], [ 98.158782543084001, 13.769328163936164 ], [ 98.158930501644008, 13.769328163936164 ], [ 98.158930501644008, 13.769342624947543 ], [ 98.159063664347997, 13.769342624947543 ], [ 98.159063664347997, 13.769357085958921 ], [ 98.159152439484004, 13.769357085958921 ], [ 98.159152439484004, 13.769371546970298 ], [ 98.159226418764007, 13.769371546970298 ], [ 98.159226418764007, 13.769386007981677 ], [ 98.159315193899999, 13.769386007981677 ], [ 98.159315193899999, 13.769400468993055 ], [ 98.159359581467996, 13.769400468993055 ], [ 98.159359581467996, 13.769357085958921 ], [ 98.159374377323999, 13.769357085958921 ], [ 98.159374377323999, 13.769270319890651 ], [ 98.159389173180003, 13.769270319890651 ], [ 98.159389173180003, 13.76928478090203 ], [ 98.159492744171999, 13.76928478090203 ], [ 98.159492744171999, 13.769299241913409 ], [ 98.159625906876002, 13.769299241913409 ], [ 98.159625906876002, 13.769313702924785 ], [ 98.159759069580005, 13.769313702924785 ], [ 98.159759069580005, 13.769328163936164 ], [ 98.159892232284008, 13.769328163936164 ], [ 98.159892232284008, 13.769342624947543 ], [ 98.159981007420001, 13.769342624947543 ], [ 98.159981007420001, 13.769357085958921 ], [ 98.160069782556008, 13.769357085958921 ], [ 98.160069782556008, 13.769371546970298 ], [ 98.160128965980007, 13.769371546970298 ], [ 98.160128965980007, 13.769386007981677 ], [ 98.160173353548004, 13.769386007981677 ], [ 98.160173353548004, 13.769357085958921 ], [ 98.160188149404007, 13.769357085958921 ], [ 98.160188149404007, 13.769270319890651 ], [ 98.160291720396003, 13.769270319890651 ], [ 98.160291720396003, 13.76928478090203 ], [ 98.160365699676007, 13.76928478090203 ], [ 98.160365699676007, 13.769299241913409 ], [ 98.160454474811999, 13.769299241913409 ], [ 98.160454474811999, 13.769313702924785 ], [ 98.160558045804009, 13.769313702924785 ], [ 98.160558045804009, 13.769328163936164 ], [ 98.160661616796006, 13.769328163936164 ], [ 98.160661616796006, 13.769342624947543 ], [ 98.160750391931998, 13.769342624947543 ], [ 98.160750391931998, 13.769357085958921 ], [ 98.160839167068005, 13.769357085958921 ], [ 98.160839167068005, 13.769371546970298 ], [ 98.160927942203998, 13.769371546970298 ], [ 98.160927942203998, 13.769386007981677 ], [ 98.161001921484001, 13.769386007981677 ], [ 98.161001921484001, 13.769328163936164 ], [ 98.161016717340004, 13.769328163936164 ], [ 98.161016717340004, 13.769270319890651 ], [ 98.161223859323997, 13.769270319890651 ], [ 98.161223859323997, 13.76928478090203 ], [ 98.161623347436006, 13.76928478090203 ], [ 98.161623347436006, 13.769299241913409 ], [ 98.161771305995998, 13.769299241913409 ], [ 98.161771305995998, 13.769169092811005 ], [ 98.161919264556005, 13.769169092811005 ], [ 98.161919264556005, 13.769154631799626 ], [ 98.162377936092, 13.769154631799626 ], [ 98.162377936092, 13.768778645503795 ], [ 98.162392731948003, 13.768778645503795 ], [ 98.162392731948003, 13.768185744037293 ], [ 98.162407527804007, 13.768185744037293 ], [ 98.162407527804007, 13.76775191369595 ], [ 98.162422323659996, 13.76775191369595 ], [ 98.162422323659996, 13.767462693468387 ], [ 98.162437119515999, 13.767462693468387 ], [ 98.162437119515999, 13.767332544365983 ], [ 98.162451915372003, 13.767332544365983 ], [ 98.162451915372003, 13.767231317286337 ], [ 98.162466711228006, 13.767231317286337 ], [ 98.162466711228006, 13.767144551218069 ], [ 98.162481507083996, 13.767144551218069 ], [ 98.162481507083996, 13.767115629195311 ], [ 98.162614669787999, 13.767115629195311 ], [ 98.162614669787999, 13.76713009020669 ], [ 98.162747832492002, 13.76713009020669 ], [ 98.162747832492002, 13.767144551218069 ], [ 98.162836607628009, 13.767144551218069 ], [ 98.162836607628009, 13.767159012229445 ], [ 98.162910586907998, 13.767159012229445 ], [ 98.162910586907998, 13.767173473240824 ], [ 98.162984566188001, 13.767173473240824 ], [ 98.162984566188001, 13.767187934252203 ], [ 98.163058545468004, 13.767187934252203 ], [ 98.163058545468004, 13.767202395263581 ], [ 98.163117728892004, 13.767202395263581 ], [ 98.163117728892004, 13.767043324138422 ], [ 98.163132524748008, 13.767043324138422 ], [ 98.163132524748008, 13.766884253013261 ], [ 98.163147320603997, 13.766884253013261 ], [ 98.163147320603997, 13.766783025933615 ], [ 98.163162116460001, 13.766783025933615 ], [ 98.163162116460001, 13.766725181888102 ], [ 98.163176912316004, 13.766725181888102 ], [ 98.163176912316004, 13.766652876831213 ], [ 98.163191708172008, 13.766652876831213 ], [ 98.163191708172008, 13.7665950327857 ], [ 98.163206504027997, 13.7665950327857 ], [ 98.163206504027997, 13.766551649751564 ], [ 98.163221299884, 13.766551649751564 ], [ 98.163221299884, 13.766522727728809 ], [ 98.163236095740004, 13.766522727728809 ], [ 98.163236095740004, 13.766464883683296 ], [ 98.163250891596007, 13.766464883683296 ], [ 98.163250891596007, 13.766421500649162 ], [ 98.163265687451997, 13.766421500649162 ], [ 98.163265687451997, 13.76636365660365 ], [ 98.163280483308, 13.76636365660365 ], [ 98.163280483308, 13.766349195592271 ], [ 98.163472829436003, 13.766349195592271 ], [ 98.163472829436003, 13.76582859918266 ], [ 98.16345803358, 13.76582859918266 ], [ 98.16345803358, 13.765221236704779 ], [ 98.163472829436003, 13.765221236704779 ], [ 98.163472829436003, 13.765177853670643 ], [ 98.163487625292007, 13.765177853670643 ], [ 98.163487625292007, 13.765163392659266 ], [ 98.163546808716006, 13.765163392659266 ], [ 98.163546808716006, 13.765148931647888 ], [ 98.163591196284003, 13.765148931647888 ], [ 98.163591196284003, 13.765134470636509 ], [ 98.163694767275999, 13.765134470636509 ], [ 98.163694767275999, 13.76512000962513 ], [ 98.163724358988006, 13.76512000962513 ], [ 98.163724358988006, 13.765062165579618 ], [ 98.163709563132002, 13.765062165579618 ], [ 98.163709563132002, 13.765004321534105 ], [ 98.163694767275999, 13.765004321534105 ], [ 98.163694767275999, 13.764932016477216 ], [ 98.163679971420009, 13.764932016477216 ], [ 98.163679971420009, 13.764859711420325 ], [ 98.163665175564006, 13.764859711420325 ], [ 98.163665175564006, 13.764772945352057 ], [ 98.163650379708002, 13.764772945352057 ], [ 98.163650379708002, 13.764700640295166 ], [ 98.163635583851999, 13.764700640295166 ], [ 98.163635583851999, 13.764628335238275 ], [ 98.16362078799601, 13.764628335238275 ], [ 98.16362078799601, 13.764541569170007 ], [ 98.163605992140006, 13.764541569170007 ], [ 98.163605992140006, 13.76444034209036 ], [ 98.163591196284003, 13.76444034209036 ], [ 98.163591196284003, 13.764324653999335 ], [ 98.163576400427999, 13.764324653999335 ], [ 98.163576400427999, 13.76420896590831 ], [ 98.163561604571996, 13.76420896590831 ], [ 98.163561604571996, 13.764165582874176 ], [ 98.163576400427999, 13.764165582874176 ], [ 98.163576400427999, 13.764020972760393 ], [ 98.163591196284003, 13.764020972760393 ], [ 98.163591196284003, 13.763471454328025 ], [ 98.163605992140006, 13.763471454328025 ], [ 98.163605992140006, 13.763312383202866 ], [ 98.16362078799601, 13.763312383202866 ], [ 98.16362078799601, 13.763182234100462 ], [ 98.163635583851999, 13.763182234100462 ], [ 98.163635583851999, 13.763081007020816 ], [ 98.163650379708002, 13.763081007020816 ], [ 98.163650379708002, 13.763023162975303 ], [ 98.163561604571996, 13.763023162975303 ], [ 98.163561604571996, 13.763008701963926 ], [ 98.16345803358, 13.763008701963926 ], [ 98.16345803358, 13.762994240952548 ], [ 98.163369258444007, 13.762994240952548 ], [ 98.163369258444007, 13.762979779941169 ], [ 98.163354462588003, 13.762979779941169 ], [ 98.163354462588003, 13.76296531892979 ], [ 98.163339666732, 13.76296531892979 ], [ 98.163339666732, 13.762864091850144 ], [ 98.163324870875996, 13.762864091850144 ], [ 98.163324870875996, 13.762560410611204 ], [ 98.163339666732, 13.762560410611204 ], [ 98.163339666732, 13.762401339486045 ], [ 98.163354462588003, 13.762401339486045 ], [ 98.163354462588003, 13.762314573417775 ], [ 98.163369258444007, 13.762314573417775 ], [ 98.163369258444007, 13.762213346338129 ], [ 98.163384054299996, 13.762213346338129 ], [ 98.163384054299996, 13.762141041281238 ], [ 98.163398850156, 13.762141041281238 ], [ 98.163398850156, 13.762112119258482 ], [ 98.163102933036001, 13.762112119258482 ], [ 98.163102933036001, 13.762068736224348 ], [ 98.163088137179997, 13.762068736224348 ], [ 98.163088137179997, 13.761692749928516 ], [ 98.163102933036001, 13.761692749928516 ], [ 98.163102933036001, 13.761548139814735 ], [ 98.163117728892004, 13.761548139814735 ], [ 98.163117728892004, 13.76143245172371 ], [ 98.163132524748008, 13.76143245172371 ], [ 98.163132524748008, 13.761345685655442 ], [ 98.163147320603997, 13.761345685655442 ], [ 98.163147320603997, 13.761229997564417 ], [ 98.163162116460001, 13.761229997564417 ], [ 98.163162116460001, 13.761114309473392 ], [ 98.163176912316004, 13.761114309473392 ], [ 98.163176912316004, 13.761027543405122 ], [ 98.163191708172008, 13.761027543405122 ], [ 98.163191708172008, 13.760955238348233 ], [ 98.163206504027997, 13.760955238348233 ], [ 98.163206504027997, 13.760854011268586 ], [ 98.163147320603997, 13.760854011268586 ], [ 98.163147320603997, 13.760868472279963 ], [ 98.162969770331998, 13.760868472279963 ], [ 98.162969770331998, 13.760882933291342 ], [ 98.162673853211999, 13.760882933291342 ], [ 98.162673853211999, 13.760608174075157 ], [ 98.162659057356009, 13.760608174075157 ], [ 98.162659057356009, 13.760203265756569 ], [ 98.162673853211999, 13.760203265756569 ], [ 98.162673853211999, 13.759942967551764 ], [ 98.162688649068002, 13.759942967551764 ], [ 98.162688649068002, 13.759769435415226 ], [ 98.162703444924006, 13.759769435415226 ], [ 98.162703444924006, 13.759610364290067 ], [ 98.162718240780009, 13.759610364290067 ], [ 98.162718240780009, 13.759436832153529 ], [ 98.162733036635998, 13.759436832153529 ], [ 98.162733036635998, 13.759248839005615 ], [ 98.162747832492002, 13.759248839005615 ], [ 98.162747832492002, 13.75904638484632 ], [ 98.162762628348005, 13.75904638484632 ], [ 98.162762628348005, 13.758858391698405 ], [ 98.162777424204009, 13.758858391698405 ], [ 98.162777424204009, 13.758786086641514 ], [ 98.162688649068002, 13.758786086641514 ], [ 98.162688649068002, 13.758771625630136 ], [ 98.162555486363999, 13.758771625630136 ], [ 98.162555486363999, 13.758757164618759 ], [ 98.162466711228006, 13.758757164618759 ], [ 98.162466711228006, 13.75874270360738 ], [ 98.162363140235996, 13.75874270360738 ], [ 98.162363140235996, 13.758728242596002 ], [ 98.162318752668, 13.758728242596002 ], [ 98.162318752668, 13.758670398550489 ], [ 98.162333548524003, 13.758670398550489 ], [ 98.162333548524003, 13.758641476527734 ], [ 98.161623347436006, 13.758641476527734 ], [ 98.161623347436006, 13.758569171470842 ], [ 98.161534572299999, 13.758569171470842 ], [ 98.161534572299999, 13.758583632482221 ], [ 98.161416205451999, 13.758583632482221 ], [ 98.161416205451999, 13.758598093493598 ], [ 98.161268246892007, 13.758598093493598 ], [ 98.161268246892007, 13.758612554504976 ], [ 98.161075900764004, 13.758612554504976 ], [ 98.161075900764004, 13.758627015516355 ], [ 98.160839167068005, 13.758627015516355 ], [ 98.160839167068005, 13.758554710459464 ], [ 98.160809575355998, 13.758554710459464 ], [ 98.160809575355998, 13.758569171470842 ], [ 98.160735596076009, 13.758569171470842 ], [ 98.160735596076009, 13.758583632482221 ], [ 98.160676412652009, 13.758583632482221 ], [ 98.160676412652009, 13.758598093493598 ], [ 98.160587637516002, 13.758598093493598 ], [ 98.160587637516002, 13.758612554504976 ], [ 98.160469270668003, 13.758612554504976 ], [ 98.160469270668003, 13.758627015516355 ], [ 98.160365699676007, 13.758627015516355 ], [ 98.160365699676007, 13.758641476527734 ], [ 98.160010599132008, 13.758641476527734 ], [ 98.160010599132008, 13.758569171470842 ], [ 98.159951415708008, 13.758569171470842 ], [ 98.159951415708008, 13.758583632482221 ], [ 98.159833048860008, 13.758583632482221 ], [ 98.159833048860008, 13.758598093493598 ], [ 98.159699886156005, 13.758598093493598 ], [ 98.159699886156005, 13.758612554504976 ], [ 98.159670294443998, 13.758612554504976 ], [ 98.159670294443998, 13.758598093493598 ], [ 98.159492744171999, 13.758598093493598 ], [ 98.159492744171999, 13.758583632482221 ], [ 98.159389173180003, 13.758583632482221 ], [ 98.159389173180003, 13.758569171470842 ], [ 98.159270806332003, 13.758569171470842 ], [ 98.159270806332003, 13.758554710459464 ], [ 98.159211622908003, 13.758554710459464 ], [ 98.159211622908003, 13.758540249448087 ], [ 98.159196827052, 13.758540249448087 ], [ 98.159196827052, 13.758554710459464 ], [ 98.159137643628, 13.758554710459464 ], [ 98.159137643628, 13.758540249448087 ], [ 98.159004480923997, 13.758540249448087 ], [ 98.159004480923997, 13.758525788436708 ], [ 98.158871318220008, 13.758525788436708 ], [ 98.158871318220008, 13.75851132742533 ], [ 98.158723359660002, 13.75851132742533 ], [ 98.158723359660002, 13.758496866413951 ], [ 98.158575401100009, 13.758496866413951 ], [ 98.158575401100009, 13.758482405402574 ], [ 98.158442238396006, 13.758482405402574 ], [ 98.158442238396006, 13.758467944391196 ], [ 98.158383054972006, 13.758467944391196 ], [ 98.158383054972006, 13.758583632482221 ], [ 98.158294279835999, 13.758583632482221 ], [ 98.158294279835999, 13.758569171470842 ], [ 98.158146321276007, 13.758569171470842 ], [ 98.158146321276007, 13.758554710459464 ], [ 98.158027954428007, 13.758554710459464 ], [ 98.158027954428007, 13.758540249448087 ], [ 98.157939179292001, 13.758540249448087 ], [ 98.157939179292001, 13.758525788436708 ], [ 98.157879995868001, 13.758525788436708 ], [ 98.157879995868001, 13.75851132742533 ], [ 98.157835608300005, 13.75851132742533 ], [ 98.157835608300005, 13.75865593753911 ], [ 98.157820812444001, 13.75865593753911 ], [ 98.157820812444001, 13.758641476527734 ], [ 98.157702445596001, 13.758641476527734 ], [ 98.157702445596001, 13.758627015516355 ], [ 98.157598874604005, 13.758627015516355 ], [ 98.157598874604005, 13.758612554504976 ], [ 98.157510099467999, 13.758612554504976 ], [ 98.157510099467999, 13.758598093493598 ], [ 98.157391732619999, 13.758598093493598 ], [ 98.157391732619999, 13.758583632482221 ], [ 98.157273365771999, 13.758583632482221 ], [ 98.157273365771999, 13.758569171470842 ], [ 98.157199386491996, 13.758569171470842 ], [ 98.157199386491996, 13.758554710459464 ], [ 98.157140203067996, 13.758554710459464 ], [ 98.157140203067996, 13.758540249448087 ], [ 98.157066223788007, 13.758540249448087 ], [ 98.157066223788007, 13.758525788436708 ], [ 98.157036632076, 13.758525788436708 ], [ 98.157036632076, 13.75865593753911 ], [ 98.156992244508004, 13.75865593753911 ], [ 98.156992244508004, 13.758641476527734 ], [ 98.156888673516008, 13.758641476527734 ], [ 98.156888673516008, 13.758627015516355 ], [ 98.156799898380001, 13.758627015516355 ], [ 98.156799898380001, 13.758612554504976 ], [ 98.156711123244008, 13.758612554504976 ], [ 98.156711123244008, 13.758598093493598 ], [ 98.156666735675998, 13.758598093493598 ], [ 98.156666735675998, 13.758583632482221 ], [ 98.156518777116005, 13.758583632482221 ], [ 98.156518777116005, 13.758569171470842 ], [ 98.156430001979999, 13.758569171470842 ], [ 98.156430001979999, 13.758554710459464 ], [ 98.15635602270001, 13.758554710459464 ], [ 98.15635602270001, 13.758540249448087 ], [ 98.156267247564003, 13.758540249448087 ], [ 98.156267247564003, 13.758525788436708 ], [ 98.156222859996006, 13.758525788436708 ], [ 98.156222859996006, 13.758641476527734 ], [ 98.155971330444004, 13.758641476527734 ], [ 98.155971330444004, 13.758627015516355 ], [ 98.155867759452008, 13.758627015516355 ], [ 98.155867759452008, 13.758612554504976 ], [ 98.155823371883997, 13.758612554504976 ], [ 98.155823371883997, 13.758598093493598 ], [ 98.155838167740001, 13.758598093493598 ], [ 98.155838167740001, 13.758569171470842 ], [ 98.155808576028008, 13.758569171470842 ], [ 98.155808576028008, 13.758583632482221 ], [ 98.155749392604008, 13.758583632482221 ], [ 98.155749392604008, 13.758598093493598 ], [ 98.155719800892001, 13.758598093493598 ], [ 98.155719800892001, 13.758583632482221 ], [ 98.155645821611998, 13.758583632482221 ], [ 98.155645821611998, 13.758569171470842 ], [ 98.155586638187998, 13.758569171470842 ], [ 98.155586638187998, 13.758554710459464 ], [ 98.155512658908009, 13.758554710459464 ], [ 98.155512658908009, 13.758540249448087 ], [ 98.155453475484009, 13.758540249448087 ], [ 98.155453475484009, 13.758525788436708 ], [ 98.155409087915999, 13.758525788436708 ], [ 98.155409087915999, 13.75851132742533 ], [ 98.155364700348002, 13.75851132742533 ], [ 98.155364700348002, 13.758525788436708 ], [ 98.155379496204006, 13.758525788436708 ], [ 98.155379496204006, 13.758612554504976 ], [ 98.155394292060009, 13.758612554504976 ], [ 98.155394292060009, 13.75865593753911 ], [ 98.155379496204006, 13.75865593753911 ], [ 98.155379496204006, 13.758670398550489 ], [ 98.155320312780006, 13.758670398550489 ], [ 98.155320312780006, 13.75865593753911 ], [ 98.155305516924003, 13.75865593753911 ], [ 98.155305516924003, 13.758670398550489 ], [ 98.155290721067999, 13.758670398550489 ], [ 98.155290721067999, 13.75865593753911 ], [ 98.155113170796, 13.75865593753911 ], [ 98.155113170796, 13.758641476527734 ], [ 98.155039191515996, 13.758641476527734 ], [ 98.155039191515996, 13.758627015516355 ], [ 98.154994803948, 13.758627015516355 ], [ 98.154994803948, 13.758598093493598 ], [ 98.155009599804004, 13.758598093493598 ], [ 98.155009599804004, 13.758583632482221 ], [ 98.154980008091997, 13.758583632482221 ], [ 98.154980008091997, 13.758598093493598 ], [ 98.154935620524, 13.758598093493598 ], [ 98.154935620524, 13.758612554504976 ], [ 98.154891232956004, 13.758612554504976 ], [ 98.154891232956004, 13.758598093493598 ], [ 98.154817253676001, 13.758598093493598 ], [ 98.154817253676001, 13.758583632482221 ], [ 98.154728478540008, 13.758583632482221 ], [ 98.154728478540008, 13.758569171470842 ], [ 98.154639703404001, 13.758569171470842 ], [ 98.154639703404001, 13.758554710459464 ], [ 98.154580519980001, 13.758554710459464 ], [ 98.154580519980001, 13.758540249448087 ], [ 98.154550928268009, 13.758540249448087 ], [ 98.154550928268009, 13.758554710459464 ], [ 98.154565724123998, 13.758554710459464 ], [ 98.154565724123998, 13.758612554504976 ], [ 98.154580519980001, 13.758612554504976 ], [ 98.154580519980001, 13.758684859561868 ], [ 98.154595315836005, 13.758684859561868 ], [ 98.154595315836005, 13.758713781584623 ], [ 98.154358582140006, 13.758713781584623 ], [ 98.154358582140006, 13.758699320573246 ], [ 98.154314194572009, 13.758699320573246 ], [ 98.154314194572009, 13.758670398550489 ], [ 98.154299398716006, 13.758670398550489 ], [ 98.154299398716006, 13.758641476527734 ], [ 98.154284602860002, 13.758641476527734 ], [ 98.154284602860002, 13.758612554504976 ], [ 98.154269807003999, 13.758612554504976 ], [ 98.154269807003999, 13.758598093493598 ], [ 98.15425501114801, 13.758598093493598 ], [ 98.15425501114801, 13.758569171470842 ], [ 98.154240215292006, 13.758569171470842 ], [ 98.154240215292006, 13.758540249448087 ], [ 98.154225419436003, 13.758540249448087 ], [ 98.154225419436003, 13.758525788436708 ], [ 98.154210623579999, 13.758525788436708 ], [ 98.154210623579999, 13.758496866413951 ], [ 98.154195827723996, 13.758496866413951 ], [ 98.154195827723996, 13.758467944391196 ], [ 98.154181031868006, 13.758467944391196 ], [ 98.154181031868006, 13.758439022368439 ], [ 98.154166236012003, 13.758439022368439 ], [ 98.154166236012003, 13.758424561357062 ], [ 98.154151440155999, 13.758424561357062 ], [ 98.154151440155999, 13.758395639334305 ], [ 98.15295297582, 13.758395639334305 ], [ 98.15295297582, 13.758381178322926 ], [ 98.152938179963996, 13.758381178322926 ], [ 98.152938179963996, 13.758366717311549 ], [ 98.152923384108007, 13.758366717311549 ], [ 98.152923384108007, 13.758352256300171 ], [ 98.152908588252004, 13.758352256300171 ], [ 98.152908588252004, 13.758337795288792 ], [ 98.152331549868009, 13.758337795288792 ], [ 98.152331549868009, 13.758323334277414 ], [ 98.152316754012006, 13.758323334277414 ], [ 98.152316754012006, 13.758308873266037 ], [ 98.152301958156002, 13.758308873266037 ], [ 98.152301958156002, 13.75827995124328 ], [ 98.152287162299999, 13.75827995124328 ], [ 98.152287162299999, 13.758265490231901 ], [ 98.152272366444009, 13.758265490231901 ], [ 98.152272366444009, 13.758251029220524 ], [ 98.152257570588006, 13.758251029220524 ], [ 98.152257570588006, 13.758222107197767 ], [ 98.152242774732002, 13.758222107197767 ], [ 98.152242774732002, 13.75820764618639 ], [ 98.152227978875999, 13.75820764618639 ], [ 98.152227978875999, 13.758178724163633 ], [ 98.15221318302001, 13.758178724163633 ], [ 98.15221318302001, 13.758164263152254 ], [ 98.152198387164006, 13.758164263152254 ], [ 98.152198387164006, 13.758135341129499 ], [ 98.152183591308003, 13.758135341129499 ], [ 98.152183591308003, 13.758120880118121 ], [ 98.152168795451999, 13.758120880118121 ], [ 98.152168795451999, 13.758091958095365 ], [ 98.15215399959601, 13.758091958095365 ], [ 98.15215399959601, 13.758077497083987 ], [ 98.152139203740006, 13.758077497083987 ], [ 98.152139203740006, 13.758048575061229 ], [ 98.152124407884003, 13.758048575061229 ], [ 98.152124407884003, 13.758019653038474 ], [ 98.152109612027999, 13.758019653038474 ], [ 98.152109612027999, 13.757990731015717 ], [ 98.152094816171996, 13.757990731015717 ], [ 98.152094816171996, 13.757961808992961 ], [ 98.152080020316006, 13.757961808992961 ], [ 98.152080020316006, 13.757947347981583 ], [ 98.152065224460003, 13.757947347981583 ], [ 98.152065224460003, 13.757918425958827 ], [ 98.152050428603999, 13.757918425958827 ], [ 98.152050428603999, 13.75788950393607 ], [ 98.152035632747996, 13.75788950393607 ], [ 98.152035632747996, 13.757860581913315 ], [ 98.152020836892007, 13.757860581913315 ], [ 98.152020836892007, 13.757831659890558 ], [ 98.152006041036003, 13.757831659890558 ], [ 98.152006041036003, 13.757817198879181 ], [ 98.151443798507998, 13.757817198879181 ], [ 98.151443798507998, 13.757788276856424 ], [ 98.151429002652009, 13.757788276856424 ], [ 98.151429002652009, 13.757773815845045 ], [ 98.151414206796005, 13.757773815845045 ], [ 98.151414206796005, 13.757759354833668 ], [ 98.151399410940002, 13.757759354833668 ], [ 98.151399410940002, 13.757730432810911 ], [ 98.151384615083998, 13.757730432810911 ], [ 98.151384615083998, 13.757715971799533 ], [ 98.151369819228009, 13.757715971799533 ], [ 98.151369819228009, 13.757701510788156 ], [ 98.151355023372005, 13.757701510788156 ], [ 98.151355023372005, 13.757687049776777 ], [ 98.151340227516002, 13.757687049776777 ], [ 98.151340227516002, 13.757672588765399 ], [ 98.151325431659998, 13.757672588765399 ], [ 98.151325431659998, 13.757643666742643 ], [ 98.151310635804009, 13.757643666742643 ], [ 98.151310635804009, 13.757629205731265 ], [ 98.151295839948006, 13.757629205731265 ], [ 98.151295839948006, 13.757614744719886 ], [ 98.151281044092002, 13.757614744719886 ], [ 98.151281044092002, 13.757600283708509 ], [ 98.151266248235999, 13.757600283708509 ], [ 98.151266248235999, 13.757585822697131 ], [ 98.151251452380009, 13.757585822697131 ], [ 98.151251452380009, 13.757556900674373 ], [ 98.151236656524006, 13.757556900674373 ], [ 98.151236656524006, 13.757542439662997 ], [ 98.151221860668002, 13.757542439662997 ], [ 98.151221860668002, 13.757527978651618 ], [ 98.151207064811999, 13.757527978651618 ], [ 98.151207064811999, 13.757513517640239 ], [ 98.151192268956009, 13.757513517640239 ], [ 98.151192268956009, 13.757499056628861 ], [ 98.151177473100006, 13.757499056628861 ], [ 98.151177473100006, 13.757470134606105 ], [ 98.151162677244002, 13.757470134606105 ], [ 98.151162677244002, 13.757455673594727 ], [ 98.151147881387999, 13.757455673594727 ], [ 98.151147881387999, 13.757441212583348 ], [ 98.15113308553201, 13.757441212583348 ], [ 98.15113308553201, 13.757426751571971 ], [ 98.151118289676006, 13.757426751571971 ], [ 98.151118289676006, 13.757412290560593 ], [ 98.151103493820003, 13.757412290560593 ], [ 98.151103493820003, 13.757397829549214 ], [ 98.150393292732005, 13.757397829549214 ], [ 98.150393292732005, 13.757368907526459 ], [ 98.150378496876002, 13.757368907526459 ], [ 98.150378496876002, 13.75735444651508 ], [ 98.150363701019998, 13.75735444651508 ], [ 98.150363701019998, 13.757325524492325 ], [ 98.150348905164009, 13.757325524492325 ], [ 98.150348905164009, 13.757296602469568 ], [ 98.150215742460006, 13.757296602469568 ], [ 98.150215742460006, 13.757311063480946 ], [ 98.150171354892009, 13.757311063480946 ], [ 98.150171354892009, 13.757296602469568 ], [ 98.150156559036006, 13.757296602469568 ], [ 98.150156559036006, 13.757311063480946 ], [ 98.15011217146801, 13.757311063480946 ], [ 98.15011217146801, 13.757325524492325 ], [ 98.150097375612006, 13.757325524492325 ], [ 98.150097375612006, 13.757339985503702 ], [ 98.149949417051999, 13.757339985503702 ], [ 98.149949417051999, 13.757325524492325 ], [ 98.149905029484003, 13.757325524492325 ], [ 98.149905029484003, 13.757311063480946 ], [ 98.149890233628, 13.757311063480946 ], [ 98.149890233628, 13.757296602469568 ], [ 98.147123408555998, 13.757296602469568 ], [ 98.147123408555998, 13.757470134606105 ], [ 98.147108612700009, 13.757470134606105 ], [ 98.147108612700009, 13.757556900674373 ], [ 98.147093816844006, 13.757556900674373 ], [ 98.147093816844006, 13.75765812775402 ], [ 98.147079020988002, 13.75765812775402 ], [ 98.147079020988002, 13.75774489382229 ], [ 98.147064225131999, 13.75774489382229 ], [ 98.147064225131999, 13.757846120901936 ], [ 98.147049429276009, 13.757846120901936 ], [ 98.147049429276009, 13.757990731015717 ], [ 98.147034633420006, 13.757990731015717 ], [ 98.147034633420006, 13.758135341129499 ], [ 98.147019837564002, 13.758135341129499 ], [ 98.147019837564002, 13.758265490231901 ], [ 98.147005041707999, 13.758265490231901 ], [ 98.147005041707999, 13.758410100345683 ], [ 98.14699024585201, 13.758410100345683 ], [ 98.14699024585201, 13.758569171470842 ], [ 98.147005041707999, 13.758569171470842 ], [ 98.147005041707999, 13.758728242596002 ], [ 98.147019837564002, 13.758728242596002 ], [ 98.147019837564002, 13.758815008664271 ], [ 98.147034633420006, 13.758815008664271 ], [ 98.147034633420006, 13.758872852709782 ], [ 98.147049429276009, 13.758872852709782 ], [ 98.147049429276009, 13.758930696755295 ], [ 98.147064225131999, 13.758930696755295 ], [ 98.147064225131999, 13.759003001812186 ], [ 98.147079020988002, 13.759003001812186 ], [ 98.147079020988002, 13.759075306869077 ], [ 98.147093816844006, 13.759075306869077 ], [ 98.147093816844006, 13.759147611925968 ], [ 98.147108612700009, 13.759147611925968 ], [ 98.147108612700009, 13.759248839005615 ], [ 98.147123408555998, 13.759248839005615 ], [ 98.147123408555998, 13.759335605073883 ], [ 98.147138204412002, 13.759335605073883 ], [ 98.147138204412002, 13.759422371142152 ], [ 98.147153000268005, 13.759422371142152 ], [ 98.147153000268005, 13.759494676199042 ], [ 98.147167796124009, 13.759494676199042 ], [ 98.147167796124009, 13.759552520244554 ], [ 98.147182591979998, 13.759552520244554 ], [ 98.147182591979998, 13.759639286312824 ], [ 98.147197387836002, 13.759639286312824 ], [ 98.147197387836002, 13.759740513392471 ], [ 98.147212183692005, 13.759740513392471 ], [ 98.147212183692005, 13.759856201483496 ], [ 98.147197387836002, 13.759856201483496 ], [ 98.147197387836002, 13.759885123506251 ], [ 98.147138204412002, 13.759885123506251 ], [ 98.147138204412002, 13.760000811597276 ], [ 98.147123408555998, 13.760000811597276 ], [ 98.147123408555998, 13.760015272608655 ], [ 98.147079020988002, 13.760015272608655 ], [ 98.147079020988002, 13.760029733620033 ], [ 98.147049429276009, 13.760029733620033 ], [ 98.147049429276009, 13.76004419463141 ], [ 98.147019837564002, 13.76004419463141 ], [ 98.147019837564002, 13.760058655642789 ], [ 98.146975449996006, 13.760058655642789 ], [ 98.146975449996006, 13.760073116654167 ], [ 98.146945858283999, 13.760073116654167 ], [ 98.146945858283999, 13.760087577665546 ], [ 98.146916266572006, 13.760087577665546 ], [ 98.146916266572006, 13.760102038676923 ], [ 98.146886674859999, 13.760102038676923 ], [ 98.146886674859999, 13.760116499688301 ], [ 98.146857083148006, 13.760116499688301 ], [ 98.146857083148006, 13.76013096069968 ], [ 98.146827491435999, 13.76013096069968 ], [ 98.146827491435999, 13.760145421711057 ], [ 98.146783103868003, 13.760145421711057 ], [ 98.146783103868003, 13.760159882722435 ], [ 98.146664737020004, 13.760159882722435 ], [ 98.146664737020004, 13.760174343733814 ], [ 98.146501982604008, 13.760174343733814 ], [ 98.146501982604008, 13.760188804745193 ], [ 98.146516778459997, 13.760188804745193 ], [ 98.146516778459997, 13.760275570813461 ], [ 98.146501982604008, 13.760275570813461 ], [ 98.146501982604008, 13.760290031824839 ], [ 98.146457595035997, 13.760290031824839 ], [ 98.146457595035997, 13.760304492836218 ], [ 98.146428003324004, 13.760304492836218 ], [ 98.146428003324004, 13.760318953847595 ], [ 98.146383615756008, 13.760318953847595 ], [ 98.146383615756008, 13.760333414858973 ], [ 98.146354024044001, 13.760333414858973 ], [ 98.146354024044001, 13.760347875870352 ], [ 98.146324432332008, 13.760347875870352 ], [ 98.146324432332008, 13.76036233688173 ], [ 98.146280044763998, 13.76036233688173 ], [ 98.146280044763998, 13.760376797893107 ], [ 98.146250453052005, 13.760376797893107 ], [ 98.146250453052005, 13.760391258904486 ], [ 98.146206065484009, 13.760391258904486 ], [ 98.146206065484009, 13.760405719915864 ], [ 98.146176473772002, 13.760405719915864 ], [ 98.146176473772002, 13.760420180927241 ], [ 98.146146882060009, 13.760420180927241 ], [ 98.146146882060009, 13.76043464193862 ], [ 98.146102494491998, 13.76043464193862 ], [ 98.146102494491998, 13.760449102949998 ], [ 98.146013719356006, 13.760449102949998 ], [ 98.146013719356006, 13.760463563961377 ], [ 98.145880556652003, 13.760463563961377 ], [ 98.145880556652003, 13.760478024972754 ], [ 98.145895352508006, 13.760478024972754 ], [ 98.145895352508006, 13.760492485984132 ], [ 98.145880556652003, 13.760492485984132 ], [ 98.145880556652003, 13.760622635086536 ], [ 98.14585096494001, 13.760622635086536 ], [ 98.14585096494001, 13.760608174075157 ], [ 98.145791781515996, 13.760608174075157 ], [ 98.145791781515996, 13.760593713063779 ], [ 98.145732598091996, 13.760593713063779 ], [ 98.145732598091996, 13.760579252052402 ], [ 98.145703006380003, 13.760579252052402 ], [ 98.145703006380003, 13.760564791041023 ], [ 98.145658618812007, 13.760564791041023 ], [ 98.145658618812007, 13.760550330029645 ], [ 98.145614231243997, 13.760550330029645 ], [ 98.145614231243997, 13.760535869018266 ], [ 98.145599435388007, 13.760535869018266 ], [ 98.145599435388007, 13.760550330029645 ], [ 98.145584639532004, 13.760550330029645 ], [ 98.145584639532004, 13.760622635086536 ], [ 98.145569843676, 13.760622635086536 ], [ 98.145569843676, 13.76066601812067 ], [ 98.145555047819997, 13.76066601812067 ], [ 98.145555047819997, 13.760694940143427 ], [ 98.145540251964007, 13.760694940143427 ], [ 98.145540251964007, 13.760738323177561 ], [ 98.145525456108004, 13.760738323177561 ], [ 98.145525456108004, 13.760767245200316 ], [ 98.145510660252, 13.760767245200316 ], [ 98.145510660252, 13.76081062823445 ], [ 98.145495864395997, 13.76081062823445 ], [ 98.145495864395997, 13.760854011268586 ], [ 98.145481068540008, 13.760854011268586 ], [ 98.145481068540008, 13.76089739430272 ], [ 98.145466272684004, 13.76089739430272 ], [ 98.145466272684004, 13.760940777336854 ], [ 98.145451476828001, 13.760940777336854 ], [ 98.145451476828001, 13.760984160370988 ], [ 98.145436680971997, 13.760984160370988 ], [ 98.145436680971997, 13.761027543405122 ], [ 98.145421885116008, 13.761027543405122 ], [ 98.145421885116008, 13.761056465427879 ], [ 98.145407089260004, 13.761056465427879 ], [ 98.145407089260004, 13.761085387450635 ], [ 98.145392293404001, 13.761085387450635 ], [ 98.145392293404001, 13.76112877048477 ], [ 98.145377497547997, 13.76112877048477 ], [ 98.145377497547997, 13.761157692507526 ], [ 98.145362701692008, 13.761157692507526 ], [ 98.145362701692008, 13.76120107554166 ], [ 98.145347905836005, 13.76120107554166 ], [ 98.145347905836005, 13.761229997564417 ], [ 98.145333109980001, 13.761229997564417 ], [ 98.145333109980001, 13.761273380598551 ], [ 98.145318314123998, 13.761273380598551 ], [ 98.145318314123998, 13.761302302621308 ], [ 98.145303518268008, 13.761302302621308 ], [ 98.145303518268008, 13.761345685655442 ], [ 98.145288722412005, 13.761345685655442 ], [ 98.145288722412005, 13.761389068689576 ], [ 98.145273926556001, 13.761389068689576 ], [ 98.145273926556001, 13.761417990712332 ], [ 98.145259130699998, 13.761417990712332 ], [ 98.145259130699998, 13.761461373746467 ], [ 98.145244334844008, 13.761461373746467 ], [ 98.145244334844008, 13.761504756780601 ], [ 98.145229538988005, 13.761504756780601 ], [ 98.145229538988005, 13.761548139814735 ], [ 98.145214743132001, 13.761548139814735 ], [ 98.145214743132001, 13.761577061837492 ], [ 98.145155559708002, 13.761577061837492 ], [ 98.145155559708002, 13.761591522848869 ], [ 98.145170355564005, 13.761591522848869 ], [ 98.145170355564005, 13.76166382790576 ], [ 98.145185151420009, 13.76166382790576 ], [ 98.145185151420009, 13.761692749928516 ], [ 98.145170355564005, 13.761692749928516 ], [ 98.145170355564005, 13.761736132962652 ], [ 98.145155559708002, 13.761736132962652 ], [ 98.145155559708002, 13.761793977008164 ], [ 98.145140763851998, 13.761793977008164 ], [ 98.145140763851998, 13.761837360042298 ], [ 98.145125967996009, 13.761837360042298 ], [ 98.145125967996009, 13.761880743076432 ], [ 98.145111172140005, 13.761880743076432 ], [ 98.145111172140005, 13.761924126110566 ], [ 98.145096376284002, 13.761924126110566 ], [ 98.145096376284002, 13.7619675091447 ], [ 98.145081580427998, 13.7619675091447 ], [ 98.145081580427998, 13.761996431167457 ], [ 98.145066784572009, 13.761996431167457 ], [ 98.145066784572009, 13.762039814201591 ], [ 98.145051988716006, 13.762039814201591 ], [ 98.145051988716006, 13.762068736224348 ], [ 98.145037192860002, 13.762068736224348 ], [ 98.145037192860002, 13.762097658247104 ], [ 98.145022397003999, 13.762097658247104 ], [ 98.145022397003999, 13.762126580269861 ], [ 98.145007601148009, 13.762126580269861 ], [ 98.145007601148009, 13.762169963303995 ], [ 98.145022397003999, 13.762169963303995 ], [ 98.145022397003999, 13.762184424315373 ], [ 98.145051988716006, 13.762184424315373 ], [ 98.145051988716006, 13.76219888532675 ], [ 98.145081580427998, 13.76219888532675 ], [ 98.145081580427998, 13.762213346338129 ], [ 98.145111172140005, 13.762213346338129 ], [ 98.145111172140005, 13.762227807349507 ], [ 98.145140763851998, 13.762227807349507 ], [ 98.145140763851998, 13.762242268360884 ], [ 98.145155559708002, 13.762242268360884 ], [ 98.145155559708002, 13.762256729372263 ], [ 98.145185151420009, 13.762256729372263 ], [ 98.145185151420009, 13.762271190383641 ], [ 98.145199947275998, 13.762271190383641 ], [ 98.145199947275998, 13.76228565139502 ], [ 98.145229538988005, 13.76228565139502 ], [ 98.145229538988005, 13.762329034429154 ], [ 98.145244334844008, 13.762329034429154 ], [ 98.145244334844008, 13.762401339486045 ], [ 98.145199947275998, 13.762401339486045 ], [ 98.145199947275998, 13.762444722520179 ], [ 98.145214743132001, 13.762444722520179 ], [ 98.145214743132001, 13.762473644542935 ], [ 98.145229538988005, 13.762473644542935 ], [ 98.145229538988005, 13.76251702757707 ], [ 98.145244334844008, 13.76251702757707 ], [ 98.145244334844008, 13.762560410611204 ], [ 98.145259130699998, 13.762560410611204 ], [ 98.145259130699998, 13.76258933263396 ], [ 98.145273926556001, 13.76258933263396 ], [ 98.145273926556001, 13.762632715668094 ], [ 98.145288722412005, 13.762632715668094 ], [ 98.145288722412005, 13.762676098702229 ], [ 98.145303518268008, 13.762676098702229 ], [ 98.145303518268008, 13.762733942747742 ], [ 98.145318314123998, 13.762733942747742 ], [ 98.145318314123998, 13.762835169827389 ], [ 98.145333109980001, 13.762835169827389 ], [ 98.145333109980001, 13.762936396907035 ], [ 98.145347905836005, 13.762936396907035 ], [ 98.145347905836005, 13.763182234100462 ], [ 98.145333109980001, 13.763182234100462 ], [ 98.145333109980001, 13.763269000168732 ], [ 98.145436680971997, 13.763269000168732 ], [ 98.145436680971997, 13.763471454328025 ], [ 98.145451476828001, 13.763471454328025 ], [ 98.145451476828001, 13.76358714241905 ], [ 98.145466272684004, 13.76358714241905 ], [ 98.145466272684004, 13.763702830510075 ], [ 98.145481068540008, 13.763702830510075 ], [ 98.145481068540008, 13.763876362646613 ], [ 98.145495864395997, 13.763876362646613 ], [ 98.145495864395997, 13.763992050737638 ], [ 98.145776985660007, 13.763992050737638 ], [ 98.145776985660007, 13.764006511749017 ], [ 98.145984127643999, 13.764006511749017 ], [ 98.145984127643999, 13.764020972760393 ], [ 98.146161677915998, 13.764020972760393 ], [ 98.146161677915998, 13.764194504896931 ], [ 98.146146882060009, 13.764194504896931 ], [ 98.146146882060009, 13.764324653999335 ], [ 98.146309636476005, 13.764324653999335 ], [ 98.146309636476005, 13.764339115010713 ], [ 98.146457595035997, 13.764339115010713 ], [ 98.146457595035997, 13.76435357602209 ], [ 98.146516778459997, 13.76435357602209 ], [ 98.146516778459997, 13.764368037033469 ], [ 98.146575961883997, 13.764368037033469 ], [ 98.146575961883997, 13.764382498044847 ], [ 98.146635145307997, 13.764382498044847 ], [ 98.146635145307997, 13.764396959056224 ], [ 98.146694328731996, 13.764396959056224 ], [ 98.146694328731996, 13.764411420067603 ], [ 98.146738716300007, 13.764411420067603 ], [ 98.146738716300007, 13.764483725124494 ], [ 98.146753512155996, 13.764483725124494 ], [ 98.146753512155996, 13.764570491192762 ], [ 98.146768308012, 13.764570491192762 ], [ 98.146768308012, 13.764657257261032 ], [ 98.146783103868003, 13.764657257261032 ], [ 98.146783103868003, 13.7647440233293 ], [ 98.146797899724007, 13.7647440233293 ], [ 98.146797899724007, 13.764859711420325 ], [ 98.146812695579996, 13.764859711420325 ], [ 98.146812695579996, 13.765004321534105 ], [ 98.146827491435999, 13.765004321534105 ], [ 98.146827491435999, 13.765177853670643 ], [ 98.146842287292003, 13.765177853670643 ], [ 98.146842287292003, 13.765467073898206 ], [ 98.146827491435999, 13.765467073898206 ], [ 98.146827491435999, 13.765611684011986 ], [ 98.146812695579996, 13.765611684011986 ], [ 98.146812695579996, 13.765640606034744 ], [ 98.146738716300007, 13.765640606034744 ], [ 98.146738716300007, 13.765770755137147 ], [ 98.146753512155996, 13.765770755137147 ], [ 98.146753512155996, 13.765843060194037 ], [ 98.146768308012, 13.765843060194037 ], [ 98.146768308012, 13.766002131319196 ], [ 98.146783103868003, 13.766002131319196 ], [ 98.146783103868003, 13.766161202444357 ], [ 98.146768308012, 13.766161202444357 ], [ 98.146768308012, 13.766681798853968 ], [ 98.146753512155996, 13.766681798853968 ], [ 98.146753512155996, 13.767014402115665 ], [ 98.146738716300007, 13.767014402115665 ], [ 98.146738716300007, 13.767144551218069 ], [ 98.146723920444003, 13.767144551218069 ], [ 98.146723920444003, 13.767260239309094 ], [ 98.146709124588, 13.767260239309094 ], [ 98.146709124588, 13.767274700320471 ], [ 98.146723920444003, 13.767274700320471 ], [ 98.146723920444003, 13.767289161331849 ], [ 98.146797899724007, 13.767289161331849 ], [ 98.146797899724007, 13.767303622343228 ], [ 98.146871879003996, 13.767303622343228 ], [ 98.146871879003996, 13.767318083354606 ], [ 98.146945858283999, 13.767318083354606 ], [ 98.146945858283999, 13.767332544365983 ], [ 98.147005041707999, 13.767332544365983 ], [ 98.147005041707999, 13.767347005377362 ], [ 98.147064225131999, 13.767347005377362 ], [ 98.147064225131999, 13.76736146638874 ], [ 98.147123408555998, 13.76736146638874 ], [ 98.147123408555998, 13.767375927400119 ], [ 98.147182591979998, 13.767375927400119 ], [ 98.147182591979998, 13.767390388411496 ], [ 98.147226979548009, 13.767390388411496 ], [ 98.147226979548009, 13.767404849422874 ], [ 98.147286162972009, 13.767404849422874 ], [ 98.147286162972009, 13.767419310434253 ], [ 98.147330550540005, 13.767419310434253 ], [ 98.147330550540005, 13.76743377144563 ], [ 98.147374938108001, 13.76743377144563 ], [ 98.147374938108001, 13.767477154479765 ], [ 98.147463713244008, 13.767477154479765 ], [ 98.147463713244008, 13.767491615491142 ], [ 98.147537692523997, 13.767491615491142 ], [ 98.147537692523997, 13.767506076502521 ], [ 98.147567284236004, 13.767506076502521 ], [ 98.147567284236004, 13.767520537513899 ], [ 98.147611671804, 13.767520537513899 ], [ 98.147611671804, 13.767534998525278 ], [ 98.147641263516007, 13.767534998525278 ], [ 98.147641263516007, 13.767549459536655 ], [ 98.147670855228, 13.767549459536655 ], [ 98.147670855228, 13.767563920548033 ], [ 98.147715242795996, 13.767563920548033 ], [ 98.147715242795996, 13.767578381559412 ], [ 98.147744834508003, 13.767578381559412 ], [ 98.147744834508003, 13.767592842570791 ], [ 98.147774426219996, 13.767592842570791 ], [ 98.147774426219996, 13.767607303582167 ], [ 98.147804017932003, 13.767607303582167 ], [ 98.147804017932003, 13.767621764593546 ], [ 98.147833609643996, 13.767621764593546 ], [ 98.147833609643996, 13.767636225604925 ], [ 98.147877997212007, 13.767636225604925 ], [ 98.147877997212007, 13.767650686616303 ], [ 98.147907588923999, 13.767650686616303 ], [ 98.147907588923999, 13.76766514762768 ], [ 98.147937180636006, 13.76766514762768 ], [ 98.147937180636006, 13.767679608639058 ], [ 98.147966772347999, 13.767679608639058 ], [ 98.147966772347999, 13.767694069650437 ], [ 98.147996364060006, 13.767694069650437 ], [ 98.147996364060006, 13.767708530661816 ], [ 98.148025955771999, 13.767708530661816 ], [ 98.148025955771999, 13.767722991673192 ], [ 98.148055547484006, 13.767722991673192 ], [ 98.148055547484006, 13.767737452684571 ], [ 98.148099935052002, 13.767737452684571 ], [ 98.148099935052002, 13.76775191369595 ], [ 98.148129526764009, 13.76775191369595 ], [ 98.148129526764009, 13.767766374707326 ], [ 98.148159118476002, 13.767766374707326 ], [ 98.148159118476002, 13.767780835718705 ], [ 98.148188710188009, 13.767780835718705 ], [ 98.148188710188009, 13.767694069650437 ], [ 98.148277485324002, 13.767694069650437 ], [ 98.148277485324002, 13.767708530661816 ], [ 98.148321872891998, 13.767708530661816 ], [ 98.148321872891998, 13.767722991673192 ], [ 98.148351464604005, 13.767722991673192 ], [ 98.148351464604005, 13.767737452684571 ], [ 98.148395852172001, 13.767737452684571 ], [ 98.148395852172001, 13.76775191369595 ], [ 98.148455035596001, 13.76775191369595 ], [ 98.148455035596001, 13.767766374707326 ], [ 98.148499423163997, 13.767766374707326 ], [ 98.148499423163997, 13.767780835718705 ], [ 98.148543810732008, 13.767780835718705 ], [ 98.148543810732008, 13.767795296730084 ], [ 98.148602994156008, 13.767795296730084 ], [ 98.148602994156008, 13.767809757741462 ], [ 98.148647381724004, 13.767809757741462 ], [ 98.148647381724004, 13.767824218752839 ], [ 98.148676973435997, 13.767824218752839 ], [ 98.148676973435997, 13.767838679764218 ], [ 98.148721361004007, 13.767838679764218 ], [ 98.148721361004007, 13.767853140775596 ], [ 98.148780544428007, 13.767853140775596 ], [ 98.148780544428007, 13.767867601786975 ], [ 98.148824931996003, 13.767867601786975 ], [ 98.148824931996003, 13.767882062798352 ], [ 98.148869319564, 13.767882062798352 ], [ 98.148869319564, 13.76789652380973 ], [ 98.148928502987999, 13.76789652380973 ], [ 98.148928502987999, 13.767910984821109 ], [ 98.148972890555996, 13.767910984821109 ], [ 98.148972890555996, 13.767925445832487 ], [ 98.149017278124006, 13.767925445832487 ], [ 98.149017278124006, 13.767939906843864 ], [ 98.149046869835999, 13.767939906843864 ], [ 98.149046869835999, 13.767954367855243 ], [ 98.149076461548006, 13.767954367855243 ], [ 98.149076461548006, 13.767968828866621 ], [ 98.149120849116002, 13.767968828866621 ], [ 98.149120849116002, 13.767983289878 ], [ 98.149150440828009, 13.767983289878 ], [ 98.149150440828009, 13.767997750889377 ], [ 98.149180032540002, 13.767997750889377 ], [ 98.149180032540002, 13.767910984821109 ], [ 98.149283603531998, 13.767910984821109 ], [ 98.149283603531998, 13.767925445832487 ], [ 98.149327991100009, 13.767925445832487 ], [ 98.149327991100009, 13.767939906843864 ], [ 98.149387174524009, 13.767939906843864 ], [ 98.149387174524009, 13.767954367855243 ], [ 98.149416766236001, 13.767954367855243 ], [ 98.149416766236001, 13.767968828866621 ], [ 98.149505541372008, 13.767968828866621 ], [ 98.149505541372008, 13.767983289878 ], [ 98.149579520651997, 13.767983289878 ], [ 98.149579520651997, 13.767997750889377 ], [ 98.149668295788004, 13.767997750889377 ], [ 98.149668295788004, 13.768012211900755 ], [ 98.14977186678, 13.768012211900755 ], [ 98.14977186678, 13.768026672912134 ], [ 98.149831050204, 13.768026672912134 ], [ 98.149831050204, 13.768041133923511 ], [ 98.149905029484003, 13.768041133923511 ], [ 98.149905029484003, 13.768055594934889 ], [ 98.149964212908003, 13.768055594934889 ], [ 98.149964212908003, 13.768070055946268 ], [ 98.150023396332003, 13.768070055946268 ], [ 98.150023396332003, 13.768084516957646 ], [ 98.150067783899999, 13.768084516957646 ], [ 98.150067783899999, 13.768098977969023 ], [ 98.150082579756003, 13.768098977969023 ], [ 98.150082579756003, 13.768113438980402 ], [ 98.150156559036006, 13.768113438980402 ], [ 98.150156559036006, 13.768098977969023 ], [ 98.150260130028002, 13.768098977969023 ], [ 98.150260130028002, 13.768084516957646 ], [ 98.150363701019998, 13.768084516957646 ], [ 98.150363701019998, 13.768070055946268 ], [ 98.150452476156005, 13.768070055946268 ], [ 98.150452476156005, 13.768055594934889 ], [ 98.150556047148001, 13.768055594934889 ], [ 98.150556047148001, 13.768041133923511 ], [ 98.150615230572001, 13.768041133923511 ], [ 98.150615230572001, 13.768055594934889 ], [ 98.150689209852004, 13.768055594934889 ], [ 98.150689209852004, 13.768070055946268 ], [ 98.150748393276004, 13.768070055946268 ], [ 98.150748393276004, 13.768084516957646 ], [ 98.150822372556007, 13.768084516957646 ], [ 98.150822372556007, 13.768098977969023 ], [ 98.150851964268, 13.768098977969023 ], [ 98.150851964268, 13.768330354151074 ], [ 98.150911147692, 13.768330354151074 ], [ 98.150911147692, 13.768315893139697 ], [ 98.151044310396003, 13.768315893139697 ], [ 98.151044310396003, 13.768301432128318 ], [ 98.151207064811999, 13.768301432128318 ], [ 98.151207064811999, 13.76828697111694 ], [ 98.151562165355998, 13.76828697111694 ], [ 98.151562165355998, 13.768301432128318 ], [ 98.151695328060001, 13.768301432128318 ], [ 98.151695328060001, 13.768388198196586 ], [ 98.151902470044007, 13.768388198196586 ], [ 98.151902470044007, 13.768373737185208 ], [ 98.152080020316006, 13.768373737185208 ], [ 98.152080020316006, 13.768359276173831 ], [ 98.152420325004002, 13.768359276173831 ], [ 98.152420325004002, 13.768373737185208 ], [ 98.152479508428002, 13.768373737185208 ], [ 98.152479508428002, 13.768388198196586 ], [ 98.152538691852001, 13.768388198196586 ], [ 98.152538691852001, 13.768402659207965 ], [ 98.152583079419998, 13.768402659207965 ], [ 98.152583079419998, 13.768417120219343 ], [ 98.152627466988008, 13.768417120219343 ], [ 98.152627466988008, 13.76843158123072 ], [ 98.152671854556004, 13.76843158123072 ], [ 98.152671854556004, 13.768446042242099 ], [ 98.152716242124001, 13.768446042242099 ], [ 98.152716242124001, 13.768460503253477 ], [ 98.152760629691997, 13.768460503253477 ], [ 98.152760629691997, 13.768474964264856 ], [ 98.152805017260008, 13.768474964264856 ], [ 98.152805017260008, 13.768489425276233 ], [ 98.152849404828004, 13.768489425276233 ], [ 98.152849404828004, 13.768503886287611 ], [ 98.152878996539997, 13.768503886287611 ], [ 98.152878996539997, 13.76851834729899 ], [ 98.152908588252004, 13.76851834729899 ], [ 98.152908588252004, 13.768388198196586 ], [ 98.152923384108007, 13.768388198196586 ], [ 98.152923384108007, 13.768402659207965 ], [ 98.153012159244, 13.768402659207965 ], [ 98.153012159244, 13.768417120219343 ], [ 98.153100934380006, 13.768417120219343 ], [ 98.153100934380006, 13.76843158123072 ], [ 98.15317491366001, 13.76843158123072 ], [ 98.15317491366001, 13.768446042242099 ], [ 98.15323409708401, 13.768446042242099 ], [ 98.15323409708401, 13.768460503253477 ], [ 98.153308076363999, 13.768460503253477 ], [ 98.153308076363999, 13.768474964264856 ], [ 98.153352463932009, 13.768474964264856 ], [ 98.153352463932009, 13.768489425276233 ], [ 98.153396851500005, 13.768489425276233 ], [ 98.153396851500005, 13.768503886287611 ], [ 98.153441239068002, 13.768503886287611 ], [ 98.153441239068002, 13.76851834729899 ], [ 98.153485626635998, 13.76851834729899 ], [ 98.153485626635998, 13.768532808310368 ], [ 98.153530014204009, 13.768532808310368 ], [ 98.153530014204009, 13.768547269321745 ], [ 98.153559605916001, 13.768547269321745 ], [ 98.153559605916001, 13.768561730333124 ], [ 98.153603993483998, 13.768561730333124 ], [ 98.153603993483998, 13.768576191344502 ], [ 98.153648381052008, 13.768576191344502 ], [ 98.153648381052008, 13.768590652355881 ], [ 98.153677972764001, 13.768590652355881 ], [ 98.153677972764001, 13.768605113367258 ], [ 98.153722360331997, 13.768605113367258 ], [ 98.153722360331997, 13.768619574378636 ], [ 98.153751952044004, 13.768619574378636 ], [ 98.153751952044004, 13.768634035390015 ], [ 98.153781543755997, 13.768634035390015 ], [ 98.153781543755997, 13.768648496401392 ], [ 98.153811135468004, 13.768648496401392 ], [ 98.153811135468004, 13.76866295741277 ], [ 98.153840727179997, 13.76866295741277 ], [ 98.153840727179997, 13.768677418424149 ], [ 98.153855523036, 13.768677418424149 ], [ 98.153855523036, 13.768547269321745 ], [ 98.153899910603997, 13.768547269321745 ], [ 98.153899910603997, 13.768561730333124 ], [ 98.153944298172007, 13.768561730333124 ], [ 98.153944298172007, 13.768576191344502 ], [ 98.153973889884, 13.768576191344502 ], [ 98.153973889884, 13.768590652355881 ], [ 98.154018277451996, 13.768590652355881 ], [ 98.154018277451996, 13.768605113367258 ], [ 98.154047869164003, 13.768605113367258 ], [ 98.154047869164003, 13.768619574378636 ], [ 98.154092256732, 13.768619574378636 ], [ 98.154092256732, 13.768634035390015 ], [ 98.154136644299996, 13.768634035390015 ], [ 98.154136644299996, 13.768648496401392 ], [ 98.154166236012003, 13.768648496401392 ], [ 98.154166236012003, 13.76866295741277 ], [ 98.154210623579999, 13.76866295741277 ], [ 98.154210623579999, 13.768677418424149 ], [ 98.154240215292006, 13.768677418424149 ], [ 98.154240215292006, 13.768691879435528 ], [ 98.154269807003999, 13.768691879435528 ], [ 98.154269807003999, 13.768706340446904 ], [ 98.154314194572009, 13.768706340446904 ], [ 98.154314194572009, 13.768720801458283 ], [ 98.154343786284002, 13.768720801458283 ], [ 98.154343786284002, 13.768735262469662 ], [ 98.154373377996009, 13.768735262469662 ], [ 98.154373377996009, 13.76874972348104 ], [ 98.154402969708002, 13.76874972348104 ], [ 98.154402969708002, 13.768764184492417 ], [ 98.154447357275998, 13.768764184492417 ], [ 98.154447357275998, 13.768778645503795 ], [ 98.154476948988005, 13.768778645503795 ], [ 98.154476948988005, 13.768793106515174 ], [ 98.154506540699998, 13.768793106515174 ], [ 98.154506540699998, 13.768807567526553 ], [ 98.154536132412005, 13.768807567526553 ], [ 98.154536132412005, 13.768822028537929 ], [ 98.154565724123998, 13.768822028537929 ], [ 98.154565724123998, 13.768836489549308 ], [ 98.154595315836005, 13.768836489549308 ], [ 98.154595315836005, 13.768850950560687 ], [ 98.154624907547998, 13.768850950560687 ], [ 98.154624907547998, 13.768865411572065 ], [ 98.154669295116008, 13.768865411572065 ], [ 98.154669295116008, 13.768879872583442 ], [ 98.154698886828001, 13.768879872583442 ], [ 98.154698886828001, 13.768894333594821 ], [ 98.154728478540008, 13.768894333594821 ], [ 98.154728478540008, 13.768908794606199 ], [ 98.154758070252001, 13.768908794606199 ], [ 98.154758070252001, 13.768923255617578 ], [ 98.154787661964008, 13.768923255617578 ], [ 98.154787661964008, 13.768937716628955 ], [ 98.154817253676001, 13.768937716628955 ], [ 98.154817253676001, 13.768952177640333 ], [ 98.154861641243997, 13.768952177640333 ], [ 98.154861641243997, 13.768966638651712 ], [ 98.154891232956004, 13.768966638651712 ], [ 98.154891232956004, 13.768981099663089 ], [ 98.154920824667997, 13.768981099663089 ], [ 98.154920824667997, 13.768850950560687 ], [ 98.154950416380004, 13.768850950560687 ], [ 98.154950416380004, 13.768865411572065 ], [ 98.154980008091997, 13.768865411572065 ], [ 98.154980008091997, 13.768879872583442 ], [ 98.155024395660007, 13.768879872583442 ], [ 98.155024395660007, 13.768894333594821 ], [ 98.155068783228003, 13.768894333594821 ], [ 98.155068783228003, 13.768908794606199 ], [ 98.155098374939996, 13.768908794606199 ], [ 98.155098374939996, 13.768923255617578 ], [ 98.155142762508007, 13.768923255617578 ], [ 98.155142762508007, 13.768937716628955 ], [ 98.155172354219999, 13.768937716628955 ], [ 98.155172354219999, 13.768952177640333 ], [ 98.155201945932006, 13.768952177640333 ], [ 98.155201945932006, 13.768966638651712 ], [ 98.155231537643999, 13.768966638651712 ], [ 98.155231537643999, 13.768981099663089 ], [ 98.155261129356006, 13.768981099663089 ], [ 98.155261129356006, 13.768995560674467 ], [ 98.155290721067999, 13.768995560674467 ], [ 98.155290721067999, 13.769010021685846 ], [ 98.15533510863601, 13.769010021685846 ], [ 98.15533510863601, 13.769024482697224 ], [ 98.155364700348002, 13.769024482697224 ], [ 98.155364700348002, 13.769038943708601 ], [ 98.155394292060009, 13.769038943708601 ], [ 98.155394292060009, 13.76905340471998 ], [ 98.155423883772002, 13.76905340471998 ], [ 98.155423883772002, 13.769067865731358 ], [ 98.155453475484009, 13.769067865731358 ], [ 98.155453475484009, 13.769082326742737 ], [ 98.155483067196002, 13.769082326742737 ], [ 98.155483067196002, 13.769096787754114 ], [ 98.155512658908009, 13.769096787754114 ], [ 98.155512658908009, 13.769111248765492 ], [ 98.155542250620002, 13.769111248765492 ], [ 98.155542250620002, 13.769125709776871 ], [ 98.155571842332009, 13.769125709776871 ], [ 98.155571842332009, 13.769140170788249 ], [ 98.155616229900005, 13.769140170788249 ], [ 98.155616229900005, 13.769154631799626 ], [ 98.155645821611998, 13.769154631799626 ], [ 98.155645821611998, 13.769169092811005 ], [ 98.155675413324005, 13.769169092811005 ], [ 98.155675413324005, 13.769183553822383 ], [ 98.155719800892001, 13.769183553822383 ], [ 98.155719800892001, 13.769198014833762 ], [ 98.155764188459997, 13.769198014833762 ], [ 98.155764188459997, 13.769212475845139 ], [ 98.155793780172004, 13.769212475845139 ], [ 98.155793780172004, 13.769226936856517 ], [ 98.155838167740001, 13.769226936856517 ], [ 98.155838167740001, 13.769241397867896 ], [ 98.155882555307997, 13.769241397867896 ], [ 98.155882555307997, 13.769255858879273 ], [ 98.155926942876008, 13.769255858879273 ], [ 98.155926942876008, 13.769270319890651 ], [ 98.155956534588, 13.769270319890651 ], [ 98.155956534588, 13.769183553822383 ], [ 98.155971330444004, 13.769183553822383 ], [ 98.155971330444004, 13.769154631799626 ], [ 98.156000922155997, 13.769154631799626 ], [ 98.156000922155997, 13.769169092811005 ], [ 98.156089697292003, 13.769169092811005 ], [ 98.156089697292003, 13.769183553822383 ], [ 98.156178472427996, 13.769183553822383 ], [ 98.156178472427996, 13.769198014833762 ], [ 98.156282043420006, 13.769198014833762 ], [ 98.156282043420006, 13.769212475845139 ], [ 98.156385614412002, 13.769212475845139 ], [ 98.156385614412002, 13.769226936856517 ], [ 98.156474389548009, 13.769226936856517 ], [ 98.156474389548009, 13.769241397867896 ], [ 98.156548368827998, 13.769241397867896 ], [ 98.156548368827998, 13.769255858879273 ], [ 98.156607552251998, 13.769255858879273 ], [ 98.156607552251998, 13.769270319890651 ], [ 98.156666735675998, 13.769270319890651 ], [ 98.156666735675998, 13.76928478090203 ], [ 98.156725919099998, 13.76928478090203 ], [ 98.156725919099998, 13.769299241913409 ], [ 98.156770306668008, 13.769299241913409 ], [ 98.156770306668008, 13.769313702924785 ], [ 98.156814694236004, 13.769313702924785 ], [ 98.156814694236004, 13.769328163936164 ], [ 98.156829490092008, 13.769328163936164 ], [ 98.156829490092008, 13.769183553822383 ], [ 98.156888673516008, 13.769183553822383 ], [ 98.156888673516008, 13.769198014833762 ], [ 98.156962652795997, 13.769198014833762 ], [ 98.156962652795997, 13.769212475845139 ], [ 98.157021836219997, 13.769212475845139 ], [ 98.157021836219997, 13.769226936856517 ], [ 98.157066223788007, 13.769226936856517 ], [ 98.157066223788007, 13.769241397867896 ], [ 98.157110611356003, 13.769241397867896 ], [ 98.157110611356003, 13.769255858879273 ], [ 98.157154998924, 13.769255858879273 ], [ 98.157154998924, 13.769270319890651 ], [ 98.157199386491996, 13.769270319890651 ], [ 98.157199386491996, 13.76928478090203 ], [ 98.157243774060007, 13.76928478090203 ], [ 98.157243774060007, 13.769299241913409 ], [ 98.157288161628003, 13.769299241913409 ], [ 98.157288161628003, 13.769313702924785 ], [ 98.157332549195999, 13.769313702924785 ], [ 98.157332549195999, 13.769328163936164 ], [ 98.15737693676401, 13.769328163936164 ], [ 98.15737693676401, 13.769342624947543 ], [ 98.157436120188009, 13.769342624947543 ], [ 98.157436120188009, 13.769357085958921 ], [ 98.157495303612009, 13.769357085958921 ], [ 98.157495303612009, 13.769371546970298 ], [ 98.157569282891998, 13.769371546970298 ], [ 98.157569282891998, 13.769386007981677 ], [ 98.157643262172002, 13.769386007981677 ], [ 98.157643262172002, 13.769400468993055 ], [ 98.157717241452005, 13.769400468993055 ], [ 98.157717241452005, 13.769299241913409 ], [ 98.157732037308008, 13.769299241913409 ], [ 98.157732037308008, 13.76928478090203 ], [ 98.157776424876005, 13.76928478090203 ], [ 98.157776424876005, 13.769299241913409 ], [ 98.157909587580008, 13.769299241913409 ], [ 98.157909587580008, 13.769313702924785 ], [ 98.157998362716, 13.769313702924785 ], [ 98.157998362716, 13.769328163936164 ], [ 98.158087137852007, 13.769328163936164 ], [ 98.158087137852007, 13.769342624947543 ], [ 98.158161117131996, 13.769342624947543 ], [ 98.158161117131996, 13.769357085958921 ], [ 98.158235096412, 13.769357085958921 ], [ 98.158235096412, 13.769371546970298 ], [ 98.158353463259999, 13.769371546970298 ], [ 98.158353463259999, 13.769386007981677 ], [ 98.158442238396006, 13.769386007981677 ], [ 98.158442238396006, 13.769400468993055 ], [ 98.158516217676009, 13.769400468993055 ], [ 98.158516217676009, 13.769414930004434 ], [ 98.158545809388002, 13.769414930004434 ], [ 98.158545809388002, 13.769386007981677 ], [ 98.158560605244006, 13.769386007981677 ] ], [ [ 98.149180032540002, 13.758366717311549 ], [ 98.149194828396006, 13.758366717311549 ], [ 98.149194828396006, 13.758381178322926 ], [ 98.149209624252009, 13.758381178322926 ], [ 98.149209624252009, 13.758453483379817 ], [ 98.149194828396006, 13.758453483379817 ], [ 98.149194828396006, 13.758467944391196 ], [ 98.149180032540002, 13.758467944391196 ], [ 98.149180032540002, 13.758482405402574 ], [ 98.149150440828009, 13.758482405402574 ], [ 98.149150440828009, 13.758496866413951 ], [ 98.149135644972006, 13.758496866413951 ], [ 98.149135644972006, 13.75851132742533 ], [ 98.149106053259999, 13.75851132742533 ], [ 98.149106053259999, 13.758525788436708 ], [ 98.149076461548006, 13.758525788436708 ], [ 98.149076461548006, 13.758540249448087 ], [ 98.149061665692003, 13.758540249448087 ], [ 98.149061665692003, 13.758554710459464 ], [ 98.14903207398001, 13.758554710459464 ], [ 98.14903207398001, 13.758569171470842 ], [ 98.149017278124006, 13.758569171470842 ], [ 98.149017278124006, 13.758583632482221 ], [ 98.148987686411999, 13.758583632482221 ], [ 98.148987686411999, 13.758598093493598 ], [ 98.148854523707996, 13.758598093493598 ], [ 98.148854523707996, 13.758713781584623 ], [ 98.148617790011997, 13.758713781584623 ], [ 98.148617790011997, 13.758728242596002 ], [ 98.148558606587997, 13.758728242596002 ], [ 98.148558606587997, 13.75874270360738 ], [ 98.148573402444001, 13.75874270360738 ], [ 98.148573402444001, 13.758757164618759 ], [ 98.148588198300004, 13.758757164618759 ], [ 98.148588198300004, 13.758771625630136 ], [ 98.148617790011997, 13.758771625630136 ], [ 98.148617790011997, 13.758858391698405 ], [ 98.148484627308008, 13.758858391698405 ], [ 98.148484627308008, 13.758872852709782 ], [ 98.148129526764009, 13.758872852709782 ], [ 98.148129526764009, 13.758887313721161 ], [ 98.148099935052002, 13.758887313721161 ], [ 98.148099935052002, 13.758901774732539 ], [ 98.148070343340009, 13.758901774732539 ], [ 98.148070343340009, 13.758916235743918 ], [ 98.148040751628002, 13.758916235743918 ], [ 98.148040751628002, 13.758930696755295 ], [ 98.14801115991601, 13.758930696755295 ], [ 98.14801115991601, 13.758945157766673 ], [ 98.147981568204003, 13.758945157766673 ], [ 98.147981568204003, 13.758959618778052 ], [ 98.147966772347999, 13.758959618778052 ], [ 98.147966772347999, 13.75897407978943 ], [ 98.147937180636006, 13.75897407978943 ], [ 98.147937180636006, 13.758988540800807 ], [ 98.147907588923999, 13.758988540800807 ], [ 98.147907588923999, 13.759003001812186 ], [ 98.147863201356003, 13.759003001812186 ], [ 98.147863201356003, 13.758959618778052 ], [ 98.1478484055, 13.758959618778052 ], [ 98.1478484055, 13.758872852709782 ], [ 98.147833609643996, 13.758872852709782 ], [ 98.147833609643996, 13.758858391698405 ], [ 98.1478484055, 13.758858391698405 ], [ 98.1478484055, 13.758843930687027 ], [ 98.147833609643996, 13.758843930687027 ], [ 98.147833609643996, 13.758829469675648 ], [ 98.1478484055, 13.758829469675648 ], [ 98.1478484055, 13.758815008664271 ], [ 98.147833609643996, 13.758815008664271 ], [ 98.147833609643996, 13.758800547652893 ], [ 98.147804017932003, 13.758800547652893 ], [ 98.147804017932003, 13.758786086641514 ], [ 98.147759630364007, 13.758786086641514 ], [ 98.147759630364007, 13.758771625630136 ], [ 98.147730038652, 13.758771625630136 ], [ 98.147730038652, 13.758728242596002 ], [ 98.147759630364007, 13.758728242596002 ], [ 98.147759630364007, 13.758684859561868 ], [ 98.147774426219996, 13.758684859561868 ], [ 98.147774426219996, 13.75865593753911 ], [ 98.147759630364007, 13.75865593753911 ], [ 98.147759630364007, 13.758612554504976 ], [ 98.147744834508003, 13.758612554504976 ], [ 98.147744834508003, 13.758583632482221 ], [ 98.147730038652, 13.758583632482221 ], [ 98.147730038652, 13.758540249448087 ], [ 98.147715242795996, 13.758540249448087 ], [ 98.147715242795996, 13.758496866413951 ], [ 98.147700446940007, 13.758496866413951 ], [ 98.147700446940007, 13.758439022368439 ], [ 98.147715242795996, 13.758439022368439 ], [ 98.147715242795996, 13.758424561357062 ], [ 98.147730038652, 13.758424561357062 ], [ 98.147730038652, 13.758395639334305 ], [ 98.147744834508003, 13.758395639334305 ], [ 98.147744834508003, 13.758366717311549 ], [ 98.147759630364007, 13.758366717311549 ], [ 98.147759630364007, 13.758337795288792 ], [ 98.147774426219996, 13.758337795288792 ], [ 98.147774426219996, 13.758323334277414 ], [ 98.147789222076, 13.758323334277414 ], [ 98.147789222076, 13.758294412254658 ], [ 98.147804017932003, 13.758294412254658 ], [ 98.147804017932003, 13.758265490231901 ], [ 98.147818813788007, 13.758265490231901 ], [ 98.147818813788007, 13.758251029220524 ], [ 98.147833609643996, 13.758251029220524 ], [ 98.147833609643996, 13.758222107197767 ], [ 98.147877997212007, 13.758222107197767 ], [ 98.147877997212007, 13.758193185175012 ], [ 98.147907588923999, 13.758193185175012 ], [ 98.147907588923999, 13.758178724163633 ], [ 98.147981568204003, 13.758178724163633 ], [ 98.147981568204003, 13.758164263152254 ], [ 98.148025955771999, 13.758164263152254 ], [ 98.148025955771999, 13.758149802140878 ], [ 98.148040751628002, 13.758149802140878 ], [ 98.148040751628002, 13.758135341129499 ], [ 98.148085139195999, 13.758135341129499 ], [ 98.148085139195999, 13.758120880118121 ], [ 98.148099935052002, 13.758120880118121 ], [ 98.148099935052002, 13.758106419106742 ], [ 98.148203506043998, 13.758106419106742 ], [ 98.148203506043998, 13.758091958095365 ], [ 98.148366260460008, 13.758091958095365 ], [ 98.148366260460008, 13.758106419106742 ], [ 98.148543810732008, 13.758106419106742 ], [ 98.148543810732008, 13.758091958095365 ], [ 98.148662177580007, 13.758091958095365 ], [ 98.148662177580007, 13.758077497083987 ], [ 98.148691769292, 13.758077497083987 ], [ 98.148691769292, 13.758091958095365 ], [ 98.148721361004007, 13.758091958095365 ], [ 98.148721361004007, 13.758077497083987 ], [ 98.148736156859997, 13.758077497083987 ], [ 98.148736156859997, 13.758091958095365 ], [ 98.148854523707996, 13.758091958095365 ], [ 98.148854523707996, 13.758106419106742 ], [ 98.148958094700006, 13.758106419106742 ], [ 98.148958094700006, 13.758120880118121 ], [ 98.149002482268003, 13.758120880118121 ], [ 98.149002482268003, 13.758135341129499 ], [ 98.149046869835999, 13.758135341129499 ], [ 98.149046869835999, 13.758120880118121 ], [ 98.14909125740401, 13.758120880118121 ], [ 98.14909125740401, 13.758106419106742 ], [ 98.149135644972006, 13.758106419106742 ], [ 98.149135644972006, 13.758091958095365 ], [ 98.149180032540002, 13.758091958095365 ], [ 98.149180032540002, 13.758077497083987 ], [ 98.149224420107998, 13.758077497083987 ], [ 98.149224420107998, 13.758063036072608 ], [ 98.149283603531998, 13.758063036072608 ], [ 98.149283603531998, 13.758077497083987 ], [ 98.149327991100009, 13.758077497083987 ], [ 98.149327991100009, 13.758091958095365 ], [ 98.149372378668005, 13.758091958095365 ], [ 98.149372378668005, 13.758106419106742 ], [ 98.149416766236001, 13.758106419106742 ], [ 98.149416766236001, 13.758120880118121 ], [ 98.149475949660001, 13.758120880118121 ], [ 98.149475949660001, 13.758135341129499 ], [ 98.149505541372008, 13.758135341129499 ], [ 98.149505541372008, 13.758178724163633 ], [ 98.149490745516005, 13.758178724163633 ], [ 98.149490745516005, 13.758193185175012 ], [ 98.149475949660001, 13.758193185175012 ], [ 98.149475949660001, 13.75820764618639 ], [ 98.149461153803998, 13.75820764618639 ], [ 98.149461153803998, 13.758222107197767 ], [ 98.149446357948008, 13.758222107197767 ], [ 98.149446357948008, 13.758236568209146 ], [ 98.149431562092005, 13.758236568209146 ], [ 98.149431562092005, 13.758251029220524 ], [ 98.149416766236001, 13.758251029220524 ], [ 98.149416766236001, 13.758265490231901 ], [ 98.149401970379998, 13.758265490231901 ], [ 98.149401970379998, 13.75827995124328 ], [ 98.149387174524009, 13.75827995124328 ], [ 98.149387174524009, 13.758294412254658 ], [ 98.149372378668005, 13.758294412254658 ], [ 98.149372378668005, 13.758308873266037 ], [ 98.149357582812002, 13.758308873266037 ], [ 98.149357582812002, 13.758323334277414 ], [ 98.149342786955998, 13.758323334277414 ], [ 98.149342786955998, 13.758337795288792 ], [ 98.149327991100009, 13.758337795288792 ], [ 98.149327991100009, 13.758352256300171 ], [ 98.149313195244005, 13.758352256300171 ], [ 98.149313195244005, 13.758366717311549 ], [ 98.149209624252009, 13.758366717311549 ], [ 98.149209624252009, 13.758352256300171 ], [ 98.149194828396006, 13.758352256300171 ], [ 98.149194828396006, 13.758337795288792 ], [ 98.149180032540002, 13.758337795288792 ], [ 98.149180032540002, 13.758323334277414 ], [ 98.149165236683999, 13.758323334277414 ], [ 98.149165236683999, 13.758352256300171 ], [ 98.149180032540002, 13.758352256300171 ], [ 98.149180032540002, 13.758366717311549 ] ] ] ] } }
]
}
