{
 "type": "FeatureCollection",
 "crs": {
  "type": "name",
  "properties": {
   "name": "EPSG:32647"
  }
 },
 "note": "Interpreter-digitised envelopes (UTM 47N). Each only separates one landslide from its neighbours and from village roads/yards; the mapped outline is the native-resolution bare-ground mask inside it.",
 "features": [
  {
   "type": "Feature",
   "properties": {
    "id": "LS-01",
    "name": "Northern debris-flood fan",
    "description": "Debris flood / mudflow deposit; feeder channel enters from the west outside the survey, LS-02 runout also drains into it",
    "priority": 0
   },
   "geometry": {
    "type": "Polygon",
    "coordinates": [
     [
      [
       408770,
       1526060
      ],
      [
       408825,
       1526160
      ],
      [
       409225,
       1526160
      ],
      [
       409225,
       1526060
      ],
      [
       409190,
       1526030
      ],
      [
       409150,
       1526020
      ],
      [
       409100,
       1526010
      ],
      [
       409070,
       1526000
      ],
      [
       409050,
       1525975
      ],
      [
       409030,
       1525940
      ],
      [
       409010,
       1525915
      ],
      [
       408975,
       1525900
      ],
      [
       408950,
       1525915
      ],
      [
       408915,
       1525915
      ],
      [
       408870,
       1525925
      ],
      [
       408835,
       1525915
      ],
      [
       408800,
       1525915
      ],
      [
       408770,
       1525940
      ],
      [
       408770,
       1526060
      ]
     ]
    ]
   }
  },
  {
   "type": "Feature",
   "properties": {
    "id": "LS-02",
    "name": "Narrow northern debris flow",
    "description": "Long narrow scar on forested slope; channelised runout to the north-east into LS-01",
    "priority": 1
   },
   "geometry": {
    "type": "Polygon",
    "coordinates": [
     [
      [
       408797,
       1525605
      ],
      [
       408825,
       1525600
      ],
      [
       408870,
       1525650
      ],
      [
       408880,
       1525715
      ],
      [
       408900,
       1525770
      ],
      [
       408915,
       1525805
      ],
      [
       408935,
       1525850
      ],
      [
       408950,
       1525890
      ],
      [
       408947,
       1525910
      ],
      [
       408915,
       1525910
      ],
      [
       408900,
       1525885
      ],
      [
       408875,
       1525830
      ],
      [
       408855,
       1525770
      ],
      [
       408835,
       1525720
      ],
      [
       408805,
       1525675
      ],
      [
       408795,
       1525630
      ],
      [
       408797,
       1525605
      ]
     ]
    ]
   }
  },
  {
   "type": "Feature",
   "properties": {
    "id": "LS-03",
    "name": "Twin-scar debris flow, north village",
    "description": "Two adjoining scars merging into one runout that buried the west side of the northern village and reached the road between houses",
    "priority": 2
   },
   "geometry": {
    "type": "Polygon",
    "coordinates": [
     [
      [
       408870,
       1525575
      ],
      [
       408990,
       1525570
      ],
      [
       409030,
       1525600
      ],
      [
       409045,
       1525630
      ],
      [
       409075,
       1525645
      ],
      [
       409098,
       1525660
      ],
      [
       409108,
       1525680
      ],
      [
       409112,
       1525698
      ],
      [
       409147,
       1525698
      ],
      [
       409147,
       1525732
      ],
      [
       409112,
       1525732
      ],
      [
       409110,
       1525760
      ],
      [
       409105,
       1525775
      ],
      [
       409080,
       1525790
      ],
      [
       409050,
       1525800
      ],
      [
       409010,
       1525792
      ],
      [
       408975,
       1525765
      ],
      [
       408940,
       1525710
      ],
      [
       408900,
       1525670
      ],
      [
       408870,
       1525620
      ],
      [
       408870,
       1525575
      ]
     ]
    ]
   }
  },
  {
   "type": "Feature",
   "properties": {
    "id": "LS-04",
    "name": "Stream-channel debris flow",
    "description": "Channelised debris flow down a stream with two tributary scars; scoured the bed and reached the road",
    "priority": 3
   },
   "geometry": {
    "type": "Polygon",
    "coordinates": [
     [
      [
       408600,
       1525185
      ],
      [
       408700,
       1525290
      ],
      [
       408800,
       1525275
      ],
      [
       408850,
       1525290
      ],
      [
       408900,
       1525320
      ],
      [
       408960,
       1525345
      ],
      [
       409010,
       1525375
      ],
      [
       409045,
       1525400
      ],
      [
       409060,
       1525455
      ],
      [
       409085,
       1525455
      ],
      [
       409080,
       1525400
      ],
      [
       409065,
       1525370
      ],
      [
       409100,
       1525340
      ],
      [
       409152,
       1525340
      ],
      [
       409152,
       1525288
      ],
      [
       409050,
       1525278
      ],
      [
       408950,
       1525285
      ],
      [
       408900,
       1525285
      ],
      [
       408860,
       1525250
      ],
      [
       408830,
       1525205
      ],
      [
       408700,
       1525120
      ],
      [
       408680,
       1525070
      ],
      [
       408605,
       1525070
      ],
      [
       408600,
       1525130
      ],
      [
       408600,
       1525185
      ]
     ]
    ]
   }
  },
  {
   "type": "Feature",
   "properties": {
    "id": "LS-05",
    "name": "Hillslope slide to road",
    "description": "Short slide reaching the road from the west",
    "priority": 4
   },
   "geometry": {
    "type": "Polygon",
    "coordinates": [
     [
      [
       409020,
       1525100
      ],
      [
       409030,
       1525125
      ],
      [
       409080,
       1525140
      ],
      [
       409100,
       1525135
      ],
      [
       409140,
       1525130
      ],
      [
       409150,
       1525125
      ],
      [
       409150,
       1525090
      ],
      [
       409100,
       1525090
      ],
      [
       409050,
       1525092
      ],
      [
       409020,
       1525100
      ]
     ]
    ]
   }
  },
  {
   "type": "Feature",
   "properties": {
    "id": "LS-06",
    "name": "Narrow central debris flow",
    "description": "Long narrow scar; runout reached the road and joins the LS-07 fan",
    "priority": 5
   },
   "geometry": {
    "type": "Polygon",
    "coordinates": [
     [
      [
       408945,
       1525020
      ],
      [
       408960,
       1525030
      ],
      [
       409000,
       1525027
      ],
      [
       409050,
       1525017
      ],
      [
       409100,
       1525017
      ],
      [
       409145,
       1525017
      ],
      [
       409147,
       1525000
      ],
      [
       409100,
       1524997
      ],
      [
       409050,
       1524997
      ],
      [
       409000,
       1525000
      ],
      [
       408950,
       1525005
      ],
      [
       408945,
       1525020
      ]
     ]
    ]
   }
  },
  {
   "type": "Feature",
   "properties": {
    "id": "LS-07",
    "name": "Central debris-flow complex",
    "description": "Largest event: wide scoured source zone, runout through the village road and a fan across the paddies",
    "priority": 6
   },
   "geometry": {
    "type": "Polygon",
    "coordinates": [
     [
      [
       408790,
       1524945
      ],
      [
       408870,
       1524957
      ],
      [
       408950,
       1524952
      ],
      [
       409025,
       1524962
      ],
      [
       409100,
       1524972
      ],
      [
       409125,
       1524987
      ],
      [
       409150,
       1525000
      ],
      [
       409152,
       1525025
      ],
      [
       409200,
       1525025
      ],
      [
       409260,
       1525020
      ],
      [
       409280,
       1524975
      ],
      [
       409280,
       1524900
      ],
      [
       409275,
       1524825
      ],
      [
       409270,
       1524760
      ],
      [
       409240,
       1524737
      ],
      [
       409190,
       1524730
      ],
      [
       409150,
       1524725
      ],
      [
       409125,
       1524740
      ],
      [
       409100,
       1524760
      ],
      [
       409050,
       1524790
      ],
      [
       409000,
       1524825
      ],
      [
       408975,
       1524857
      ],
      [
       408900,
       1524857
      ],
      [
       408800,
       1524852
      ],
      [
       408790,
       1524900
      ],
      [
       408790,
       1524945
      ]
     ]
    ]
   }
  },
  {
   "type": "Feature",
   "properties": {
    "id": "LS-08",
    "name": "Long southern debris flow",
    "description": "Long scar and channel; runout crossed the road junction into the paddies",
    "priority": 7
   },
   "geometry": {
    "type": "Polygon",
    "coordinates": [
     [
      [
       408640,
       1524800
      ],
      [
       408680,
       1524806
      ],
      [
       408750,
       1524785
      ],
      [
       408810,
       1524772
      ],
      [
       408875,
       1524762
      ],
      [
       408910,
       1524752
      ],
      [
       408950,
       1524722
      ],
      [
       409000,
       1524702
      ],
      [
       409050,
       1524682
      ],
      [
       409100,
       1524672
      ],
      [
       409140,
       1524667
      ],
      [
       409200,
       1524672
      ],
      [
       409240,
       1524662
      ],
      [
       409250,
       1524630
      ],
      [
       409225,
       1524615
      ],
      [
       409175,
       1524615
      ],
      [
       409140,
       1524620
      ],
      [
       409100,
       1524627
      ],
      [
       409050,
       1524647
      ],
      [
       409000,
       1524667
      ],
      [
       408950,
       1524690
      ],
      [
       408900,
       1524727
      ],
      [
       408850,
       1524742
      ],
      [
       408775,
       1524757
      ],
      [
       408700,
       1524772
      ],
      [
       408645,
       1524780
      ],
      [
       408640,
       1524800
      ]
     ]
    ]
   }
  },
  {
   "type": "Feature",
   "properties": {
    "id": "LS-09",
    "name": "Southern slope failure",
    "description": "Broad shallow failure of the forested slope at the south edge of the survey; continues beyond the flown area",
    "priority": 8
   },
   "geometry": {
    "type": "Polygon",
    "coordinates": [
     [
      [
       408760,
       1524687
      ],
      [
       408830,
       1524677
      ],
      [
       408900,
       1524657
      ],
      [
       408975,
       1524642
      ],
      [
       409025,
       1524640
      ],
      [
       409075,
       1524625
      ],
      [
       409090,
       1524600
      ],
      [
       409090,
       1524545
      ],
      [
       408760,
       1524545
      ],
      [
       408760,
       1524687
      ]
     ]
    ]
   }
  }
 ]
}