{
"type": "FeatureCollection",
"name": "envelopes",
"crs": { "type": "name", "properties": { "name": "urn:ogc:def:crs:OGC:1.3:CRS84" } },
"features": [
{ "type": "Feature", "properties": { "id": "NM", "name": "Slopes and channels south of the road", "kind": "landslide", "priority": 5, "split": 1, "description": "Zone split into connected scars and scoured channels." }, "geometry": { "type": "Polygon", "coordinates": [ [ [ 98.1215, 13.8935 ], [ 98.1372, 13.8935 ], [ 98.1372, 13.8972 ], [ 98.1362, 13.8988 ], [ 98.1336, 13.8988 ], [ 98.1336, 13.9019 ], [ 98.13, 13.9019 ], [ 98.13, 13.905 ], [ 98.1215, 13.905 ], [ 98.1215, 13.8935 ] ] ] } },
{ "type": "Feature", "properties": { "id": "NX-1", "name": "Monastery compound", "kind": "exclude", "priority": 0, "split": 0, "description": "Buildings, yards and the plantation rows east of them, 10 Jan 2026." }, "geometry": { "type": "Polygon", "coordinates": [ [ [ 98.1278, 13.9015 ], [ 98.13, 13.9015 ], [ 98.13, 13.903 ], [ 98.1278, 13.903 ], [ 98.1278, 13.9015 ] ] ] } },
{ "type": "Feature", "properties": { "id": "NX-2", "name": "Village road", "kind": "exclude", "priority": 0, "split": 0, "description": "Unsealed road, 10 Jan 2026." }, "geometry": { "type": "Polygon", "coordinates": [ [ [ 98.129999185511323, 13.901716159025963 ], [ 98.131997637242009, 13.901786104856654 ], [ 98.132996603734753, 13.90187601184781 ], [ 98.132997730381618, 13.90187609632653 ], [ 98.133997730534887, 13.901936096344654 ], [ 98.133998107472564, 13.901936117076076 ], [ 98.135998107779997, 13.902036117109295 ], [ 98.136001740799699, 13.902036124376073 ], [ 98.136005357054543, 13.902035783745307 ], [ 98.136008921718016, 13.902035098497459 ], [ 98.136012400460402, 13.902034075231846 ], [ 98.136015759779553, 13.902032723803071 ], [ 98.136018967323352, 13.902031057226145 ], [ 98.136021992201378, 13.902029091551114 ], [ 98.136024805282403, 13.902026845708516 ], [ 98.136027379474925, 13.902024341327044 ], [ 98.13602968998805, 13.902021602525274 ], [ 98.136031714570279, 13.902018655679365 ], [ 98.136033433723782, 13.902015529169068 ], [ 98.136034830892186, 13.902012253104392 ], [ 98.136035892620001, 13.902008859035636 ], [ 98.136036608682218, 13.902005379649545 ], [ 98.136036972182779, 13.902001848454507 ], [ 98.136036979620997, 13.901998299457869 ], [ 98.136036630925261, 13.901994766838403 ], [ 98.136035929453712, 13.90199128461718 ], [ 98.136034881961905, 13.901987886329872 ], [ 98.136033498537785, 13.90198460470385 ], [ 98.136031792504511, 13.901981471342964 ], [ 98.136029780292077, 13.901978516423183 ], [ 98.136027481279257, 13.901975768401996 ], [ 98.136024917606775, 13.901973253744332 ], [ 98.136022113964188, 13.901970996667723 ], [ 98.136019097352118, 13.901969018909041 ], [ 98.136015896822201, 13.901967339515167 ], [ 98.136012543197253, 13.90196597465958 ], [ 98.136009068774499, 13.901964937486587 ], [ 98.136005507014559, 13.901964237984714 ], [ 98.13600189221907, 13.901963882890549 ], [ 98.13400208104936, 13.901863892350677 ], [ 98.133002833600543, 13.901803937513447 ], [ 98.13200339641547, 13.901713988174579 ], [ 98.132001325386071, 13.901713858839459 ], [ 98.130001325694678, 13.90164385886824 ], [ 98.130000302970601, 13.901643836884398 ], [ 98.12750030335836, 13.901623836910199 ], [ 98.127496673382424, 13.90162398199867 ], [ 98.12749307544361, 13.901624473960126 ], [ 98.127489544192045, 13.901625308056719 ], [ 98.127486113635584, 13.901626476255636 ], [ 98.127482816812346, 13.901627967306494 ], [ 98.127479685472537, 13.901629766849661 ], [ 98.127476749772654, 13.901631857554559 ], [ 98.127474037985095, 13.901634219286564 ], [ 98.127471576225858, 13.901636829300909 ], [ 98.127469388203011, 13.901639662461744 ], [ 98.127467494988409, 13.90164269148419 ], [ 98.127465914814792, 13.901645887197107 ], [ 98.127464662900081, 13.901649218824033 ], [ 98.12746375130088, 13.901652654279603 ], [ 98.127463188796455, 13.901656160478494 ], [ 98.127462980803998, 13.901659703654103 ], [ 98.127463129326657, 13.901663249683704 ], [ 98.127463632934038, 13.901666764417104 ], [ 98.127464486776191, 13.901670214005494 ], [ 98.127465682630131, 13.901673565227449 ], [ 98.127467208979155, 13.901676785808871 ], [ 98.127469051123725, 13.901679844733783 ], [ 98.12747119132294, 13.901682712543074 ], [ 98.127473608965545, 13.901685361618151 ], [ 98.127476280768335, 13.901687766446978 ], [ 98.127479181000368, 13.901689903869727 ], [ 98.127482281730821, 13.901691753301836 ], [ 98.127485553097969, 13.90169329693226 ], [ 98.127488963596747, 13.901694519894987 ], [ 98.127492480382173, 13.901695410412211 ], [ 98.127496069585661, 13.901695959907762 ], [ 98.127499696641223, 13.90169616308969 ], [ 98.129999185511323, 13.901716159025963 ] ] ] } },
{ "type": "Feature", "properties": { "id": "NX-3", "name": "Pagoda compound", "kind": "exclude", "priority": 0, "split": 0, "description": "Pagoda, yard and access track, 10 Jan 2026." }, "geometry": { "type": "Polygon", "coordinates": [ [ [ 98.1297, 13.8987 ], [ 98.1307, 13.8987 ], [ 98.1307, 13.8999 ], [ 98.1297, 13.8999 ], [ 98.1297, 13.8987 ] ] ] } },
{ "type": "Feature", "properties": { "id": "NX-4", "name": "Excavation", "kind": "exclude", "priority": 0, "split": 0, "description": "Earth excavation already bare on 10 Jan 2026." }, "geometry": { "type": "Polygon", "coordinates": [ [ [ 98.1336, 13.8994 ], [ 98.1347, 13.8994 ], [ 98.1357, 13.9002 ], [ 98.1357, 13.9017 ], [ 98.1336, 13.9017 ], [ 98.1336, 13.8994 ] ] ] } },
{ "type": "Feature", "properties": { "id": "NX-5", "name": "Red earthworks at the edge of the excavation", "kind": "exclude", "priority": 0, "split": 0, "description": "Rejected on chip review: red earthworks at the edge of the excavation, not a landslide." }, "geometry": { "type": "Polygon", "coordinates": [ [ [ 98.13316, 13.90137 ], [ 98.1336, 13.90137 ], [ 98.1336, 13.90161 ], [ 98.13316, 13.90161 ], [ 98.13316, 13.90137 ] ] ] } },
{ "type": "Feature", "properties": { "id": "NX-6", "name": "Plantation rows at the smeared north edge of the flight", "kind": "exclude", "priority": 0, "split": 0, "description": "Rejected on chip review: plantation rows at the smeared north edge of the flight, not a landslide." }, "geometry": { "type": "Polygon", "coordinates": [ [ [ 98.12902, 13.90408 ], [ 98.12958, 13.90408 ], [ 98.12958, 13.90443 ], [ 98.12902, 13.90443 ], [ 98.12902, 13.90408 ] ] ] } },
{ "type": "Feature", "properties": { "id": "NX-7", "name": "Rusty roof and yard", "kind": "exclude", "priority": 0, "split": 0, "description": "Rejected on chip review: rusty roof and yard, not a landslide." }, "geometry": { "type": "Polygon", "coordinates": [ [ [ 98.13655, 13.89659 ], [ 98.137, 13.89659 ], [ 98.137, 13.89696 ], [ 98.13655, 13.89696 ], [ 98.13655, 13.89659 ] ] ] } },
{ "type": "Feature", "properties": { "id": "NX-8", "name": "Canopy gaps in plantation", "kind": "exclude", "priority": 0, "split": 0, "description": "Rejected on chip review: canopy gaps in plantation, not a landslide." }, "geometry": { "type": "Polygon", "coordinates": [ [ [ 98.1269, 13.8972 ], [ 98.12734, 13.8972 ], [ 98.12734, 13.89782 ], [ 98.1269, 13.89782 ], [ 98.1269, 13.8972 ] ] ] } },
{ "type": "Feature", "properties": { "id": "NX-9", "name": "Canopy gaps in plantation", "kind": "exclude", "priority": 0, "split": 0, "description": "Rejected on chip review: canopy gaps in plantation, not a landslide." }, "geometry": { "type": "Polygon", "coordinates": [ [ [ 98.13628, 13.89767 ], [ 98.1366, 13.89767 ], [ 98.1366, 13.89811 ], [ 98.13628, 13.89811 ], [ 98.13628, 13.89767 ] ] ] } },
{ "type": "Feature", "properties": { "id": "NX-10", "name": "Bare patches in a grass field", "kind": "exclude", "priority": 0, "split": 0, "description": "Rejected on chip review: bare patches in a grass field, not a landslide." }, "geometry": { "type": "Polygon", "coordinates": [ [ [ 98.13078, 13.89848 ], [ 98.13129, 13.89848 ], [ 98.13129, 13.89868 ], [ 98.13078, 13.89868 ], [ 98.13078, 13.89848 ] ] ] } },
{ "type": "Feature", "properties": { "id": "NX-11", "name": "Footpath under trees", "kind": "exclude", "priority": 0, "split": 0, "description": "Rejected on chip review: footpath under trees, not a landslide." }, "geometry": { "type": "Polygon", "coordinates": [ [ [ 98.13534, 13.89663 ], [ 98.13597, 13.89663 ], [ 98.13597, 13.89679 ], [ 98.13534, 13.89679 ], [ 98.13534, 13.89663 ] ] ] } }
]
}
