{
"type": "FeatureCollection",
"name": "footprint",
"crs": { "type": "name", "properties": { "name": "urn:ogc:def:crs:OGC:1.3:CRS84" } },
"features": [
{ "type": "Feature", "properties": { "site": "nmt" }, "geometry": { "type": "MultiPolygon", "coordinates": [ [ [ [ 98.132352047759994, 13.89476240417161 ], [ 98.132352047759994, 13.894747838143278 ], [ 98.132337137935991, 13.894747838143278 ], [ 98.132337137935991, 13.89476240417161 ], [ 98.132352047759994, 13.89476240417161 ] ] ], [ [ [ 98.132292408463996, 13.89476240417161 ], [ 98.132292408463996, 13.89477697019994 ], [ 98.132232769167999, 13.89477697019994 ], [ 98.132232769167999, 13.894791536228272 ], [ 98.132173129872001, 13.894791536228272 ], [ 98.132173129872001, 13.894806102256604 ], [ 98.132098580752, 13.894806102256604 ], [ 98.132098580752, 13.894820668284934 ], [ 98.131934572687996, 13.894820668284934 ], [ 98.131934572687996, 13.894835234313266 ], [ 98.131874933391998, 13.894835234313266 ], [ 98.131874933391998, 13.894820668284934 ], [ 98.131830203920003, 13.894820668284934 ], [ 98.131830203920003, 13.894806102256604 ], [ 98.131785474447994, 13.894806102256604 ], [ 98.131785474447994, 13.894791536228272 ], [ 98.131740744976, 13.894791536228272 ], [ 98.131740744976, 13.89477697019994 ], [ 98.131710925327994, 13.89477697019994 ], [ 98.131710925327994, 13.89476240417161 ], [ 98.131666195855999, 13.89476240417161 ], [ 98.131666195855999, 13.894704140058284 ], [ 98.131442548495997, 13.894704140058284 ], [ 98.131442548495997, 13.894718706086614 ], [ 98.131189081488003, 13.894718706086614 ], [ 98.131189081488003, 13.894704140058284 ], [ 98.131159261839997, 13.894704140058284 ], [ 98.131159261839997, 13.894689574029952 ], [ 98.131114532368002, 13.894689574029952 ], [ 98.131114532368002, 13.89467500800162 ], [ 98.131084712719996, 13.89467500800162 ], [ 98.131084712719996, 13.89466044197329 ], [ 98.131054893072005, 13.89466044197329 ], [ 98.131054893072005, 13.894587611831632 ], [ 98.130846155535991, 13.894587611831632 ], [ 98.130846155535991, 13.894602177859964 ], [ 98.130771606416005, 13.894602177859964 ], [ 98.130771606416005, 13.894616743888296 ], [ 98.130726876943996, 13.894616743888296 ], [ 98.130726876943996, 13.894631309916626 ], [ 98.130697057296004, 13.894631309916626 ], [ 98.130697057296004, 13.894645875944958 ], [ 98.130682147472001, 13.894645875944958 ], [ 98.130682147472001, 13.89466044197329 ], [ 98.130652327823995, 13.89466044197329 ], [ 98.130652327823995, 13.89467500800162 ], [ 98.130622508176003, 13.89467500800162 ], [ 98.130622508176003, 13.894689574029952 ], [ 98.130607598352, 13.894689574029952 ], [ 98.130607598352, 13.894704140058284 ], [ 98.130577778703994, 13.894704140058284 ], [ 98.130577778703994, 13.894718706086614 ], [ 98.130562868879991, 13.894718706086614 ], [ 98.130562868879991, 13.894733272114946 ], [ 98.130533049232, 13.894733272114946 ], [ 98.130533049232, 13.894747838143278 ], [ 98.130488319760005, 13.894747838143278 ], [ 98.130488319760005, 13.89476240417161 ], [ 98.130428680463993, 13.89476240417161 ], [ 98.130428680463993, 13.89477697019994 ], [ 98.130339221520003, 13.89477697019994 ], [ 98.130339221520003, 13.894835234313266 ], [ 98.130309401871997, 13.894835234313266 ], [ 98.130309401871997, 13.894849800341598 ], [ 98.130279582223991, 13.894849800341598 ], [ 98.130279582223991, 13.894864366369928 ], [ 98.130190123280002, 13.894864366369928 ], [ 98.130190123280002, 13.894791536228272 ], [ 98.130145393807993, 13.894791536228272 ], [ 98.130145393807993, 13.894806102256604 ], [ 98.130100664335998, 13.894806102256604 ], [ 98.130100664335998, 13.894820668284934 ], [ 98.130055934864004, 13.894820668284934 ], [ 98.130055934864004, 13.894835234313266 ], [ 98.130011205391995, 13.894835234313266 ], [ 98.130011205391995, 13.894849800341598 ], [ 98.129951566095997, 13.894849800341598 ], [ 98.129951566095997, 13.894864366369928 ], [ 98.129906836624002, 13.894864366369928 ], [ 98.129906836624002, 13.89487893239826 ], [ 98.129847197328004, 13.89487893239826 ], [ 98.129847197328004, 13.894893498426592 ], [ 98.129742828559998, 13.894893498426592 ], [ 98.129742828559998, 13.894922630483254 ], [ 98.129698099088003, 13.894922630483254 ], [ 98.129698099088003, 13.894937196511586 ], [ 98.129653369615994, 13.894937196511586 ], [ 98.129653369615994, 13.894951762539918 ], [ 98.129608640143999, 13.894951762539918 ], [ 98.129608640143999, 13.894966328568248 ], [ 98.129549000848002, 13.894966328568248 ], [ 98.129549000848002, 13.89498089459658 ], [ 98.129504271375993, 13.89498089459658 ], [ 98.129504271375993, 13.894995460624912 ], [ 98.129399902608, 13.894995460624912 ], [ 98.129399902608, 13.894908064454924 ], [ 98.129370082959994, 13.894908064454924 ], [ 98.129370082959994, 13.894922630483254 ], [ 98.129131525776003, 13.894922630483254 ], [ 98.129131525776003, 13.894908064454924 ], [ 98.129086796303994, 13.894908064454924 ], [ 98.129086796303994, 13.894922630483254 ], [ 98.129071886479991, 13.894922630483254 ], [ 98.129071886479991, 13.894908064454924 ], [ 98.129042066832, 13.894908064454924 ], [ 98.129042066832, 13.894922630483254 ], [ 98.128952607887996, 13.894922630483254 ], [ 98.128952607887996, 13.894937196511586 ], [ 98.128922788240004, 13.894937196511586 ], [ 98.128922788240004, 13.894951762539918 ], [ 98.128878058767995, 13.894951762539918 ], [ 98.128878058767995, 13.894966328568248 ], [ 98.128863148943992, 13.894966328568248 ], [ 98.128863148943992, 13.89498089459658 ], [ 98.128848239120003, 13.89498089459658 ], [ 98.128848239120003, 13.894995460624912 ], [ 98.128833329296, 13.894995460624912 ], [ 98.128833329296, 13.895010026653242 ], [ 98.128803509647994, 13.895010026653242 ], [ 98.128803509647994, 13.895024592681574 ], [ 98.12877369, 13.895024592681574 ], [ 98.12877369, 13.895039158709906 ], [ 98.128669321231996, 13.895039158709906 ], [ 98.128669321231996, 13.894966328568248 ], [ 98.128639501584004, 13.894966328568248 ], [ 98.128639501584004, 13.89498089459658 ], [ 98.128609681935998, 13.89498089459658 ], [ 98.128609681935998, 13.894995460624912 ], [ 98.128564952464004, 13.894995460624912 ], [ 98.128564952464004, 13.895010026653242 ], [ 98.128505313167992, 13.895010026653242 ], [ 98.128505313167992, 13.895024592681574 ], [ 98.12847549352, 13.895024592681574 ], [ 98.12847549352, 13.895039158709906 ], [ 98.128430764047991, 13.895039158709906 ], [ 98.128430764047991, 13.895053724738238 ], [ 98.128386034575996, 13.895053724738238 ], [ 98.128386034575996, 13.895068290766568 ], [ 98.128326395279998, 13.895068290766568 ], [ 98.128326395279998, 13.8950828567949 ], [ 98.128266755984001, 13.8950828567949 ], [ 98.128266755984001, 13.895097422823232 ], [ 98.128207116688003, 13.895097422823232 ], [ 98.128207116688003, 13.895111988851562 ], [ 98.127998379152004, 13.895111988851562 ], [ 98.127998379152004, 13.895097422823232 ], [ 98.127968559503998, 13.895097422823232 ], [ 98.127968559503998, 13.895111988851562 ], [ 98.127908920208, 13.895111988851562 ], [ 98.127908920208, 13.8950828567949 ], [ 98.127879100559994, 13.8950828567949 ], [ 98.127879100559994, 13.895097422823232 ], [ 98.127849280912002, 13.895097422823232 ], [ 98.127849280912002, 13.895111988851562 ], [ 98.127834371087999, 13.895111988851562 ], [ 98.127834371087999, 13.895126554879894 ], [ 98.127804551439993, 13.895126554879894 ], [ 98.127804551439993, 13.895141120908226 ], [ 98.127759821967999, 13.895141120908226 ], [ 98.127759821967999, 13.895155686936556 ], [ 98.127730002319993, 13.895155686936556 ], [ 98.127730002319993, 13.895170252964888 ], [ 98.127670363023995, 13.895170252964888 ], [ 98.127670363023995, 13.89518481899322 ], [ 98.127580904079991, 13.89518481899322 ], [ 98.127580904079991, 13.895199385021552 ], [ 98.127521264783994, 13.895199385021552 ], [ 98.127521264783994, 13.895213951049882 ], [ 98.127476535311999, 13.895213951049882 ], [ 98.127476535311999, 13.895228517078214 ], [ 98.127342346896, 13.895228517078214 ], [ 98.127342346896, 13.895257649134876 ], [ 98.127327437071997, 13.895257649134876 ], [ 98.127327437071997, 13.895272215163208 ], [ 98.127148519184004, 13.895272215163208 ], [ 98.127148519184004, 13.895257649134876 ], [ 98.127133609360001, 13.895257649134876 ], [ 98.127133609360001, 13.895199385021552 ], [ 98.127148519184004, 13.895199385021552 ], [ 98.127148519184004, 13.895170252964888 ], [ 98.127103789711995, 13.895170252964888 ], [ 98.127103789711995, 13.89518481899322 ], [ 98.126820503055995, 13.89518481899322 ], [ 98.126820503055995, 13.895199385021552 ], [ 98.126686314639997, 13.895199385021552 ], [ 98.126686314639997, 13.895213951049882 ], [ 98.126656494991991, 13.895213951049882 ], [ 98.126656494991991, 13.895228517078214 ], [ 98.126611765519996, 13.895228517078214 ], [ 98.126611765519996, 13.895243083106546 ], [ 98.126567036048002, 13.895243083106546 ], [ 98.126567036048002, 13.895257649134876 ], [ 98.126522306575993, 13.895257649134876 ], [ 98.126522306575993, 13.895272215163208 ], [ 98.126462667279995, 13.895272215163208 ], [ 98.126462667279995, 13.895199385021552 ], [ 98.126432847632003, 13.895199385021552 ], [ 98.126432847632003, 13.895213951049882 ], [ 98.126388118159994, 13.895213951049882 ], [ 98.126388118159994, 13.895228517078214 ], [ 98.126298659216005, 13.895228517078214 ], [ 98.126298659216005, 13.895243083106546 ], [ 98.126134651152, 13.895243083106546 ], [ 98.126134651152, 13.895228517078214 ], [ 98.126089921679991, 13.895228517078214 ], [ 98.126089921679991, 13.895213951049882 ], [ 98.126075011856003, 13.895213951049882 ], [ 98.126075011856003, 13.895228517078214 ], [ 98.125970643087996, 13.895228517078214 ], [ 98.125970643087996, 13.895155686936556 ], [ 98.125955733263993, 13.895155686936556 ], [ 98.125955733263993, 13.895170252964888 ], [ 98.125896093967995, 13.895170252964888 ], [ 98.125896093967995, 13.89518481899322 ], [ 98.125851364496, 13.89518481899322 ], [ 98.125851364496, 13.895199385021552 ], [ 98.125776815376, 13.895199385021552 ], [ 98.125776815376, 13.895213951049882 ], [ 98.125538258191995, 13.895213951049882 ], [ 98.125538258191995, 13.895199385021552 ], [ 98.125478618895997, 13.895199385021552 ], [ 98.125478618895997, 13.89518481899322 ], [ 98.125433889424002, 13.89518481899322 ], [ 98.125433889424002, 13.895170252964888 ], [ 98.125418979599999, 13.895170252964888 ], [ 98.125418979599999, 13.895213951049882 ], [ 98.125314610831992, 13.895213951049882 ], [ 98.125314610831992, 13.895199385021552 ], [ 98.125165512591991, 13.895199385021552 ], [ 98.125165512591991, 13.89518481899322 ], [ 98.125105873295993, 13.89518481899322 ], [ 98.125105873295993, 13.895170252964888 ], [ 98.125016414352004, 13.895170252964888 ], [ 98.125016414352004, 13.895155686936556 ], [ 98.12480767681599, 13.895155686936556 ], [ 98.12480767681599, 13.895141120908226 ], [ 98.124762947343996, 13.895141120908226 ], [ 98.124762947343996, 13.895213951049882 ], [ 98.124703308047998, 13.895213951049882 ], [ 98.124703308047998, 13.895199385021552 ], [ 98.124613849103994, 13.895199385021552 ], [ 98.124613849103994, 13.89518481899322 ], [ 98.124554209807997, 13.89518481899322 ], [ 98.124554209807997, 13.895170252964888 ], [ 98.124509480336002, 13.895170252964888 ], [ 98.124509480336002, 13.895155686936556 ], [ 98.124479660687996, 13.895155686936556 ], [ 98.124479660687996, 13.895141120908226 ], [ 98.124434931216001, 13.895141120908226 ], [ 98.124434931216001, 13.895126554879894 ], [ 98.124405111567995, 13.895126554879894 ], [ 98.124405111567995, 13.895111988851562 ], [ 98.124375291920003, 13.895111988851562 ], [ 98.124375291920003, 13.895097422823232 ], [ 98.124345472271997, 13.895097422823232 ], [ 98.124345472271997, 13.8950828567949 ], [ 98.124300742800003, 13.8950828567949 ], [ 98.124300742800003, 13.895068290766568 ], [ 98.124241103503991, 13.895068290766568 ], [ 98.124241103503991, 13.895053724738238 ], [ 98.124151644560001, 13.895053724738238 ], [ 98.124151644560001, 13.895039158709906 ], [ 98.124077095440001, 13.895039158709906 ], [ 98.124077095440001, 13.8950828567949 ], [ 98.123793808784001, 13.8950828567949 ], [ 98.123793808784001, 13.895068290766568 ], [ 98.123704349839997, 13.895068290766568 ], [ 98.123704349839997, 13.895053724738238 ], [ 98.123599981072005, 13.895053724738238 ], [ 98.123599981072005, 13.89518481899322 ], [ 98.123585071248002, 13.89518481899322 ], [ 98.123585071248002, 13.895272215163208 ], [ 98.123570161423999, 13.895272215163208 ], [ 98.123570161423999, 13.895330479276534 ], [ 98.123555251599996, 13.895330479276534 ], [ 98.123555251599996, 13.895403309418191 ], [ 98.123540341775993, 13.895403309418191 ], [ 98.123540341775993, 13.895461573531517 ], [ 98.123525431952004, 13.895461573531517 ], [ 98.123525431952004, 13.895505271616511 ], [ 98.123510522128001, 13.895505271616511 ], [ 98.123510522128001, 13.895563535729837 ], [ 98.123495612303998, 13.895563535729837 ], [ 98.123495612303998, 13.895607233814831 ], [ 98.123480702479995, 13.895607233814831 ], [ 98.123480702479995, 13.895650931899825 ], [ 98.123465792655992, 13.895650931899825 ], [ 98.123465792655992, 13.895694629984819 ], [ 98.123450882832003, 13.895694629984819 ], [ 98.123450882832003, 13.895738328069813 ], [ 98.123435973008, 13.895738328069813 ], [ 98.123435973008, 13.895782026154809 ], [ 98.123421063183997, 13.895782026154809 ], [ 98.123421063183997, 13.895825724239803 ], [ 98.123406153359994, 13.895825724239803 ], [ 98.123406153359994, 13.895854856296465 ], [ 98.123391243535991, 13.895854856296465 ], [ 98.123391243535991, 13.895898554381459 ], [ 98.123376333712002, 13.895898554381459 ], [ 98.123376333712002, 13.895942252466453 ], [ 98.123361423887999, 13.895942252466453 ], [ 98.123361423887999, 13.895985950551447 ], [ 98.123346514063996, 13.895985950551447 ], [ 98.123346514063996, 13.896029648636441 ], [ 98.123331604239993, 13.896029648636441 ], [ 98.123331604239993, 13.896073346721437 ], [ 98.12331669441599, 13.896073346721437 ], [ 98.12331669441599, 13.896117044806431 ], [ 98.123301784592002, 13.896117044806431 ], [ 98.123301784592002, 13.896160742891425 ], [ 98.123286874767999, 13.896160742891425 ], [ 98.123286874767999, 13.896204440976419 ], [ 98.123271964943996, 13.896204440976419 ], [ 98.123271964943996, 13.896248139061413 ], [ 98.123257055119993, 13.896248139061413 ], [ 98.123257055119993, 13.896291837146407 ], [ 98.123242145296004, 13.896291837146407 ], [ 98.123242145296004, 13.896335535231401 ], [ 98.123227235472001, 13.896335535231401 ], [ 98.123227235472001, 13.896364667288065 ], [ 98.123212325647998, 13.896364667288065 ], [ 98.123212325647998, 13.896408365373059 ], [ 98.123197415823995, 13.896408365373059 ], [ 98.123197415823995, 13.896452063458053 ], [ 98.123182506, 13.896452063458053 ], [ 98.123182506, 13.896495761543047 ], [ 98.123167596176003, 13.896495761543047 ], [ 98.123167596176003, 13.896539459628041 ], [ 98.123152686352, 13.896539459628041 ], [ 98.123152686352, 13.896568591684703 ], [ 98.123137776527997, 13.896568591684703 ], [ 98.123137776527997, 13.896612289769699 ], [ 98.123122866703994, 13.896612289769699 ], [ 98.123122866703994, 13.896641421826361 ], [ 98.123107956879991, 13.896641421826361 ], [ 98.123107956879991, 13.896685119911355 ], [ 98.123093047056003, 13.896685119911355 ], [ 98.123093047056003, 13.896699685939687 ], [ 98.123048317583994, 13.896699685939687 ], [ 98.123048317583994, 13.896714251968017 ], [ 98.122735211280002, 13.896714251968017 ], [ 98.122735211280002, 13.896728817996349 ], [ 98.122407195151993, 13.896728817996349 ], [ 98.122407195151993, 13.896757950053013 ], [ 98.122392285328004, 13.896757950053013 ], [ 98.122392285328004, 13.896859912251331 ], [ 98.122377375504001, 13.896859912251331 ], [ 98.122377375504001, 13.896932742392989 ], [ 98.122362465679998, 13.896932742392989 ], [ 98.122362465679998, 13.896991006506315 ], [ 98.122347555855995, 13.896991006506315 ], [ 98.122347555855995, 13.897049270619641 ], [ 98.122332646031992, 13.897049270619641 ], [ 98.122332646031992, 13.897092968704635 ], [ 98.122317736208004, 13.897092968704635 ], [ 98.122317736208004, 13.89715123281796 ], [ 98.122302826384001, 13.89715123281796 ], [ 98.122302826384001, 13.897194930902955 ], [ 98.122287916559998, 13.897194930902955 ], [ 98.122287916559998, 13.89725319501628 ], [ 98.122273006735995, 13.89725319501628 ], [ 98.122273006735995, 13.897311459129606 ], [ 98.122258096911992, 13.897311459129606 ], [ 98.122258096911992, 13.897369723242932 ], [ 98.122213367439997, 13.897369723242932 ], [ 98.122213367439997, 13.897384289271264 ], [ 98.122168637968002, 13.897384289271264 ], [ 98.122168637968002, 13.897398855299594 ], [ 98.122153728143999, 13.897398855299594 ], [ 98.122153728143999, 13.897588213667902 ], [ 98.122168637968002, 13.897588213667902 ], [ 98.122168637968002, 13.897675609837892 ], [ 98.122183547791991, 13.897675609837892 ], [ 98.122183547791991, 13.897733873951216 ], [ 98.122198457615994, 13.897733873951216 ], [ 98.122198457615994, 13.897792138064542 ], [ 98.122213367439997, 13.897792138064542 ], [ 98.122213367439997, 13.897835836149536 ], [ 98.122228277264, 13.897835836149536 ], [ 98.122228277264, 13.89787953423453 ], [ 98.122243187088003, 13.89787953423453 ], [ 98.122243187088003, 13.897937798347856 ], [ 98.122258096911992, 13.897937798347856 ], [ 98.122258096911992, 13.89798149643285 ], [ 98.122273006735995, 13.89798149643285 ], [ 98.122273006735995, 13.898025194517844 ], [ 98.122287916559998, 13.898025194517844 ], [ 98.122287916559998, 13.89806889260284 ], [ 98.122302826384001, 13.89806889260284 ], [ 98.122302826384001, 13.898112590687834 ], [ 98.122317736208004, 13.898112590687834 ], [ 98.122317736208004, 13.898156288772828 ], [ 98.122332646031992, 13.898156288772828 ], [ 98.122332646031992, 13.898229118914484 ], [ 98.122347555855995, 13.898229118914484 ], [ 98.122347555855995, 13.898301949056142 ], [ 98.122362465679998, 13.898301949056142 ], [ 98.122362465679998, 13.898476741396118 ], [ 98.122347555855995, 13.898476741396118 ], [ 98.122347555855995, 13.898549571537776 ], [ 98.122332646031992, 13.898549571537776 ], [ 98.122332646031992, 13.898622401679432 ], [ 98.122317736208004, 13.898622401679432 ], [ 98.122317736208004, 13.898680665792758 ], [ 98.122302826384001, 13.898680665792758 ], [ 98.122302826384001, 13.898724363877752 ], [ 98.122287916559998, 13.898724363877752 ], [ 98.122287916559998, 13.898855458132735 ], [ 98.122273006735995, 13.898855458132735 ], [ 98.122273006735995, 13.898957420331055 ], [ 98.122287916559998, 13.898957420331055 ], [ 98.122287916559998, 13.899088514586039 ], [ 98.122302826384001, 13.899088514586039 ], [ 98.122302826384001, 13.899161344727695 ], [ 98.122317736208004, 13.899161344727695 ], [ 98.122317736208004, 13.899292438982677 ], [ 98.122332646031992, 13.899292438982677 ], [ 98.122332646031992, 13.899394401180997 ], [ 98.122317736208004, 13.899394401180997 ], [ 98.122317736208004, 13.899481797350987 ], [ 98.122302826384001, 13.899481797350987 ], [ 98.122302826384001, 13.899627457634301 ], [ 98.122287916559998, 13.899627457634301 ], [ 98.122287916559998, 13.899656589690963 ], [ 98.122302826384001, 13.899656589690963 ], [ 98.122302826384001, 13.899729419832619 ], [ 98.122317736208004, 13.899729419832619 ], [ 98.122317736208004, 13.899816816002609 ], [ 98.122332646031992, 13.899816816002609 ], [ 98.122332646031992, 13.899933344229259 ], [ 98.122347555855995, 13.899933344229259 ], [ 98.122347555855995, 13.900137268625899 ], [ 98.122332646031992, 13.900137268625899 ], [ 98.122332646031992, 13.900268362880881 ], [ 98.122466834447991, 13.900268362880881 ], [ 98.122466834447991, 13.900428589192527 ], [ 98.122451924624002, 13.900428589192527 ], [ 98.122451924624002, 13.900603381532505 ], [ 98.122437014799999, 13.900603381532505 ], [ 98.122437014799999, 13.900734475787488 ], [ 98.122422104975996, 13.900734475787488 ], [ 98.122422104975996, 13.900821871957476 ], [ 98.122407195151993, 13.900821871957476 ], [ 98.122407195151993, 13.900909268127464 ], [ 98.122392285328004, 13.900909268127464 ], [ 98.122392285328004, 13.901025796354116 ], [ 98.122377375504001, 13.901025796354116 ], [ 98.122377375504001, 13.901084060467442 ], [ 98.122362465679998, 13.901084060467442 ], [ 98.122362465679998, 13.901127758552436 ], [ 98.122437014799999, 13.901127758552436 ], [ 98.122437014799999, 13.901113192524104 ], [ 98.122556293391995, 13.901113192524104 ], [ 98.122556293391995, 13.90117145663743 ], [ 98.122541383567992, 13.90117145663743 ], [ 98.122541383567992, 13.901244286779086 ], [ 98.122526473744003, 13.901244286779086 ], [ 98.122526473744003, 13.901302550892412 ], [ 98.12251156392, 13.901302550892412 ], [ 98.12251156392, 13.901360815005738 ], [ 98.122496654095997, 13.901360815005738 ], [ 98.122496654095997, 13.901419079119064 ], [ 98.122481744271994, 13.901419079119064 ], [ 98.122481744271994, 13.901462777204058 ], [ 98.122466834447991, 13.901462777204058 ], [ 98.122466834447991, 13.901506475289052 ], [ 98.122451924624002, 13.901506475289052 ], [ 98.122451924624002, 13.901550173374046 ], [ 98.122437014799999, 13.901550173374046 ], [ 98.122437014799999, 13.90159387145904 ], [ 98.122422104975996, 13.90159387145904 ], [ 98.122422104975996, 13.901637569544034 ], [ 98.122407195151993, 13.901637569544034 ], [ 98.122407195151993, 13.901666701600698 ], [ 98.122451924624002, 13.901666701600698 ], [ 98.122451924624002, 13.901681267629028 ], [ 98.122496654095997, 13.901681267629028 ], [ 98.122496654095997, 13.90169583365736 ], [ 98.122541383567992, 13.90169583365736 ], [ 98.122541383567992, 13.901710399685692 ], [ 98.122586113040001, 13.901710399685692 ], [ 98.122586113040001, 13.901724965714022 ], [ 98.122630842511995, 13.901724965714022 ], [ 98.122630842511995, 13.901739531742354 ], [ 98.122675571984004, 13.901739531742354 ], [ 98.122675571984004, 13.901754097770686 ], [ 98.122705391631996, 13.901754097770686 ], [ 98.122705391631996, 13.901768663799018 ], [ 98.122750121103991, 13.901768663799018 ], [ 98.122750121103991, 13.901783229827348 ], [ 98.122779940751997, 13.901783229827348 ], [ 98.122779940751997, 13.90179779585568 ], [ 98.122809760400003, 13.90179779585568 ], [ 98.122809760400003, 13.901812361884012 ], [ 98.122839580047994, 13.901812361884012 ], [ 98.122839580047994, 13.901826927912342 ], [ 98.122869399696, 13.901826927912342 ], [ 98.122869399696, 13.901841493940674 ], [ 98.122899219343992, 13.901841493940674 ], [ 98.122899219343992, 13.901856059969006 ], [ 98.122929038991998, 13.901856059969006 ], [ 98.122929038991998, 13.901899758054 ], [ 98.122914129167995, 13.901899758054 ], [ 98.122914129167995, 13.901958022167326 ], [ 98.122899219343992, 13.901958022167326 ], [ 98.122899219343992, 13.902030852308982 ], [ 98.122884309520003, 13.902030852308982 ], [ 98.122884309520003, 13.90210368245064 ], [ 98.122869399696, 13.90210368245064 ], [ 98.122869399696, 13.90220564464896 ], [ 98.122854489871997, 13.90220564464896 ], [ 98.122854489871997, 13.902336738903943 ], [ 98.122839580047994, 13.902336738903943 ], [ 98.122839580047994, 13.902467833158925 ], [ 98.122824670223991, 13.902467833158925 ], [ 98.122824670223991, 13.902584361385577 ], [ 98.122809760400003, 13.902584361385577 ], [ 98.122809760400003, 13.902686323583897 ], [ 98.122794850576, 13.902686323583897 ], [ 98.122794850576, 13.902788285782217 ], [ 98.122779940751997, 13.902788285782217 ], [ 98.122779940751997, 13.902890247980537 ], [ 98.122765030927994, 13.902890247980537 ], [ 98.122765030927994, 13.902992210178855 ], [ 98.122750121103991, 13.902992210178855 ], [ 98.122750121103991, 13.903108738405507 ], [ 98.122735211280002, 13.903108738405507 ], [ 98.122735211280002, 13.903210700603827 ], [ 98.122720301455999, 13.903210700603827 ], [ 98.122720301455999, 13.903327228830479 ], [ 98.122705391631996, 13.903327228830479 ], [ 98.122705391631996, 13.903414625000467 ], [ 98.122690481807993, 13.903414625000467 ], [ 98.122690481807993, 13.903472889113793 ], [ 98.122675571984004, 13.903472889113793 ], [ 98.122675571984004, 13.903531153227117 ], [ 98.122660662160001, 13.903531153227117 ], [ 98.122660662160001, 13.903545719255449 ], [ 98.122824670223991, 13.903545719255449 ], [ 98.122824670223991, 13.903560285283781 ], [ 98.122899219343992, 13.903560285283781 ], [ 98.122899219343992, 13.903574851312111 ], [ 98.122973768463993, 13.903574851312111 ], [ 98.122973768463993, 13.903589417340443 ], [ 98.123033407759991, 13.903589417340443 ], [ 98.123033407759991, 13.903603983368775 ], [ 98.123093047056003, 13.903603983368775 ], [ 98.123093047056003, 13.903618549397107 ], [ 98.123152686352, 13.903618549397107 ], [ 98.123152686352, 13.903633115425437 ], [ 98.123167596176003, 13.903633115425437 ], [ 98.123167596176003, 13.903676813510431 ], [ 98.123152686352, 13.903676813510431 ], [ 98.123152686352, 13.903749643652089 ], [ 98.123286874767999, 13.903749643652089 ], [ 98.123286874767999, 13.903764209680421 ], [ 98.123376333712002, 13.903764209680421 ], [ 98.123376333712002, 13.903778775708751 ], [ 98.123435973008, 13.903778775708751 ], [ 98.123435973008, 13.903793341737083 ], [ 98.123495612303998, 13.903793341737083 ], [ 98.123495612303998, 13.903807907765415 ], [ 98.123585071248002, 13.903807907765415 ], [ 98.123585071248002, 13.903822473793745 ], [ 98.123778898959998, 13.903822473793745 ], [ 98.123778898959998, 13.903837039822077 ], [ 98.123823628431992, 13.903837039822077 ], [ 98.123823628431992, 13.903953568048729 ], [ 98.123838538255995, 13.903953568048729 ], [ 98.123838538255995, 13.903939002020397 ], [ 98.124405111567995, 13.903939002020397 ], [ 98.124405111567995, 13.903924435992066 ], [ 98.124584029456003, 13.903924435992066 ], [ 98.124584029456003, 13.904040964218717 ], [ 98.124956775055992, 13.904040964218717 ], [ 98.124956775055992, 13.904055530247049 ], [ 98.125031324175993, 13.904055530247049 ], [ 98.125031324175993, 13.904040964218717 ], [ 98.125314610831992, 13.904040964218717 ], [ 98.125314610831992, 13.904157492445368 ], [ 98.125359340304001, 13.904157492445368 ], [ 98.125359340304001, 13.904142926417038 ], [ 98.125463709071994, 13.904142926417038 ], [ 98.125463709071994, 13.904128360388706 ], [ 98.125612807311995, 13.904128360388706 ], [ 98.125612807311995, 13.904113794360374 ], [ 98.125776815376, 13.904113794360374 ], [ 98.125776815376, 13.904099228332043 ], [ 98.125866274320003, 13.904099228332043 ], [ 98.125866274320003, 13.904113794360374 ], [ 98.125940823440004, 13.904113794360374 ], [ 98.125940823440004, 13.904128360388706 ], [ 98.126015372559991, 13.904128360388706 ], [ 98.126015372559991, 13.904142926417038 ], [ 98.126104831503994, 13.904142926417038 ], [ 98.126104831503994, 13.904201190530364 ], [ 98.126134651152, 13.904201190530364 ], [ 98.126134651152, 13.904186624502032 ], [ 98.126194290447998, 13.904186624502032 ], [ 98.126194290447998, 13.9041720584737 ], [ 98.126253929743996, 13.9041720584737 ], [ 98.126253929743996, 13.904157492445368 ], [ 98.126343388687999, 13.904157492445368 ], [ 98.126343388687999, 13.9041720584737 ], [ 98.126432847632003, 13.9041720584737 ], [ 98.126432847632003, 13.904186624502032 ], [ 98.126492486928001, 13.904186624502032 ], [ 98.126492486928001, 13.904201190530364 ], [ 98.126552126223999, 13.904201190530364 ], [ 98.126552126223999, 13.904215756558694 ], [ 98.126611765519996, 13.904215756558694 ], [ 98.126611765519996, 13.904230322587026 ], [ 98.126671404815994, 13.904230322587026 ], [ 98.126671404815994, 13.904244888615358 ], [ 98.126686314639997, 13.904244888615358 ], [ 98.126686314639997, 13.904142926417038 ], [ 98.126701224464, 13.904142926417038 ], [ 98.126701224464, 13.904128360388706 ], [ 98.126790683408004, 13.904128360388706 ], [ 98.126790683408004, 13.904142926417038 ], [ 98.126895052175996, 13.904142926417038 ], [ 98.126895052175996, 13.904157492445368 ], [ 98.126939781647991, 13.904157492445368 ], [ 98.126939781647991, 13.904186624502032 ], [ 98.12698451112, 13.904186624502032 ], [ 98.12698451112, 13.9041720584737 ], [ 98.127073970064004, 13.9041720584737 ], [ 98.127073970064004, 13.904186624502032 ], [ 98.127118699535998, 13.904186624502032 ], [ 98.127118699535998, 13.904201190530364 ], [ 98.127163429007993, 13.904201190530364 ], [ 98.127163429007993, 13.904215756558694 ], [ 98.127223068303991, 13.904215756558694 ], [ 98.127223068303991, 13.904230322587026 ], [ 98.127252887951997, 13.904230322587026 ], [ 98.127252887951997, 13.904244888615358 ], [ 98.127297617423991, 13.904244888615358 ], [ 98.127297617423991, 13.904142926417038 ], [ 98.127446715663993, 13.904142926417038 ], [ 98.127446715663993, 13.904157492445368 ], [ 98.127491445136002, 13.904157492445368 ], [ 98.127491445136002, 13.9041720584737 ], [ 98.127551084432, 13.9041720584737 ], [ 98.127551084432, 13.904186624502032 ], [ 98.127595813903994, 13.904186624502032 ], [ 98.127595813903994, 13.904201190530364 ], [ 98.127670363023995, 13.904201190530364 ], [ 98.127670363023995, 13.904215756558694 ], [ 98.127700182672001, 13.904215756558694 ], [ 98.127700182672001, 13.904244888615358 ], [ 98.127685272847998, 13.904244888615358 ], [ 98.127685272847998, 13.90427402067202 ], [ 98.127879100559994, 13.90427402067202 ], [ 98.127879100559994, 13.904288586700352 ], [ 98.127923830032003, 13.904288586700352 ], [ 98.127923830032003, 13.904303152728682 ], [ 98.127953649679995, 13.904303152728682 ], [ 98.127953649679995, 13.904317718757014 ], [ 98.127983469328001, 13.904317718757014 ], [ 98.127983469328001, 13.904332284785346 ], [ 98.128028198799996, 13.904332284785346 ], [ 98.128028198799996, 13.904346850813678 ], [ 98.128072928272005, 13.904346850813678 ], [ 98.128072928272005, 13.904361416842008 ], [ 98.128102747919996, 13.904361416842008 ], [ 98.128102747919996, 13.90437598287034 ], [ 98.128132567568002, 13.90437598287034 ], [ 98.128132567568002, 13.904390548898672 ], [ 98.128177297039997, 13.904390548898672 ], [ 98.128177297039997, 13.90427402067202 ], [ 98.128326395279998, 13.90427402067202 ], [ 98.128326395279998, 13.904288586700352 ], [ 98.128400944399999, 13.904288586700352 ], [ 98.128400944399999, 13.904303152728682 ], [ 98.128430764047991, 13.904303152728682 ], [ 98.128430764047991, 13.904317718757014 ], [ 98.128415854224002, 13.904317718757014 ], [ 98.128415854224002, 13.90437598287034 ], [ 98.128400944399999, 13.90437598287034 ], [ 98.128400944399999, 13.904405114927002 ], [ 98.128415854224002, 13.904405114927002 ], [ 98.128415854224002, 13.904390548898672 ], [ 98.128535132815998, 13.904390548898672 ], [ 98.128535132815998, 13.90437598287034 ], [ 98.128579862287992, 13.90437598287034 ], [ 98.128579862287992, 13.904361416842008 ], [ 98.128639501584004, 13.904361416842008 ], [ 98.128639501584004, 13.904346850813678 ], [ 98.128669321231996, 13.904346850813678 ], [ 98.128669321231996, 13.904361416842008 ], [ 98.128728960527994, 13.904361416842008 ], [ 98.128728960527994, 13.90437598287034 ], [ 98.128803509647994, 13.90437598287034 ], [ 98.128803509647994, 13.904390548898672 ], [ 98.128863148943992, 13.904390548898672 ], [ 98.128863148943992, 13.904405114927002 ], [ 98.128907878416001, 13.904405114927002 ], [ 98.128907878416001, 13.904419680955334 ], [ 98.128967517711999, 13.904419680955334 ], [ 98.128967517711999, 13.904303152728682 ], [ 98.128997337360005, 13.904303152728682 ], [ 98.128997337360005, 13.904288586700352 ], [ 98.129086796303994, 13.904288586700352 ], [ 98.129086796303994, 13.904303152728682 ], [ 98.129146435599992, 13.904303152728682 ], [ 98.129146435599992, 13.904317718757014 ], [ 98.129206074896004, 13.904317718757014 ], [ 98.129206074896004, 13.904405114927002 ], [ 98.129191165072001, 13.904405114927002 ], [ 98.129191165072001, 13.904434246983666 ], [ 98.129235894543996, 13.904434246983666 ], [ 98.129235894543996, 13.904419680955334 ], [ 98.129384992783997, 13.904419680955334 ], [ 98.129384992783997, 13.904405114927002 ], [ 98.129489361552004, 13.904405114927002 ], [ 98.129489361552004, 13.904419680955334 ], [ 98.129549000848002, 13.904419680955334 ], [ 98.129549000848002, 13.904434246983666 ], [ 98.129623549968002, 13.904434246983666 ], [ 98.129623549968002, 13.904448813011996 ], [ 98.129713008911992, 13.904448813011996 ], [ 98.129713008911992, 13.904463379040328 ], [ 98.129757738384001, 13.904463379040328 ], [ 98.129757738384001, 13.90447794506866 ], [ 98.129787558031992, 13.90447794506866 ], [ 98.129787558031992, 13.904463379040328 ], [ 98.129772648208004, 13.904463379040328 ], [ 98.129772648208004, 13.904390548898672 ], [ 98.129757738384001, 13.904390548898672 ], [ 98.129757738384001, 13.904332284785346 ], [ 98.129772648208004, 13.904332284785346 ], [ 98.129772648208004, 13.904317718757014 ], [ 98.129802467855995, 13.904317718757014 ], [ 98.129802467855995, 13.904303152728682 ], [ 98.129832287504001, 13.904303152728682 ], [ 98.129832287504001, 13.904288586700352 ], [ 98.129877016975996, 13.904288586700352 ], [ 98.129877016975996, 13.904303152728682 ], [ 98.129891926799999, 13.904303152728682 ], [ 98.129891926799999, 13.904332284785346 ], [ 98.129906836624002, 13.904332284785346 ], [ 98.129906836624002, 13.904361416842008 ], [ 98.129921746447991, 13.904361416842008 ], [ 98.129921746447991, 13.904390548898672 ], [ 98.129936656271994, 13.904390548898672 ], [ 98.129936656271994, 13.904419680955334 ], [ 98.129951566095997, 13.904419680955334 ], [ 98.129951566095997, 13.904434246983666 ], [ 98.12996647592, 13.904434246983666 ], [ 98.12996647592, 13.904463379040328 ], [ 98.129981385744003, 13.904463379040328 ], [ 98.129981385744003, 13.904492511096992 ], [ 98.129996295567992, 13.904492511096992 ], [ 98.129996295567992, 13.904507077125322 ], [ 98.130011205391995, 13.904507077125322 ], [ 98.130011205391995, 13.904536209181986 ], [ 98.130026115215998, 13.904536209181986 ], [ 98.130026115215998, 13.904565341238648 ], [ 98.130041025040001, 13.904565341238648 ], [ 98.130041025040001, 13.90457990726698 ], [ 98.130055934864004, 13.90457990726698 ], [ 98.130055934864004, 13.904609039323642 ], [ 98.130070844687992, 13.904609039323642 ], [ 98.130070844687992, 13.904623605351974 ], [ 98.130085754511995, 13.904623605351974 ], [ 98.130085754511995, 13.904652737408636 ], [ 98.130100664335998, 13.904652737408636 ], [ 98.130100664335998, 13.904667303436968 ], [ 98.130115574160001, 13.904667303436968 ], [ 98.130115574160001, 13.90469643549363 ], [ 98.130130483984004, 13.90469643549363 ], [ 98.130130483984004, 13.904711001521962 ], [ 98.130145393807993, 13.904711001521962 ], [ 98.130145393807993, 13.904725567550294 ], [ 98.130160303631996, 13.904725567550294 ], [ 98.130160303631996, 13.904754699606956 ], [ 98.130175213455999, 13.904754699606956 ], [ 98.130175213455999, 13.904769265635288 ], [ 98.130190123280002, 13.904769265635288 ], [ 98.130190123280002, 13.90479839769195 ], [ 98.130205033103991, 13.90479839769195 ], [ 98.130205033103991, 13.904812963720282 ], [ 98.130219942927994, 13.904812963720282 ], [ 98.130219942927994, 13.904842095776944 ], [ 98.130234852751997, 13.904842095776944 ], [ 98.130234852751997, 13.904856661805276 ], [ 98.130249762576, 13.904856661805276 ], [ 98.130249762576, 13.90488579386194 ], [ 98.130264672400003, 13.90488579386194 ], [ 98.130264672400003, 13.904914925918602 ], [ 98.130279582223991, 13.904914925918602 ], [ 98.130279582223991, 13.904929491946934 ], [ 98.130294492047994, 13.904929491946934 ], [ 98.130294492047994, 13.904958624003596 ], [ 98.130309401871997, 13.904958624003596 ], [ 98.130309401871997, 13.904973190031928 ], [ 98.130324311696, 13.904973190031928 ], [ 98.130324311696, 13.90500232208859 ], [ 98.130339221520003, 13.90500232208859 ], [ 98.130339221520003, 13.905016888116922 ], [ 98.130354131343992, 13.905016888116922 ], [ 98.130354131343992, 13.905046020173584 ], [ 98.130369041167995, 13.905046020173584 ], [ 98.130369041167995, 13.905060586201916 ], [ 98.130801426063996, 13.905060586201916 ], [ 98.130801426063996, 13.905075152230248 ], [ 98.130816335887999, 13.905075152230248 ], [ 98.130816335887999, 13.90510428428691 ], [ 98.130831245712002, 13.90510428428691 ], [ 98.130831245712002, 13.905133416343572 ], [ 98.130846155535991, 13.905133416343572 ], [ 98.130846155535991, 13.905162548400236 ], [ 98.130861065359994, 13.905162548400236 ], [ 98.130861065359994, 13.905191680456898 ], [ 98.130875975183997, 13.905191680456898 ], [ 98.130875975183997, 13.905220812513562 ], [ 98.130890885008, 13.905220812513562 ], [ 98.130890885008, 13.905235378541892 ], [ 98.130905794832003, 13.905235378541892 ], [ 98.130905794832003, 13.905264510598556 ], [ 98.130920704655992, 13.905264510598556 ], [ 98.130920704655992, 13.905279076626886 ], [ 98.130935614479995, 13.905279076626886 ], [ 98.130935614479995, 13.90530820868355 ], [ 98.130950524303998, 13.90530820868355 ], [ 98.130950524303998, 13.905322774711882 ], [ 98.130965434128001, 13.905322774711882 ], [ 98.130965434128001, 13.905351906768544 ], [ 98.130980343952004, 13.905351906768544 ], [ 98.130980343952004, 13.905366472796876 ], [ 98.130995253775993, 13.905366472796876 ], [ 98.130995253775993, 13.905381038825206 ], [ 98.131010163599996, 13.905381038825206 ], [ 98.131010163599996, 13.90541017088187 ], [ 98.131025073423999, 13.90541017088187 ], [ 98.131025073423999, 13.9054247369102 ], [ 98.131039983248002, 13.9054247369102 ], [ 98.131039983248002, 13.905439302938532 ], [ 98.131054893072005, 13.905439302938532 ], [ 98.131054893072005, 13.905468434995196 ], [ 98.131069802895993, 13.905468434995196 ], [ 98.131069802895993, 13.905483001023526 ], [ 98.131084712719996, 13.905483001023526 ], [ 98.131084712719996, 13.905497567051858 ], [ 98.131099622543999, 13.905497567051858 ], [ 98.131099622543999, 13.90551213308019 ], [ 98.136511888656003, 13.90551213308019 ], [ 98.136511888656003, 13.905497567051858 ], [ 98.136526798479991, 13.905497567051858 ], [ 98.136526798479991, 13.905483001023526 ], [ 98.136541708303994, 13.905483001023526 ], [ 98.136541708303994, 13.905453868966864 ], [ 98.136556618127997, 13.905453868966864 ], [ 98.136556618127997, 13.905439302938532 ], [ 98.136571527952, 13.905439302938532 ], [ 98.136571527952, 13.9054247369102 ], [ 98.136586437776003, 13.9054247369102 ], [ 98.136586437776003, 13.90541017088187 ], [ 98.136601347599992, 13.90541017088187 ], [ 98.136601347599992, 13.905395604853538 ], [ 98.136616257423995, 13.905395604853538 ], [ 98.136616257423995, 13.905381038825206 ], [ 98.136631167247998, 13.905381038825206 ], [ 98.136631167247998, 13.905366472796876 ], [ 98.136646077072001, 13.905366472796876 ], [ 98.136646077072001, 13.905337340740212 ], [ 98.136660986896004, 13.905337340740212 ], [ 98.136660986896004, 13.905322774711882 ], [ 98.136675896719993, 13.905322774711882 ], [ 98.136675896719993, 13.90530820868355 ], [ 98.136690806543996, 13.90530820868355 ], [ 98.136690806543996, 13.905293642655218 ], [ 98.136705716367999, 13.905293642655218 ], [ 98.136705716367999, 13.905279076626886 ], [ 98.136720626192002, 13.905279076626886 ], [ 98.136720626192002, 13.905264510598556 ], [ 98.136735536016005, 13.905264510598556 ], [ 98.136735536016005, 13.905249944570224 ], [ 98.136750445839994, 13.905249944570224 ], [ 98.136750445839994, 13.905235378541892 ], [ 98.136765355663997, 13.905235378541892 ], [ 98.136765355663997, 13.905220812513562 ], [ 98.136780265487999, 13.905220812513562 ], [ 98.136780265487999, 13.90520624648523 ], [ 98.136795175312002, 13.90520624648523 ], [ 98.136795175312002, 13.905191680456898 ], [ 98.136810085135991, 13.905191680456898 ], [ 98.136810085135991, 13.905162548400236 ], [ 98.136824994959994, 13.905162548400236 ], [ 98.136824994959994, 13.905118850315242 ], [ 98.136839904783997, 13.905118850315242 ], [ 98.136839904783997, 13.905089718258578 ], [ 98.136854814608, 13.905089718258578 ], [ 98.136854814608, 13.905046020173584 ], [ 98.136869724432003, 13.905046020173584 ], [ 98.136869724432003, 13.904914925918602 ], [ 98.136884634255992, 13.904914925918602 ], [ 98.136884634255992, 13.904856661805276 ], [ 98.136899544079995, 13.904856661805276 ], [ 98.136899544079995, 13.904842095776944 ], [ 98.136914453903998, 13.904842095776944 ], [ 98.136914453903998, 13.904812963720282 ], [ 98.136929363728001, 13.904812963720282 ], [ 98.136929363728001, 13.90478383166362 ], [ 98.136944273552004, 13.90478383166362 ], [ 98.136944273552004, 13.904769265635288 ], [ 98.136959183375993, 13.904769265635288 ], [ 98.136959183375993, 13.904740133578624 ], [ 98.136974093199996, 13.904740133578624 ], [ 98.136974093199996, 13.904711001521962 ], [ 98.136989003023999, 13.904711001521962 ], [ 98.136989003023999, 13.90469643549363 ], [ 98.137003912848002, 13.90469643549363 ], [ 98.137003912848002, 13.904667303436968 ], [ 98.137018822672005, 13.904667303436968 ], [ 98.137018822672005, 13.904652737408636 ], [ 98.137033732495993, 13.904652737408636 ], [ 98.137033732495993, 13.904623605351974 ], [ 98.137048642319996, 13.904623605351974 ], [ 98.137048642319996, 13.90459447329531 ], [ 98.137063552143999, 13.90459447329531 ], [ 98.137063552143999, 13.90457990726698 ], [ 98.137078461968002, 13.90457990726698 ], [ 98.137078461968002, 13.904550775210316 ], [ 98.137093371791991, 13.904550775210316 ], [ 98.137093371791991, 13.904521643153654 ], [ 98.137108281615994, 13.904521643153654 ], [ 98.137108281615994, 13.904507077125322 ], [ 98.137123191439997, 13.904507077125322 ], [ 98.137123191439997, 13.904492511096992 ], [ 98.137138101264, 13.904492511096992 ], [ 98.137138101264, 13.90447794506866 ], [ 98.137153011088003, 13.90447794506866 ], [ 98.137153011088003, 13.904463379040328 ], [ 98.137167920911992, 13.904463379040328 ], [ 98.137167920911992, 13.904448813011996 ], [ 98.137182830735995, 13.904448813011996 ], [ 98.137182830735995, 13.904419680955334 ], [ 98.137197740559998, 13.904419680955334 ], [ 98.137197740559998, 13.904390548898672 ], [ 98.137212650384001, 13.904390548898672 ], [ 98.137212650384001, 13.90437598287034 ], [ 98.137227560208004, 13.90437598287034 ], [ 98.137227560208004, 13.904346850813678 ], [ 98.137242470031993, 13.904346850813678 ], [ 98.137242470031993, 13.904317718757014 ], [ 98.137257379855996, 13.904317718757014 ], [ 98.137257379855996, 13.904303152728682 ], [ 98.137302109328004, 13.904303152728682 ], [ 98.137302109328004, 13.904288586700352 ], [ 98.137331928975996, 13.904288586700352 ], [ 98.137331928975996, 13.904201190530364 ], [ 98.137346838799999, 13.904201190530364 ], [ 98.137346838799999, 13.904142926417038 ], [ 98.137361748624002, 13.904142926417038 ], [ 98.137361748624002, 13.904084662303712 ], [ 98.137376658448005, 13.904084662303712 ], [ 98.137376658448005, 13.904026398190386 ], [ 98.137406478095997, 13.904026398190386 ], [ 98.137406478095997, 13.903997266133723 ], [ 98.13742138792, 13.903997266133723 ], [ 98.13742138792, 13.903982700105392 ], [ 98.137436297744003, 13.903982700105392 ], [ 98.137436297744003, 13.903953568048729 ], [ 98.137451207567992, 13.903953568048729 ], [ 98.137451207567992, 13.903924435992066 ], [ 98.137466117391995, 13.903924435992066 ], [ 98.137466117391995, 13.903909869963735 ], [ 98.137481027215998, 13.903909869963735 ], [ 98.137481027215998, 13.903880737907071 ], [ 98.137495937040001, 13.903880737907071 ], [ 98.137495937040001, 13.90386617187874 ], [ 98.137510846864004, 13.90386617187874 ], [ 98.137510846864004, 13.903837039822077 ], [ 98.137525756687992, 13.903837039822077 ], [ 98.137525756687992, 13.903807907765415 ], [ 98.137540666511995, 13.903807907765415 ], [ 98.137540666511995, 13.903793341737083 ], [ 98.137555576335998, 13.903793341737083 ], [ 98.137555576335998, 13.903778775708751 ], [ 98.137570486160001, 13.903778775708751 ], [ 98.137570486160001, 13.903749643652089 ], [ 98.137585395984004, 13.903749643652089 ], [ 98.137585395984004, 13.903735077623757 ], [ 98.137600305807993, 13.903735077623757 ], [ 98.137600305807993, 13.903705945567095 ], [ 98.137615215631996, 13.903705945567095 ], [ 98.137615215631996, 13.903676813510431 ], [ 98.137630125455999, 13.903676813510431 ], [ 98.137630125455999, 13.903662247482101 ], [ 98.137645035280002, 13.903662247482101 ], [ 98.137645035280002, 13.903647681453769 ], [ 98.137659945104005, 13.903647681453769 ], [ 98.137659945104005, 13.903618549397107 ], [ 98.137674854927994, 13.903618549397107 ], [ 98.137674854927994, 13.903603983368775 ], [ 98.137689764751997, 13.903603983368775 ], [ 98.137689764751997, 13.903574851312111 ], [ 98.137704674576, 13.903574851312111 ], [ 98.137704674576, 13.903560285283781 ], [ 98.137719584400003, 13.903560285283781 ], [ 98.137719584400003, 13.903545719255449 ], [ 98.137734494223992, 13.903545719255449 ], [ 98.137734494223992, 13.903516587198787 ], [ 98.137749404047995, 13.903516587198787 ], [ 98.137749404047995, 13.903502021170455 ], [ 98.137764313871998, 13.903502021170455 ], [ 98.137764313871998, 13.903472889113793 ], [ 98.137779223696, 13.903472889113793 ], [ 98.137779223696, 13.903458323085461 ], [ 98.137794133520003, 13.903458323085461 ], [ 98.137794133520003, 13.903429191028797 ], [ 98.137809043343992, 13.903429191028797 ], [ 98.137809043343992, 13.903414625000467 ], [ 98.137823953167995, 13.903414625000467 ], [ 98.137823953167995, 13.903385492943803 ], [ 98.137838862991998, 13.903385492943803 ], [ 98.137838862991998, 13.903312662802147 ], [ 98.137853772816001, 13.903312662802147 ], [ 98.137853772816001, 13.903268964717153 ], [ 98.137868682640004, 13.903268964717153 ], [ 98.137868682640004, 13.903225266632159 ], [ 98.137883592463993, 13.903225266632159 ], [ 98.137883592463993, 13.903167002518833 ], [ 98.137898502287996, 13.903167002518833 ], [ 98.137898502287996, 13.903137870462169 ], [ 98.137913412111999, 13.903137870462169 ], [ 98.137913412111999, 13.903094172377175 ], [ 98.137928321936002, 13.903094172377175 ], [ 98.137928321936002, 13.903050474292181 ], [ 98.137943231760005, 13.903050474292181 ], [ 98.137943231760005, 13.902977644150525 ], [ 98.137958141583994, 13.902977644150525 ], [ 98.137958141583994, 13.902890247980537 ], [ 98.137973051407997, 13.902890247980537 ], [ 98.137973051407997, 13.902831983867211 ], [ 98.137987961232, 13.902831983867211 ], [ 98.137987961232, 13.902773719753885 ], [ 98.138002871056003, 13.902773719753885 ], [ 98.138002871056003, 13.902686323583897 ], [ 98.138017780879991, 13.902686323583897 ], [ 98.138017780879991, 13.902584361385577 ], [ 98.138032690703994, 13.902584361385577 ], [ 98.138032690703994, 13.902511531243919 ], [ 98.138047600527997, 13.902511531243919 ], [ 98.138047600527997, 13.902380436988937 ], [ 98.138062510352, 13.902380436988937 ], [ 98.138062510352, 13.902263908762285 ], [ 98.138077420176003, 13.902263908762285 ], [ 98.138077420176003, 13.902132814507302 ], [ 98.13809233, 13.902132814507302 ], [ 98.13809233, 13.90200172025232 ], [ 98.138107239823995, 13.90200172025232 ], [ 98.138107239823995, 13.901885192025668 ], [ 98.138122149647998, 13.901885192025668 ], [ 98.138122149647998, 13.901856059969006 ], [ 98.138137059472001, 13.901856059969006 ], [ 98.138137059472001, 13.901841493940674 ], [ 98.138151969296004, 13.901841493940674 ], [ 98.138151969296004, 13.901812361884012 ], [ 98.138166879119993, 13.901812361884012 ], [ 98.138166879119993, 13.90179779585568 ], [ 98.138181788943996, 13.90179779585568 ], [ 98.138181788943996, 13.901768663799018 ], [ 98.138196698767999, 13.901768663799018 ], [ 98.138196698767999, 13.901754097770686 ], [ 98.138211608592002, 13.901754097770686 ], [ 98.138211608592002, 13.901724965714022 ], [ 98.138226518416005, 13.901724965714022 ], [ 98.138226518416005, 13.90169583365736 ], [ 98.138241428239994, 13.90169583365736 ], [ 98.138241428239994, 13.901623003515704 ], [ 98.138256338063997, 13.901623003515704 ], [ 98.138256338063997, 13.901550173374046 ], [ 98.138271247887999, 13.901550173374046 ], [ 98.138271247887999, 13.901404513090732 ], [ 98.138286157712002, 13.901404513090732 ], [ 98.138286157712002, 13.90137538103407 ], [ 98.138301067535991, 13.90137538103407 ], [ 98.138301067535991, 13.901360815005738 ], [ 98.138315977359994, 13.901360815005738 ], [ 98.138315977359994, 13.901331682949076 ], [ 98.138330887183997, 13.901331682949076 ], [ 98.138330887183997, 13.900821871957476 ], [ 98.138315977359994, 13.900821871957476 ], [ 98.138315977359994, 13.900603381532505 ], [ 98.138330887183997, 13.900603381532505 ], [ 98.138330887183997, 13.897326025157938 ], [ 98.138301067535991, 13.897326025157938 ], [ 98.138301067535991, 13.897311459129606 ], [ 98.138241428239994, 13.897311459129606 ], [ 98.138241428239994, 13.897296893101274 ], [ 98.138181788943996, 13.897296893101274 ], [ 98.138181788943996, 13.897282327072944 ], [ 98.138122149647998, 13.897282327072944 ], [ 98.138122149647998, 13.897267761044612 ], [ 98.138077420176003, 13.897267761044612 ], [ 98.138077420176003, 13.89725319501628 ], [ 98.137809043343992, 13.89725319501628 ], [ 98.137809043343992, 13.897005572534646 ], [ 98.137481027215998, 13.897005572534646 ], [ 98.137481027215998, 13.896991006506315 ], [ 98.137242470031993, 13.896991006506315 ], [ 98.137242470031993, 13.897005572534646 ], [ 98.137153011088003, 13.897005572534646 ], [ 98.137153011088003, 13.896961874449651 ], [ 98.137167920911992, 13.896961874449651 ], [ 98.137167920911992, 13.896932742392989 ], [ 98.137182830735995, 13.896932742392989 ], [ 98.137182830735995, 13.896889044307995 ], [ 98.137197740559998, 13.896889044307995 ], [ 98.137197740559998, 13.896845346223001 ], [ 98.137212650384001, 13.896845346223001 ], [ 98.137212650384001, 13.896816214166337 ], [ 98.137227560208004, 13.896816214166337 ], [ 98.137227560208004, 13.896787082109675 ], [ 98.137078461968002, 13.896787082109675 ], [ 98.137078461968002, 13.896772516081343 ], [ 98.137033732495993, 13.896772516081343 ], [ 98.137033732495993, 13.896626855798029 ], [ 98.136974093199996, 13.896626855798029 ], [ 98.136974093199996, 13.896393799344727 ], [ 98.136989003023999, 13.896393799344727 ], [ 98.136989003023999, 13.896320969203071 ], [ 98.137003912848002, 13.896320969203071 ], [ 98.137003912848002, 13.896262705089745 ], [ 98.137018822672005, 13.896262705089745 ], [ 98.137018822672005, 13.896204440976419 ], [ 98.137033732495993, 13.896204440976419 ], [ 98.137033732495993, 13.896160742891425 ], [ 98.137048642319996, 13.896160742891425 ], [ 98.137048642319996, 13.896117044806431 ], [ 98.137063552143999, 13.896117044806431 ], [ 98.137063552143999, 13.896073346721437 ], [ 98.137078461968002, 13.896073346721437 ], [ 98.137078461968002, 13.896029648636441 ], [ 98.137093371791991, 13.896029648636441 ], [ 98.137093371791991, 13.895985950551447 ], [ 98.137108281615994, 13.895985950551447 ], [ 98.137108281615994, 13.895913120409791 ], [ 98.137123191439997, 13.895913120409791 ], [ 98.137123191439997, 13.895825724239803 ], [ 98.137138101264, 13.895825724239803 ], [ 98.137138101264, 13.895811158211471 ], [ 98.137093371791991, 13.895811158211471 ], [ 98.137093371791991, 13.895738328069813 ], [ 98.137078461968002, 13.895738328069813 ], [ 98.137078461968002, 13.895621799843163 ], [ 98.137063552143999, 13.895621799843163 ], [ 98.137063552143999, 13.895417875446523 ], [ 98.136556618127997, 13.895417875446523 ], [ 98.136556618127997, 13.895432441474854 ], [ 98.136407519887996, 13.895432441474854 ], [ 98.136407519887996, 13.895447007503185 ], [ 98.136243511823992, 13.895447007503185 ], [ 98.136243511823992, 13.895461573531517 ], [ 98.135990044815998, 13.895461573531517 ], [ 98.135990044815998, 13.895447007503185 ], [ 98.135900585871994, 13.895447007503185 ], [ 98.135900585871994, 13.895024592681574 ], [ 98.135915495695997, 13.895024592681574 ], [ 98.135915495695997, 13.894835234313266 ], [ 98.13593040552, 13.894835234313266 ], [ 98.13593040552, 13.894747838143278 ], [ 98.135855856399999, 13.894747838143278 ], [ 98.135855856399999, 13.89476240417161 ], [ 98.135721667984001, 13.89476240417161 ], [ 98.135721667984001, 13.894747838143278 ], [ 98.135557659919996, 13.894747838143278 ], [ 98.135557659919996, 13.894733272114946 ], [ 98.135453291152004, 13.894733272114946 ], [ 98.135453291152004, 13.894718706086614 ], [ 98.135378742032003, 13.894718706086614 ], [ 98.135378742032003, 13.894704140058284 ], [ 98.135363832208, 13.894704140058284 ], [ 98.135363832208, 13.894587611831632 ], [ 98.135199824143996, 13.894587611831632 ], [ 98.135199824143996, 13.8945730458033 ], [ 98.134827078543992, 13.8945730458033 ], [ 98.134827078543992, 13.894587611831632 ], [ 98.134737619600003, 13.894587611831632 ], [ 98.134737619600003, 13.894471083604982 ], [ 98.134677980304005, 13.894471083604982 ], [ 98.134677980304005, 13.894485649633312 ], [ 98.134558701711995, 13.894485649633312 ], [ 98.134558701711995, 13.894500215661644 ], [ 98.134156136464, 13.894500215661644 ], [ 98.134156136464, 13.894514781689976 ], [ 98.134081587343999, 13.894514781689976 ], [ 98.134081587343999, 13.894471083604982 ], [ 98.134066677519996, 13.894471083604982 ], [ 98.134066677519996, 13.894427385519986 ], [ 98.134021948048002, 13.894427385519986 ], [ 98.134021948048002, 13.894441951548318 ], [ 98.133962308752004, 13.894441951548318 ], [ 98.133962308752004, 13.89445651757665 ], [ 98.133917579279995, 13.89445651757665 ], [ 98.133917579279995, 13.894471083604982 ], [ 98.133872849808, 13.894471083604982 ], [ 98.133872849808, 13.894485649633312 ], [ 98.133843030159994, 13.894485649633312 ], [ 98.133843030159994, 13.894500215661644 ], [ 98.133813210512002, 13.894500215661644 ], [ 98.133813210512002, 13.894514781689976 ], [ 98.133768481039994, 13.894514781689976 ], [ 98.133768481039994, 13.894529347718306 ], [ 98.133753571216005, 13.894529347718306 ], [ 98.133753571216005, 13.894543913746638 ], [ 98.133738661392002, 13.894543913746638 ], [ 98.133738661392002, 13.89455847977497 ], [ 98.133723751567999, 13.89455847977497 ], [ 98.133723751567999, 13.8945730458033 ], [ 98.133693931919993, 13.8945730458033 ], [ 98.133693931919993, 13.894587611831632 ], [ 98.133649202447998, 13.894587611831632 ], [ 98.133649202447998, 13.894602177859964 ], [ 98.133604472976003, 13.894602177859964 ], [ 98.133604472976003, 13.894616743888296 ], [ 98.133574653327997, 13.894616743888296 ], [ 98.133574653327997, 13.894631309916626 ], [ 98.133515014032, 13.894631309916626 ], [ 98.133515014032, 13.894645875944958 ], [ 98.133455374736002, 13.894645875944958 ], [ 98.133455374736002, 13.89466044197329 ], [ 98.133395735440004, 13.89466044197329 ], [ 98.133395735440004, 13.89467500800162 ], [ 98.133336096143992, 13.89467500800162 ], [ 98.133336096143992, 13.894689574029952 ], [ 98.133276456847994, 13.894689574029952 ], [ 98.133276456847994, 13.894704140058284 ], [ 98.133201907727994, 13.894704140058284 ], [ 98.133201907727994, 13.894718706086614 ], [ 98.133186997904005, 13.894718706086614 ], [ 98.133186997904005, 13.894616743888296 ], [ 98.133157178255999, 13.894616743888296 ], [ 98.133157178255999, 13.894631309916626 ], [ 98.133112448784004, 13.894631309916626 ], [ 98.133112448784004, 13.894645875944958 ], [ 98.133067719311995, 13.894645875944958 ], [ 98.133067719311995, 13.89466044197329 ], [ 98.133022989840001, 13.89466044197329 ], [ 98.133022989840001, 13.89467500800162 ], [ 98.132978260367992, 13.89467500800162 ], [ 98.132978260367992, 13.894689574029952 ], [ 98.132918621071994, 13.894689574029952 ], [ 98.132918621071994, 13.894704140058284 ], [ 98.132888801424002, 13.894704140058284 ], [ 98.132888801424002, 13.894718706086614 ], [ 98.132844071951993, 13.894718706086614 ], [ 98.132844071951993, 13.894733272114946 ], [ 98.132799342479998, 13.894733272114946 ], [ 98.132799342479998, 13.894747838143278 ], [ 98.132754613008004, 13.894747838143278 ], [ 98.132754613008004, 13.89476240417161 ], [ 98.132694973711992, 13.89476240417161 ], [ 98.132694973711992, 13.89477697019994 ], [ 98.132635334415994, 13.89477697019994 ], [ 98.132635334415994, 13.894791536228272 ], [ 98.132337137935991, 13.894791536228272 ], [ 98.132337137935991, 13.89476240417161 ], [ 98.132292408463996, 13.89476240417161 ] ] ] ] } }
]
}
