{
"type": "FeatureCollection",
"name": "buildings",
"crs": { "type": "name", "properties": { "name": "urn:ogc:def:crs:OGC:1.3:CRS84" } },
"features": [
{ "type": "Feature", "properties": { "bid": "PNY-B0000", "source": "VIDA/microsoft", "src_id": "0022000000000000ba24", "area_m2": 24.1, "overlap": 0.0, "overlap_outwash": 0.0, "dist_m": 271.4, "landslide": "", "f_veg": 0.999, "f_soil": 0.0, "f_grey": 0.001, "f_dark": 0.0, "status": "not_building", "status_auto": "clear", "note": "Chip review: canopy beside the road in both images, no roof.", "reach": "B" }, "geometry": { "type": "Polygon", "coordinates": [ [ [ 98.080819339267862, 13.994556143849058 ], [ 98.080872805503802, 13.994565433595971 ], [ 98.080879551249794, 13.994528920484234 ], [ 98.080826085008908, 13.994519630737811 ], [ 98.080819339267862, 13.994556143849058 ] ] ] } },
{ "type": "Feature", "properties": { "bid": "PNY-B0001", "source": "VIDA/microsoft", "src_id": "0022000000000000dc1d", "area_m2": 32.0, "overlap": 0.0, "overlap_outwash": 0.0, "dist_m": 273.5, "landslide": "", "f_veg": 1.0, "f_soil": 0.0, "f_grey": 0.0, "f_dark": 0.0, "status": "not_building", "status_auto": "clear", "note": "Chip review: canopy beside the road in both images, no roof.", "reach": "B" }, "geometry": { "type": "Polygon", "coordinates": [ [ [ 98.080793938658942, 13.994511300132306 ], [ 98.080858231374663, 13.994509158166581 ], [ 98.080856815605316, 13.994467645062871 ], [ 98.080792522890846, 13.994469699157062 ], [ 98.080793938658942, 13.994511300132306 ] ] ] } },
{ "type": "Feature", "properties": { "bid": "PNY-B0002", "source": "VIDA/microsoft", "src_id": "00220000000000011670", "area_m2": 18.2, "overlap": 0.0, "overlap_outwash": 0.0, "dist_m": 120.1, "landslide": "", "f_veg": 1.0, "f_soil": 0.0, "f_grey": 0.0, "f_dark": 0.0, "status": "not_building", "status_auto": "clear", "note": "Chip review: shrub and grass in both images, no roof.", "reach": "" }, "geometry": { "type": "Polygon", "coordinates": [ [ [ 98.086617324194165, 13.992910434281614 ], [ 98.086610661208738, 13.992872523747884 ], [ 98.086571599449854, 13.992879009856068 ], [ 98.086578262431672, 13.992916920395615 ], [ 98.086617324194165, 13.992910434281614 ] ] ] } },
{ "type": "Feature", "properties": { "bid": "PNY-B0003", "source": "VIDA/microsoft", "src_id": "00220000000000029578", "area_m2": 25.4, "overlap": null, "overlap_outwash": null, "dist_m": null, "landslide": null, "f_veg": null, "f_soil": null, "f_grey": null, "f_dark": null, "status": "not_surveyed", "status_auto": "not_surveyed", "note": "", "reach": "" }, "geometry": { "type": "Polygon", "coordinates": [ [ [ 98.088097133986594, 13.991352242497674 ], [ 98.088145191785316, 13.991371551438563 ], [ 98.088161349873829, 13.991333847121368 ], [ 98.088113292064421, 13.99131445032457 ], [ 98.088097133986594, 13.991352242497674 ] ] ] } },
{ "type": "Feature", "properties": { "bid": "PNY-B0004", "source": "VIDA/microsoft", "src_id": "0022000000000002c565", "area_m2": 48.3, "overlap": 0.0, "overlap_outwash": 0.0, "dist_m": 107.3, "landslide": "", "f_veg": 0.976, "f_soil": 0.0, "f_grey": 0.003, "f_dark": 0.022, "status": "not_building", "status_auto": "clear", "note": "Chip review: grass on 10 Jan 2026, no roof.", "reach": "A" }, "geometry": { "type": "Polygon", "coordinates": [ [ [ 98.08972192685502, 13.993731324115883 ], [ 98.089692858334828, 13.993668592730145 ], [ 98.089639302312094, 13.993691905369037 ], [ 98.089668370810841, 13.993754724641285 ], [ 98.08972192685502, 13.993731324115883 ] ] ] } },
{ "type": "Feature", "properties": { "bid": "PNY-B0005", "source": "VIDA/microsoft", "src_id": "002200000000000380d6", "area_m2": 23.2, "overlap": 0.0, "overlap_outwash": 0.0, "dist_m": 203.7, "landslide": "", "f_veg": 0.03, "f_soil": 0.317, "f_grey": 0.648, "f_dark": 0.005, "status": "clear", "status_auto": "clear", "note": "", "reach": "A" }, "geometry": { "type": "Polygon", "coordinates": [ [ [ 98.08151565268885, 13.993961909902547 ], [ 98.081513404090927, 13.993928244734532 ], [ 98.081456023154274, 13.99393191380962 ], [ 98.08145835503187, 13.993965576208172 ], [ 98.08151565268885, 13.993961909902547 ] ] ] } }
]
}
