{
"type": "FeatureCollection",
"name": "envelopes",
"crs": { "type": "name", "properties": { "name": "urn:ogc:def:crs:OGC:1.3:CRS84" } },
"features": [
{ "type": "Feature", "properties": { "id": "PN-02", "name": "Head slide", "kind": "landslide", "priority": 1, "split": 0, "description": "Open-slope slide on the east side of the stream head; its debris ran west into the scoured channel." }, "geometry": { "type": "Polygon", "coordinates": [ [ [ 98.0858, 13.9972 ], [ 98.0876, 13.99725 ], [ 98.08765, 13.998 ], [ 98.0864, 13.998 ], [ 98.0858, 13.9977 ], [ 98.0858, 13.9972 ] ] ] } },
{ "type": "Feature", "properties": { "id": "PN-03", "name": "Bank slide", "kind": "landslide", "priority": 1, "split": 0, "description": "Small slide off the east bank of the channel, above the road." }, "geometry": { "type": "Polygon", "coordinates": [ [ [ 98.08455, 13.99425 ], [ 98.0856, 13.99425 ], [ 98.0856, 13.9948 ], [ 98.08455, 13.9948 ], [ 98.08455, 13.99425 ] ] ] } },
{ "type": "Feature", "properties": { "id": "PN-04", "name": "Hairpin slides", "kind": "landslide", "priority": 2, "split": 0, "description": "A cluster of slope failures on and below the road where it winds down in hairpins: debris lay across the road and ran down the slope below it - the road blockage reported between Launglon and Pa Nyit." }, "geometry": { "type": "Polygon", "coordinates": [ [ [ 98.083, 13.99135 ], [ 98.0838, 13.9911 ], [ 98.0853, 13.9912 ], [ 98.0856, 13.9916 ], [ 98.086, 13.9926 ], [ 98.0844, 13.99285 ], [ 98.0835, 13.99265 ], [ 98.0831, 13.9923 ], [ 98.083, 13.99135 ] ] ] } },
{ "type": "Feature", "properties": { "id": "PN-01", "name": "Stream channel debris flow", "kind": "landslide", "priority": 3, "split": 0, "description": "A forested stream scoured to bare rock and gravel for about 900 m, from the top of the survey down across the road at the S-bend and on to the south-west edge." }, "geometry": { "type": "Polygon", "coordinates": [ [ [ 98.086735756067952, 13.998105342724683 ], [ 98.086339672052844, 13.997511217249764 ], [ 98.086337588692714, 13.997508167877408 ], [ 98.085637588324886, 13.996508168247713 ], [ 98.085625309393777, 13.996492710544223 ], [ 98.085611219654567, 13.996478803250181 ], [ 98.084849661867864, 13.995812440656676 ], [ 98.084661902821622, 13.995061406462693 ], [ 98.084657409959902, 13.995046545550474 ], [ 98.084651490032471, 13.995032169252596 ], [ 98.084644196709164, 13.995018407903375 ], [ 98.084635596110886, 13.995005386262036 ], [ 98.084625766210138, 13.994993222381666 ], [ 98.084614796124129, 13.994982026538938 ], [ 98.084602785306856, 13.994971900234351 ], [ 98.084589842647446, 13.994962935272058 ], [ 98.083820081968042, 13.994481835083148 ], [ 98.083673668193185, 13.994262214653402 ], [ 98.083765057889735, 13.993622483403511 ], [ 98.083766464577749, 13.993607799508998 ], [ 98.083766504105967, 13.993593051558214 ], [ 98.083765176150024, 13.993578360674851 ], [ 98.083762491616596, 13.993563847513894 ], [ 98.083758472553754, 13.99354963127068 ], [ 98.083558472169472, 13.992949631376383 ], [ 98.083552939683003, 13.992935348658706 ], [ 98.083546060575614, 13.992921635191355 ], [ 98.08353789541755, 13.992908611720233 ], [ 98.083528516102518, 13.992896392915879 ], [ 98.083518005214728, 13.992885086363774 ], [ 98.083506455301801, 13.992874791617091 ], [ 98.083493968059798, 13.992865599320133 ], [ 98.083224875081584, 13.992686204094175 ], [ 98.082943792866374, 13.992217734170794 ], [ 98.082932495543858, 13.992201288710419 ], [ 98.082919236283701, 13.992186304926737 ], [ 98.082419236240142, 13.991686305167111 ], [ 98.082408148205062, 13.991676183220035 ], [ 98.082396163050717, 13.991667088368784 ], [ 98.082383380197385, 13.991659096057665 ], [ 98.082369905682441, 13.991652272585085 ], [ 98.082355851280767, 13.991646674553621 ], [ 98.082341333577517, 13.991642348400466 ], [ 98.08194133382348, 13.991542348482946 ], [ 98.081925310181461, 13.991539151451704 ], [ 98.081909042789178, 13.991537503478881 ], [ 98.081892688310177, 13.991537420435316 ], [ 98.081876404246714, 13.991538903120741 ], [ 98.081860347422875, 13.991541937256086 ], [ 98.081844672474347, 13.991546493621023 ], [ 98.081829530359144, 13.991552528335321 ], [ 98.081815066903886, 13.991559983281492 ], [ 98.081801421399362, 13.991568786664439 ], [ 98.081788725259059, 13.991578853702915 ], [ 98.081777100753669, 13.991590087445989 ], [ 98.081766659833534, 13.991602379706727 ], [ 98.081757503050412, 13.991615612104097 ], [ 98.081749718589293, 13.99162965720304 ], [ 98.081743381418917, 13.991644379741718 ], [ 98.081738552569931, 13.991659637934157 ], [ 98.081735278547043, 13.991675284835736 ], [ 98.0817335908812, 13.991691169758315 ], [ 98.081733505825838, 13.991707139721461 ], [ 98.081735024200427, 13.991723040925724 ], [ 98.081738131382522, 13.991738720233792 ], [ 98.081742797448598, 13.991754026645335 ], [ 98.081748977462127, 13.991768812751161 ], [ 98.081756611906499, 13.991782936152896 ], [ 98.081765627258022, 13.991796260834338 ], [ 98.081775936694072, 13.991808658471387 ], [ 98.081787440929247, 13.991820009667864 ], [ 98.081800029171504, 13.991830205105384 ], [ 98.081813580189134, 13.991839146596162 ], [ 98.081827963478332, 13.991846748028587 ], [ 98.081843040519985, 13.991852936196567 ], [ 98.08185866611376, 13.991857651504539 ], [ 98.082213405061353, 13.991946336296953 ], [ 98.082666516056619, 13.992399447498261 ], [ 98.082956206808007, 13.992882265899139 ], [ 98.082966368658973, 13.992897240886661 ], [ 98.082978158896069, 13.992911030931289 ], [ 98.082991433847766, 13.99292346799222 ], [ 98.083006031750202, 13.992934400515603 ], [ 98.08325911171795, 13.993103120597123 ], [ 98.083429632500085, 13.993614683980436 ], [ 98.08333494166834, 13.994277516389376 ], [ 98.083333453598442, 13.99429408344916 ], [ 98.083333704872061, 13.994310712299589 ], [ 98.083335692865418, 13.99432722927564 ], [ 98.083339396817038, 13.99434346188062 ], [ 98.083344778044719, 13.994359240587665 ], [ 98.083351780349375, 13.994374400610196 ], [ 98.083360330602005, 13.994388783622902 ], [ 98.083560330482825, 13.994688783729504 ], [ 98.083570743994457, 13.994702726826421 ], [ 98.083582611023914, 13.994715514734629 ], [ 98.083595798123554, 13.99472700365072 ], [ 98.083610157001132, 13.994737064378777 ], [ 98.084353929270179, 13.995201922345235 ], [ 98.084538096587124, 13.995938593524622 ], [ 98.084542857767673, 13.995954201942586 ], [ 98.084549192781822, 13.995969267510205 ], [ 98.084557038182524, 13.995983639340619 ], [ 98.084566315395634, 13.995997173494965 ], [ 98.084576931506888, 13.996009734423968 ], [ 98.084588780192448, 13.996021196325515 ], [ 98.085373778494855, 13.996708070228882 ], [ 98.086061351934802, 13.997690318806534 ], [ 98.086460327604584, 13.998288782875921 ], [ 98.086468662812152, 13.998300180947178 ], [ 98.086868662673751, 13.998800181152987 ], [ 98.086879351314678, 13.9988122689976 ], [ 98.086891201870088, 13.99882327563026 ], [ 98.086904100212635, 13.998833095050911 ], [ 98.086917922124186, 13.998841632693004 ], [ 98.086932534492064, 13.998848806334232 ], [ 98.086947796590977, 13.998854546888367 ], [ 98.086963561438353, 13.998858799070614 ], [ 98.086979677209797, 13.998861521930031 ], [ 98.086995988701347, 13.998862689243927 ], [ 98.087012338824081, 13.998862289770383 ], [ 98.087028570117042, 13.998860327356539 ], [ 98.087044526263696, 13.998856820901528 ], [ 98.087060053597298, 13.99885180417448 ], [ 98.087075002580889, 13.998845325489299 ], [ 98.087089229247297, 13.998837447239369 ], [ 98.087102596585822, 13.998828245296666 ], [ 98.087114975861539, 13.998817808281075 ], [ 98.087126247855139, 13.998806236706914 ], [ 98.087136304011224, 13.998793642014929 ], [ 98.087145047483531, 13.998780145499042 ], [ 98.087152394067772, 13.998765877138238 ], [ 98.087158273012534, 13.998750974344766 ], [ 98.08716262770055, 13.998735580640796 ], [ 98.087165416194111, 13.998719844276211 ], [ 98.087166611638779, 13.99870391680088 ], [ 98.087166202522099, 13.998687951605136 ], [ 98.087164192784414, 13.998672102442558 ], [ 98.087160601780937, 13.998656521949219 ], [ 98.087155464095289, 13.998641360173748 ], [ 98.087148829206484, 13.998626763132243 ], [ 98.08714076101235, 13.998612871402093 ], [ 98.087131337214217, 13.998599818768131 ], [ 98.086735756067952, 13.998105342724683 ] ] ] } },
{ "type": "Feature", "properties": { "id": "PN-05", "name": "East channel", "kind": "landslide", "priority": 3, "split": 0, "description": "A gully scoured down the slope east of the main stream." }, "geometry": { "type": "Polygon", "coordinates": [ [ [ 98.088724151060575, 13.99472108125258 ], [ 98.088715080884242, 13.994708911298837 ], [ 98.088704764750759, 13.994697727544928 ], [ 98.088693314350976, 13.994687651075054 ], [ 98.088680853656143, 13.99467879098507 ], [ 98.088667517575757, 13.994671243201322 ], [ 98.088311460456552, 13.994493214729088 ], [ 98.088044033860541, 13.993958362121003 ], [ 98.087950625316978, 13.99321109761218 ], [ 98.088142688981009, 13.992538873271794 ], [ 98.088145903895054, 13.992525029006419 ], [ 98.088147713674289, 13.992510943698383 ], [ 98.088148100889811, 13.992496752996946 ], [ 98.088147061812791, 13.992482593566342 ], [ 98.088144606450356, 13.99246860176963 ], [ 98.088140758449228, 13.992454912355427 ], [ 98.088135554868032, 13.992441657160237 ], [ 98.088129045820267, 13.992428963838757 ], [ 98.088121293991819, 13.992416954634516 ], [ 98.088112374037138, 13.99240574520261 ], [ 98.088102371860373, 13.992395443495889 ], [ 98.088091383787955, 13.992386148725288 ], [ 98.088079515641027, 13.992377950404407 ], [ 98.08806688171623, 13.992370927487427 ], [ 98.088053603685083, 13.992365147608769 ], [ 98.088039809422114, 13.992360666431715 ], [ 98.088025631773405, 13.992357527112366 ], [ 98.088011207277233, 13.992355759884013 ], [ 98.087996674849151, 13.992355381765991 ], [ 98.087982174444107, 13.992356396399751 ], [ 98.087967845708661, 13.992358794013818 ], [ 98.087953826636138, 13.992362551517891 ], [ 98.087940252237615, 13.992367632725196 ], [ 98.087927253241801, 13.992373988701006 ], [ 98.087914954835909, 13.992381558233889 ], [ 98.087903475460237, 13.992390268425211 ], [ 98.087892925667333, 13.99240003539118 ], [ 98.087883407057447, 13.99241076507071 ], [ 98.087875011300028, 13.992422354131239 ], [ 98.08786781925086, 13.992434690963904 ], [ 98.087861900173436, 13.99244765675838 ], [ 98.087857311071886, 13.992461126647084 ], [ 98.087657310688755, 13.99316112650741 ], [ 98.087654090373192, 13.993175000582379 ], [ 98.087652281239386, 13.993189116442545 ], [ 98.087651900784849, 13.993203337564728 ], [ 98.087652952689453, 13.993217526407678 ], [ 98.087752952180722, 13.994017526436643 ], [ 98.087755842321016, 13.994033311777127 ], [ 98.087760503978629, 13.994048687758248 ], [ 98.087766879867957, 13.994063465428434 ], [ 98.08806687958392, 13.994663465573959 ], [ 98.088073406615138, 13.994675128038477 ], [ 98.088081002262726, 13.994686156323244 ], [ 98.088089602409511, 13.994696457334875 ], [ 98.088099134458929, 13.994705944119135 ], [ 98.088109517947913, 13.994714536594925 ], [ 98.088120665226086, 13.994722162230298 ], [ 98.088132482195618, 13.99472875665472 ], [ 98.088497370125268, 13.994911200699182 ], [ 98.08887584864533, 13.995478918867811 ], [ 98.088884368252636, 13.995490421502394 ], [ 98.088894001458172, 13.995501053328484 ], [ 98.088904655488918, 13.995510711955651 ], [ 98.088916227740768, 13.995519304365912 ], [ 98.088928606766544, 13.995526747809533 ], [ 98.088941673349339, 13.995532970601966 ], [ 98.088955301650714, 13.995537912814207 ], [ 98.088969360422453, 13.995541526849962 ], [ 98.088983714270697, 13.995543777904015 ], [ 98.088998224959767, 13.99554464429742 ], [ 98.089012752743571, 13.995544117686313 ], [ 98.089027157711342, 13.995542203142243 ], [ 98.089041301135097, 13.995538919103319 ], [ 98.089055046805697, 13.995534297196697 ], [ 98.089068262344611, 13.995528381933905 ], [ 98.089080820478799, 13.995521230282263 ], [ 98.089092600266397, 13.995512911116169 ], [ 98.089103488261529, 13.995503504553865 ], [ 98.089113379606786, 13.99549310118581 ], [ 98.08912217904313, 13.995481801202247 ], [ 98.089129801827227, 13.995469713428319 ], [ 98.08913617454759, 13.995456954276026 ], [ 98.089141235831605, 13.995443646623073 ], [ 98.08914493693652, 13.995429918629542 ], [ 98.089147242218885, 13.995415902503575 ], [ 98.08914812947782, 13.995401733228196 ], [ 98.089147590168793, 13.995387547261291 ], [ 98.089145629485898, 13.995373481221492 ], [ 98.089142266311868, 13.995359670572432 ], [ 98.089137533036109, 13.995346248318167 ], [ 98.089131475242894, 13.995333343722274 ], [ 98.089124151272273, 13.99532108106299 ], [ 98.088724151060575, 13.99472108125258 ] ] ] } },
{ "type": "Feature", "properties": { "id": "PN-06", "name": "North-east channel", "kind": "landslide", "priority": 3, "split": 0, "description": "A wide scoured channel at the north-east edge of the survey; it continues beyond the flight." }, "geometry": { "type": "Polygon", "coordinates": [ [ [ 98.0896, 13.9948 ], [ 98.0899, 13.9952 ], [ 98.0906, 13.9956 ], [ 98.0914, 13.996 ], [ 98.0916, 13.9956 ], [ 98.0908, 13.9951 ], [ 98.09, 13.9946 ], [ 98.0896, 13.9948 ] ] ] } },
{ "type": "Feature", "properties": { "id": "PN-07", "name": "Slides above the S-bend", "kind": "landslide", "priority": 1, "split": 0, "description": "Two small slides on the slope just above the road where it crosses the stream." }, "geometry": { "type": "Polygon", "coordinates": [ [ [ 98.0837, 13.99318 ], [ 98.08412, 13.99318 ], [ 98.08412, 13.99372 ], [ 98.0837, 13.99372 ], [ 98.0837, 13.99318 ] ] ] } },
{ "type": "Feature", "properties": { "id": "PX-4", "name": "Patch already brown in Jan 2026", "kind": "exclude", "priority": 0, "split": 0, "description": "Rejected on chip review: a fresh-looking scar above the road, but the spot is already brown on the Esri Vivid image of 10 Jan 2026, so it may predate the storm." }, "geometry": { "type": "Polygon", "coordinates": [ [ [ 98.08552, 13.99318 ], [ 98.08598, 13.99318 ], [ 98.08598, 13.99362 ], [ 98.08552, 13.99362 ], [ 98.08552, 13.99318 ] ] ] } },
{ "type": "Feature", "properties": { "id": "PX-1", "name": "Road to Pa Nyit", "kind": "exclude", "priority": 0, "split": 0, "description": "Unsealed road and its cut banks, bare on 10 Jan 2026." }, "geometry": { "type": "Polygon", "coordinates": [ [ [ 98.080517548307796, 13.994541830857028 ], [ 98.080521824279401, 13.994539865928111 ], [ 98.080525872819905, 13.994537485555961 ], [ 98.080529651739411, 13.994534714546461 ], [ 98.080533121657751, 13.994531581776346 ], [ 98.081033121663225, 13.994031581709155 ], [ 98.081034620377807, 13.994030009971118 ], [ 98.081532570951268, 13.993482264268295 ], [ 98.081715364630611, 13.99332833273769 ], [ 98.081929536317276, 13.993230981966649 ], [ 98.081930554308997, 13.99323050440421 ], [ 98.082240554353319, 13.993080504380949 ], [ 98.08224440251135, 13.993078414128821 ], [ 98.082248029875089, 13.993075976305166 ], [ 98.082251403624085, 13.993073212967468 ], [ 98.082254493232625, 13.993070149118438 ], [ 98.082467472508824, 13.992837808067774 ], [ 98.082809919379685, 13.992698978263741 ], [ 98.083009821136102, 13.992780756251452 ], [ 98.08313764597753, 13.992849585016419 ], [ 98.083141808781747, 13.99285156814088 ], [ 98.083146153692013, 13.99285313514113 ], [ 98.08315063721291, 13.992854270330465 ], [ 98.08315521446147, 13.992854962344893 ], [ 98.083159839616414, 13.992855204256891 ], [ 98.083164466376928, 13.992854993644759 ], [ 98.083169048426072, 13.992854332616865 ], [ 98.083173539894531, 13.99285322779053 ], [ 98.083177895819773, 13.992851690225784 ], [ 98.083182072596117, 13.992849735314667 ], [ 98.083186028411291, 13.992847382627113 ], [ 98.083189723665015, 13.992844655715071 ], [ 98.083193121365341, 13.992841581876718 ], [ 98.083263121366102, 13.992771581867315 ], [ 98.083266192972729, 13.992768185170545 ], [ 98.083268900890886, 13.992764505252525 ], [ 98.083271217909783, 13.992760579091259 ], [ 98.083273120746668, 13.992756446139149 ], [ 98.083274590280752, 13.992752147926542 ], [ 98.083309899402238, 13.992628565929865 ], [ 98.083390232904065, 13.992577444608406 ], [ 98.083615997309579, 13.992613566910645 ], [ 98.083760038664522, 13.992680786211491 ], [ 98.083764089643282, 13.992682450870005 ], [ 98.08376828403118, 13.992683732894783 ], [ 98.083772584021759, 13.992684620730209 ], [ 98.083776950856802, 13.99268510637371 ], [ 98.08378134517551, 13.992685185447904 ], [ 98.083785727369374, 13.992684857240057 ], [ 98.083790057939225, 13.992684124708482 ], [ 98.083794297851142, 13.992682994455905 ], [ 98.083798408888384, 13.992681476669937 ], [ 98.083802353995807, 13.992679585031247 ], [ 98.083932354012845, 13.992609585020444 ], [ 98.083936337320637, 13.992607175743723 ], [ 98.083940050818683, 13.992604385624377 ], [ 98.083943456464496, 13.99260124324546 ], [ 98.083946519369306, 13.992597780798732 ], [ 98.083949208155559, 13.992594033754827 ], [ 98.084029383404456, 13.992469316680682 ], [ 98.084171481678851, 13.992433792107491 ], [ 98.084174868349862, 13.992432809547644 ], [ 98.084178168421474, 13.992431577647459 ], [ 98.08429816844027, 13.992381577639719 ], [ 98.084302232459493, 13.992379650234586 ], [ 98.084306084718236, 13.992377345167686 ], [ 98.084309688524371, 13.992374684394404 ], [ 98.084313009552275, 13.992371693258153 ], [ 98.084316016169709, 13.992368400249013 ], [ 98.084318679739155, 13.992364836732341 ], [ 98.084320974890588, 13.992361036650037 ], [ 98.084322879763079, 13.992357036197243 ], [ 98.084372879745629, 13.992237036187435 ], [ 98.084374557089149, 13.99223226320602 ], [ 98.084375679192888, 13.992227337409028 ], [ 98.084376232073978, 13.992222320178355 ], [ 98.084385280040522, 13.992050408185445 ], [ 98.084495042855451, 13.991949088648763 ], [ 98.084676341594118, 13.991882294373154 ], [ 98.084680654835822, 13.991880455596466 ], [ 98.084684754594505, 13.991878198681347 ], [ 98.084688598496086, 13.991875546954677 ], [ 98.084692146811037, 13.991872527824029 ], [ 98.084695362864906, 13.991869172494338 ], [ 98.084698213417397, 13.991865515645429 ], [ 98.084700669005969, 13.991861595073543 ], [ 98.084702704250304, 13.99185745130068 ], [ 98.084761508324817, 13.991720241738369 ], [ 98.084849942322521, 13.991572851700065 ], [ 98.08485192962037, 13.991569158733917 ], [ 98.084853559808735, 13.991565302595211 ], [ 98.084922705982578, 13.991377620032312 ], [ 98.085008937324886, 13.991205157291098 ], [ 98.085163309781365, 13.991031488248419 ], [ 98.085364006723964, 13.99084990528835 ], [ 98.085567351841405, 13.990785204569285 ], [ 98.085877166225615, 13.990785204570097 ], [ 98.086124353625678, 13.990814867059584 ], [ 98.086129099223228, 13.990815196012582 ], [ 98.086133854334591, 13.990815047614994 ], [ 98.086138568737297, 13.990814423434159 ], [ 98.086143192638815, 13.990813330062538 ], [ 98.086424844379948, 13.990731560224374 ], [ 98.086965281613686, 13.99132990148032 ], [ 98.086968358298193, 13.991332996670764 ], [ 98.086971723090997, 13.99133579141558 ], [ 98.086975345354546, 13.991338260267669 ], [ 98.086979192106924, 13.99134038074731 ], [ 98.086983228322154, 13.991342133546819 ], [ 98.086987417249176, 13.991343502706373 ], [ 98.086991720746369, 13.991344475759306 ], [ 98.086996099628962, 13.991345043845646 ], [ 98.087000514025746, 13.991345201792774 ], [ 98.087004923742171, 13.991344948162524 ], [ 98.087009288626277, 13.991344285264287 ], [ 98.087509288720426, 13.991244285251096 ], [ 98.088009288713707, 13.991144285258068 ], [ 98.088013689205653, 13.991143182963498 ], [ 98.088017957862988, 13.991141664793295 ], [ 98.088022053576211, 13.991139745368294 ], [ 98.088025936901332, 13.991137443173603 ], [ 98.088029570439801, 13.991134780380628 ], [ 98.088032919198639, 13.991131782633538 ], [ 98.088035950927463, 13.991128478802279 ], [ 98.088038636429076, 13.991124900704577 ], [ 98.088040949840632, 13.991121082799467 ], [ 98.088042868882724, 13.991117061855482 ], [ 98.088044375073963, 13.991112876596521 ], [ 98.08804545390889, 13.991108567328917 ], [ 98.088046094997765, 13.991104175553289 ], [ 98.088046292166595, 13.991099743564838 ], [ 98.088046043516542, 13.991095314046044 ], [ 98.088045351442275, 13.991090929655584 ], [ 98.088044222608858, 13.991086632617536 ], [ 98.08804266788762, 13.991082464314726 ], [ 98.088040702251391, 13.991078464890176 ], [ 98.088038344630334, 13.991074672860528 ], [ 98.088035617729631, 13.991071124745087 ], [ 98.088032547810855, 13.99106785471413 ], [ 98.088029164439007, 13.991064894259834 ], [ 98.088025500197787, 13.991062271892986 ], [ 98.088021590375845, 13.991060012868388 ], [ 98.088017472626902, 13.991058138941678 ], [ 98.088013186607114, 13.991056668159784 ], [ 98.088008773593145, 13.991055614687125 ], [ 98.08800427608476, 13.991054988669219 ], [ 98.08799973739535, 13.991054796134952 ], [ 98.087995201234989, 13.99105503893853 ], [ 98.087990711289336, 13.991055714741629 ], [ 98.087490711383481, 13.991155714728432 ], [ 98.087016981048706, 13.991250460828889 ], [ 98.086474718346494, 13.990650098591455 ], [ 98.086471665567558, 13.990647025255679 ], [ 98.086468328716535, 13.99064424773673 ], [ 98.086464737728363, 13.990641790951749 ], [ 98.086460924817843, 13.990639676940578 ], [ 98.0864569241906, 13.990637924668027 ], [ 98.086452771736347, 13.99063654985374 ], [ 98.086448504706752, 13.990635564831186 ], [ 98.08644416138138, 13.990634978437022 ], [ 98.086439780724234, 13.990634795931779 ], [ 98.086435402034198, 13.990635018952712 ], [ 98.086431064592574, 13.990635645499102 ], [ 98.086426807310559, 13.990636669950195 ], [ 98.086126062716488, 13.990723982906339 ], [ 98.085885646418589, 13.990695132948606 ], [ 98.085879999968455, 13.990694795431558 ], [ 98.085560000030981, 13.990694795435378 ], [ 98.085555148303158, 13.990695044384262 ], [ 98.085550350014159, 13.990695788495159 ], [ 98.085545658014539, 13.990697019572085 ], [ 98.085325658052739, 13.990767019561558 ], [ 98.085320994090154, 13.990768780932239 ], [ 98.085316551900291, 13.990771023272645 ], [ 98.085312383317344, 13.990773720417758 ], [ 98.085308536982936, 13.990776840895624 ], [ 98.085098536990685, 13.990966840869168 ], [ 98.085095039923601, 13.990970368341461 ], [ 98.084935039919841, 13.991150368318431 ], [ 98.08493253863999, 13.99115344237314 ], [ 98.084930319963021, 13.991156716774668 ], [ 98.084928400626325, 13.991160166821423 ], [ 98.084838400603644, 13.99134016680477 ], [ 98.084836440227008, 13.991344697411531 ], [ 98.08476789106868, 13.991530759323984 ], [ 98.084680057670553, 13.991677148278221 ], [ 98.084677295776515, 13.991682548703833 ], [ 98.084624996110009, 13.991804581219442 ], [ 98.084453658442854, 13.991867705615231 ], [ 98.084449452199436, 13.991869492465666 ], [ 98.084445447699238, 13.991871677028918 ], [ 98.084441684259446, 13.991874237856425 ], [ 98.08443819883037, 13.99187714980536 ], [ 98.084308198834535, 13.991997149788761 ], [ 98.084305142894266, 13.992000252738261 ], [ 98.084302403090078, 13.992003625480272 ], [ 98.084300004270631, 13.992007237425742 ], [ 98.084297968191976, 13.992011055816178 ], [ 98.084296313320323, 13.992015046020736 ], [ 98.084295054664537, 13.992019171850291 ], [ 98.084294203640013, 13.992023395885688 ], [ 98.084293767965121, 13.992027679817069 ], [ 98.084284169761489, 13.992210045005363 ], [ 98.084244302628562, 13.992305726088258 ], [ 98.084145088229093, 13.992347065417361 ], [ 98.083988518354289, 13.992386207886373 ], [ 98.083984318313981, 13.992387468075938 ], [ 98.083980259543026, 13.992389111416863 ], [ 98.083976378605087, 13.992391123105019 ], [ 98.083972710461822, 13.992393485017995 ], [ 98.083969288157917, 13.992396175878369 ], [ 98.083966142523394, 13.992399171445367 ], [ 98.083963301895892, 13.992402444733258 ], [ 98.083960791865366, 13.992405966254436 ], [ 98.083877158972982, 13.992536061839738 ], [ 98.083778487460052, 13.992589192656638 ], [ 98.083649961346893, 13.992529213799658 ], [ 98.083645932391022, 13.992527557014773 ], [ 98.08364176135423, 13.992526278725549 ], [ 98.083637485432746, 13.992525390331441 ], [ 98.083387485478681, 13.99248539034188 ], [ 98.083383233898985, 13.992484905901888 ], [ 98.083378954671062, 13.992484806994035 ], [ 98.083374684380175, 13.992485094463936 ], [ 98.083370459535217, 13.992485765853857 ], [ 98.083366316256459, 13.99248681542376 ], [ 98.083362289966857, 13.992488234200342 ], [ 98.083358415089208, 13.992490010053764 ], [ 98.083354724751757, 13.992492127801377 ], [ 98.083244724763574, 13.992562127790761 ], [ 98.083240870185108, 13.99256486678706 ], [ 98.083237324507209, 13.992567978345715 ], [ 98.083234125329199, 13.99257142947091 ], [ 98.08323130657611, 13.992575183565963 ], [ 98.083228898138756, 13.99257920082141 ], [ 98.0832269255569, 13.992583438637171 ], [ 98.083225409748366, 13.992587852074269 ], [ 98.083188595736672, 13.99271670103732 ], [ 98.083151497063014, 13.99275379971046 ], [ 98.083052354028453, 13.992700414993626 ], [ 98.08304788782435, 13.992698306507354 ], [ 98.082827887854975, 13.992608306525268 ], [ 98.08282358982359, 13.992606787158767 ], [ 98.082819159296093, 13.992605689102886 ], [ 98.08281463946858, 13.992605023063289 ], [ 98.08281007440786, 13.992604795533637 ], [ 98.082805508621689, 13.992605008732264 ], [ 98.082800986624932, 13.992605660580558 ], [ 98.082796552505499, 13.992606744723215 ], [ 98.082792249494574, 13.992608250590214 ], [ 98.082422249553318, 13.992758250567039 ], [ 98.082418501790571, 13.992759965546149 ], [ 98.082414925870808, 13.992762000535258 ], [ 98.082411550377643, 13.992764339267953 ], [ 98.082408402292629, 13.992766963049906 ], [ 98.082405506779551, 13.992769850908264 ], [ 98.082191454746479, 13.993003362193138 ], [ 98.081889951710536, 13.993149250750012 ], [ 98.081670463722077, 13.993249018016551 ], [ 98.08166669090285, 13.993250943768633 ], [ 98.081663115203824, 13.993253199811299 ], [ 98.081659766863979, 13.993255767065669 ], [ 98.081469766874235, 13.993415767042878 ], [ 98.081465379639511, 13.993419990095507 ], [ 98.08096610986594, 13.993969186769172 ], [ 98.080473577933901, 13.994461718659959 ], [ 98.079982451778065, 13.994658169111073 ], [ 98.079978337354916, 13.994660050101324 ], [ 98.079974431554774, 13.99466231583088 ], [ 98.07997077199262, 13.994664944479524 ], [ 98.079967393912014, 13.994667910731957 ], [ 98.079964329845751, 13.99467118602155 ], [ 98.079961609302444, 13.994674738805491 ], [ 98.079959258482404, 13.994678534868534 ], [ 98.079957300025342, 13.99468253765254 ], [ 98.079955752792273, 13.994686708608508 ], [ 98.079954631683918, 13.994691007567873 ], [ 98.079953947497216, 13.9946953931293 ], [ 98.079953706821229, 13.994699823057456 ], [ 98.07995391197386, 13.994704254689701 ], [ 98.079954560979388, 13.994708645347002 ], [ 98.079955647587582, 13.994712952744921 ], [ 98.079957161333809, 13.994717135400865 ], [ 98.079959087639892, 13.994721153033556 ], [ 98.079961407954471, 13.994724966950994 ], [ 98.079964099931672, 13.994728540423052 ], [ 98.079967137646264, 13.994731839035238 ], [ 98.07997049184344, 13.994734831020095 ], [ 98.079974130220393, 13.994737487563162 ], [ 98.079978017737616, 13.99473978308046 ], [ 98.079982116956145, 13.994741695464899 ], [ 98.079986388398254, 13.994743206299162 ], [ 98.079990790927638, 13.994744301033078 ], [ 98.079995282145447, 13.994744969123744 ], [ 98.079999818798825, 13.994745204137091 ], [ 98.080004357197282, 13.994745003809799 ], [ 98.080008853633529, 13.994744370071134 ], [ 98.080013264804393, 13.994743309024344 ], [ 98.080017548227886, 13.994741830887902 ], [ 98.080517548307796, 13.994541830857028 ] ] ] } },
{ "type": "Feature", "properties": { "id": "PX-2", "name": "Rock outcrop", "kind": "exclude", "priority": 0, "split": 0, "description": "Dark rock outcrop already bare on the Esri Vivid image of 10 Jan 2026." }, "geometry": { "type": "Polygon", "coordinates": [ [ [ 98.082, 13.99395 ], [ 98.0829, 13.99395 ], [ 98.0829, 13.9951 ], [ 98.082, 13.9951 ], [ 98.082, 13.99395 ] ] ] } },
{ "type": "Feature", "properties": { "id": "PX-3", "name": "Dark patch bare before", "kind": "exclude", "priority": 0, "split": 0, "description": "Dark wet patch, already brown on the Esri Vivid image of 10 Jan 2026." }, "geometry": { "type": "Polygon", "coordinates": [ [ [ 98.08635, 13.9935 ], [ 98.087, 13.9935 ], [ 98.087, 13.9941 ], [ 98.08635, 13.9941 ], [ 98.08635, 13.9935 ] ] ] } }
]
}
