{
"type": "FeatureCollection",
"name": "reach_zones",
"crs": { "type": "name", "properties": { "name": "urn:ogc:def:crs:OGC:1.3:CRS84" } },
"features": [
{ "type": "Feature", "properties": { "zone": "A", "alpha_deg": 19.1, "label": "Within reach of an open-slope debris flow (alpha 19.1 deg)" }, "geometry": { "type": "MultiPolygon", "coordinates": [ [ [ [ 98.144794727141559, 13.766076792619176 ], [ 98.144793741459594, 13.76634802731542 ], [ 98.145348726101787, 13.766349953619763 ], [ 98.145349711144277, 13.766078718884122 ], [ 98.144794727141559, 13.766076792619176 ] ] ], [ [ [ 98.156429959963674, 13.7715416908803 ], [ 98.156432877858393, 13.770727984651259 ], [ 98.156710376174686, 13.770728935144259 ], [ 98.156711348444347, 13.770457699703083 ], [ 98.1569888464618, 13.77045864986402 ], [ 98.156989818390599, 13.77018741439738 ], [ 98.157267316109227, 13.770188364226263 ], [ 98.157269259264126, 13.769645893236053 ], [ 98.157546756364113, 13.769646842713481 ], [ 98.157547727590227, 13.769375607189916 ], [ 98.157270230810056, 13.769374657731902 ], [ 98.157272173838905, 13.768832186705506 ], [ 98.156994677719382, 13.76883123697373 ], [ 98.156995649522088, 13.768560001470906 ], [ 98.156718153743384, 13.768559051445964 ], [ 98.156722042023205, 13.767474109452081 ], [ 98.156444547544666, 13.76747315919229 ], [ 98.156447464493084, 13.766659452691863 ], [ 98.156169970994839, 13.766658502177831 ], [ 98.156171916161469, 13.766116031186277 ], [ 98.15589442332373, 13.766115080398599 ], [ 98.155895396195234, 13.765843844913221 ], [ 98.155617903698271, 13.765842893832463 ], [ 98.155619850017587, 13.765300422882532 ], [ 98.155342358181116, 13.765299471528174 ], [ 98.155345278461326, 13.764485765116429 ], [ 98.15506778760502, 13.764484813507956 ], [ 98.155070708654804, 13.763671107100349 ], [ 98.154793218778593, 13.763670155237802 ], [ 98.154794192739416, 13.763398919776007 ], [ 98.154516703203939, 13.76339796762047 ], [ 98.154518651701679, 13.76285549671776 ], [ 98.154241162826594, 13.762854544288725 ], [ 98.15424311187931, 13.762312073400871 ], [ 98.153965623664604, 13.762311120698369 ], [ 98.153969522795578, 13.761226178928281 ], [ 98.153692035880439, 13.761225225991325 ], [ 98.15369496096605, 13.760411519658952 ], [ 98.153417475030807, 13.760410566468094 ], [ 98.153418450336744, 13.760139331031416 ], [ 98.152863479168744, 13.760137423751546 ], [ 98.152866406877351, 13.759323717522426 ], [ 98.152588922283726, 13.759322763472477 ], [ 98.15258989846393, 13.759051528070239 ], [ 98.15203492997918, 13.7590496190723 ], [ 98.152035906777357, 13.758778383703099 ], [ 98.151758422886232, 13.758777428755129 ], [ 98.151759399982808, 13.758506193399441 ], [ 98.15148191643236, 13.758505238158667 ], [ 98.15148289382735, 13.758234002816495 ], [ 98.151205410617578, 13.758233047282928 ], [ 98.151206388310939, 13.757961811954285 ], [ 98.150651422593938, 13.757959899989249 ], [ 98.150652400905201, 13.757688664693706 ], [ 98.150374918397972, 13.757687708262257 ], [ 98.150377854163224, 13.756874002398188 ], [ 98.150100372635691, 13.756873045713151 ], [ 98.150102330345632, 13.756330575146125 ], [ 98.149824849478279, 13.75632961818795 ], [ 98.149826807742443, 13.755787147635989 ], [ 98.149271847349183, 13.755785232861134 ], [ 98.149273806806448, 13.755242762363444 ], [ 98.148996327280543, 13.755241804546801 ], [ 98.148997069809383, 13.755036298307136 ], [ 98.14712342117663, 13.755036295955252 ], [ 98.147054679160163, 13.755039596694628 ], [ 98.147053971193458, 13.755235091086739 ], [ 98.146776491837414, 13.755234130771935 ], [ 98.146777106235589, 13.755064529274755 ], [ 98.146672303975777, 13.755079724734095 ], [ 98.146452180992796, 13.755133620388426 ], [ 98.146238522183864, 13.755208346704423 ], [ 98.146033385164372, 13.755303184037773 ], [ 98.145838745487836, 13.755417219067319 ], [ 98.145656477621671, 13.755549353590116 ], [ 98.145488336896179, 13.755698315096819 ], [ 98.145335942600468, 13.755862669025714 ], [ 98.145200762388129, 13.756040832577259 ], [ 98.145084098142661, 13.756231089956282 ], [ 98.144987073438969, 13.756431608894996 ], [ 98.144910622721738, 13.756640458297783 ], [ 98.144855482304607, 13.756855626837849 ], [ 98.144822183277341, 13.757075042326715 ], [ 98.144817275423193, 13.757172675772857 ], [ 98.144798901680872, 13.757293745178334 ], [ 98.144796294277313, 13.757303919777852 ], [ 98.144762995426618, 13.757523334474174 ], [ 98.144762715285751, 13.757528907414585 ], [ 98.144748198588545, 13.757624561567846 ], [ 98.144744657772321, 13.757695000206171 ], [ 98.144733401327557, 13.75776917168491 ], [ 98.144729860504583, 13.757839610413781 ], [ 98.144718604066952, 13.757913781798065 ], [ 98.144716150129412, 13.757962598740489 ], [ 98.144703806946893, 13.758043930907361 ], [ 98.144700266110902, 13.758114369811024 ], [ 98.144689009685507, 13.758188541028238 ], [ 98.144677872825213, 13.758410089541082 ], [ 98.144677872290899, 13.758464566604482 ], [ 98.14450945780213, 13.758542420302591 ], [ 98.144314825650909, 13.758656440753802 ], [ 98.144132563017294, 13.758788558527325 ], [ 98.143964424928768, 13.758937501458105 ], [ 98.143949629084759, 13.75895196237315 ], [ 98.143797214860371, 13.759116319725713 ], [ 98.143662016549371, 13.759294489228365 ], [ 98.143545336378082, 13.759484754806572 ], [ 98.143448298220235, 13.759685283876461 ], [ 98.143371836771024, 13.759894144994927 ], [ 98.143359170436639, 13.759943567483049 ], [ 98.143297841970465, 13.760111103758216 ], [ 98.143295310407325, 13.760120982304132 ], [ 98.143283045714782, 13.760154486796955 ], [ 98.143280514144649, 13.760164365368299 ], [ 98.143272678207609, 13.760185771454202 ], [ 98.143255923569129, 13.760220397463096 ], [ 98.143239163051433, 13.760266183602218 ], [ 98.143226331216567, 13.760292702531331 ], [ 98.143209570664894, 13.760338488748905 ], [ 98.143196738864035, 13.76036500759948 ], [ 98.143182912525575, 13.760402778168119 ], [ 98.143116211310399, 13.760511553679391 ], [ 98.143019185558927, 13.76071207188058 ], [ 98.142942734022043, 13.760920920451207 ], [ 98.142887593016056, 13.761136088086948 ], [ 98.142866651159011, 13.761274077122124 ], [ 98.142794770363594, 13.761470438979927 ], [ 98.142739629237781, 13.761685606587111 ], [ 98.142706329782271, 13.761905021093389 ], [ 98.142695192747922, 13.762126569429249 ], [ 98.142695192321696, 13.762169952438539 ], [ 98.142706326445833, 13.762391515071739 ], [ 98.142739625974627, 13.762610943868872 ], [ 98.142794770235597, 13.762826125335827 ], [ 98.142871228148664, 13.763034986882104 ], [ 98.142968263339228, 13.763235516783958 ], [ 98.143023537475884, 13.763325652429383 ], [ 98.143025176099627, 13.763358262037515 ], [ 98.143139650474126, 13.763358660213067 ], [ 98.14314261250631, 13.762544956262257 ], [ 98.143420100213106, 13.76254592116951 ], [ 98.14342108719481, 13.762274686487439 ], [ 98.14397606203319, 13.76227661532517 ], [ 98.143977048354287, 13.762005380597611 ], [ 98.143699561244063, 13.762004416354687 ], [ 98.143700547863446, 13.761733181640823 ], [ 98.144255521465993, 13.761735109774788 ], [ 98.144256507424814, 13.761463875015446 ], [ 98.144533993938467, 13.761464838594081 ], [ 98.144529065529255, 13.762821012429065 ], [ 98.144806553662377, 13.762821975793825 ], [ 98.144802611829846, 13.7639069148321 ], [ 98.145080101262934, 13.76390787796322 ], [ 98.145078130858124, 13.764450347485578 ], [ 98.145355620951889, 13.764451310343617 ], [ 98.145351681165351, 13.765536249394742 ], [ 98.145629172559239, 13.765537212019051 ], [ 98.145628187879055, 13.765808446786446 ], [ 98.145905679613946, 13.765809409117924 ], [ 98.145904695232204, 13.766080643898972 ], [ 98.146182187308113, 13.766081605937609 ], [ 98.146177266678805, 13.767437779850749 ], [ 98.146454760374738, 13.767438741675216 ], [ 98.146451808701059, 13.768252446009731 ], [ 98.147006798075395, 13.768254368838956 ], [ 98.14700581478121, 13.768525603644385 ], [ 98.147283309820054, 13.768526564609783 ], [ 98.147281343807478, 13.76906903424185 ], [ 98.147003848129017, 13.769068073237147 ], [ 98.147002864771039, 13.769339308024483 ], [ 98.147280360769301, 13.769340269048836 ], [ 98.147279377709864, 13.769611503849786 ], [ 98.147001881391787, 13.769610542805781 ], [ 98.147001384931926, 13.769747473688529 ], [ 98.147170596611645, 13.769825699873747 ], [ 98.147210552130673, 13.769839673771109 ], [ 98.147274167467216, 13.769869082973923 ], [ 98.147487838075662, 13.769943811239715 ], [ 98.147707973674358, 13.769997708699888 ], [ 98.147932454183774, 13.770030256275087 ], [ 98.148139861249945, 13.770040215829832 ], [ 98.148153651141826, 13.770045038640328 ], [ 98.14816378338179, 13.770047519397098 ], [ 98.148198038606097, 13.770059499656506 ], [ 98.148199370175561, 13.770059825675274 ], [ 98.14823840222688, 13.770073476587255 ], [ 98.148265488787828, 13.77008599861853 ], [ 98.148479159645575, 13.770160726901159 ], [ 98.148699295501089, 13.770214624373414 ], [ 98.148923776272355, 13.770247171955839 ], [ 98.149150440028038, 13.77025805618524 ], [ 98.149180032024361, 13.770258056201696 ], [ 98.149337222234848, 13.770250508238876 ], [ 98.149411328990681, 13.77027642463028 ], [ 98.149631455148352, 13.77033031704374 ], [ 98.149842100354149, 13.770360857131667 ], [ 98.14996701049418, 13.770418602653077 ], [ 98.150180681734767, 13.770493330974443 ], [ 98.15040081798584, 13.770547228478506 ], [ 98.150625299161661, 13.77057977608553 ], [ 98.150851963327057, 13.770590660332104 ], [ 98.150911147319704, 13.770590660364952 ], [ 98.15113567455289, 13.770578506472617 ], [ 98.151244180969329, 13.770605072855309 ], [ 98.151468662191135, 13.770637620522802 ], [ 98.151695326408969, 13.770648504835039 ], [ 98.151902470383305, 13.770648504949891 ], [ 98.152091855954026, 13.7706408059104 ], [ 98.152207713259813, 13.770681325202208 ], [ 98.152427849804326, 13.770735222721079 ], [ 98.152652331278077, 13.770767770331419 ], [ 98.152878995742981, 13.77077865456978 ], [ 98.152908587739319, 13.770778654586167 ], [ 98.152982724189556, 13.770775094720999 ], [ 98.15316944334343, 13.770840396825841 ], [ 98.153389580094441, 13.77089429435209 ], [ 98.153614061778214, 13.770926841964096 ], [ 98.153689803610419, 13.770930479042143 ], [ 98.15373995100893, 13.770953661942873 ], [ 98.153759090916054, 13.770960355832328 ], [ 98.1539322967689, 13.771040428094855 ], [ 98.153979188318218, 13.771056827686829 ], [ 98.154006275973416, 13.771069350170523 ], [ 98.154219948025741, 13.77114407855186 ], [ 98.154440085111858, 13.771197976095042 ], [ 98.154664567137857, 13.771230523719941 ], [ 98.154697403738197, 13.771232100515826 ], [ 98.154726837722379, 13.771242394586537 ], [ 98.154790455361265, 13.771271804676392 ], [ 98.154891176005151, 13.771307030110219 ], [ 98.15490882202063, 13.77131518776371 ], [ 98.155122494337462, 13.771389916163509 ], [ 98.155132625793811, 13.771392396713924 ], [ 98.155166881856928, 13.771404377195834 ], [ 98.155177013304652, 13.771406857743983 ], [ 98.155211269376451, 13.771418838228177 ], [ 98.155221400834989, 13.771421318778815 ], [ 98.155255656951155, 13.771433299276868 ], [ 98.155475794363724, 13.771487196832314 ], [ 98.155700276722584, 13.771519744464555 ], [ 98.155926942081123, 13.771530628709943 ], [ 98.155956534077475, 13.77153062872627 ], [ 98.156183199460898, 13.771519744729902 ], [ 98.156231576518948, 13.771512730626444 ], [ 98.156348724169447, 13.771541412554487 ], [ 98.156429959963674, 13.7715416908803 ] ], [ [ 98.151996818363898, 13.769627793768731 ], [ 98.15144182502803, 13.76962588199682 ], [ 98.151442803290195, 13.769354646901858 ], [ 98.151165306973809, 13.769353690566547 ], [ 98.151166285534629, 13.769082455485112 ], [ 98.15172127754893, 13.769084367804034 ], [ 98.15172029962774, 13.769355602924572 ], [ 98.151997795986432, 13.76935655863468 ], [ 98.151996818363898, 13.769627793768731 ] ], [ [ 98.145368422904141, 13.760925257761087 ], [ 98.144535965152897, 13.76092236901788 ], [ 98.144537936282035, 13.760379899417565 ], [ 98.14481542153861, 13.760380862604952 ], [ 98.144816406751616, 13.760109627776041 ], [ 98.145926346712727, 13.760113477322934 ], [ 98.145924378822087, 13.76065594713226 ], [ 98.14536940752059, 13.760654022904841 ], [ 98.145368422904141, 13.760925257761087 ] ] ], [ [ [ 98.145063350104991, 13.768518868134283 ], [ 98.145064335637713, 13.768247633466594 ], [ 98.145341830207784, 13.768248596600372 ], [ 98.145342815399403, 13.767977361906951 ], [ 98.145065321149119, 13.767976398792872 ], [ 98.145066306639222, 13.767705164113115 ], [ 98.144439172465255, 13.767702986375438 ], [ 98.144441098015278, 13.767715674768723 ], [ 98.144496241959928, 13.767930853398642 ], [ 98.144572699455466, 13.768139712371873 ], [ 98.144669734152018, 13.76834024004601 ], [ 98.144778669204044, 13.76851787971407 ], [ 98.145063350104991, 13.768518868134283 ] ] ], [ [ [ 98.162293174861347, 13.761525857798034 ], [ 98.162570662746589, 13.761526801069445 ], [ 98.162571627589642, 13.761255565016651 ], [ 98.162294140024017, 13.76125462176454 ], [ 98.162293174861347, 13.761525857798034 ] ] ], [ [ [ 98.163126602783507, 13.761257450583626 ], [ 98.163125638579672, 13.761528686674996 ], [ 98.163403126527513, 13.761529629009139 ], [ 98.163404090411717, 13.761258392898485 ], [ 98.163126602783507, 13.761257450583626 ] ] ], [ [ [ 98.163395414703118, 13.763699517677408 ], [ 98.163394450631216, 13.763970753733817 ], [ 98.163671941476764, 13.763971695928998 ], [ 98.163672905228978, 13.763700459853315 ], [ 98.163395414703118, 13.763699517677408 ] ] ] ] } },
{ "type": "Feature", "properties": { "zone": "B", "alpha_deg": 15.5, "label": "Within reach only of a channelised flow (alpha 15.5 deg)" }, "geometry": { "type": "MultiPolygon", "coordinates": [ [ [ [ 98.158651894925242, 13.771006815412422 ], [ 98.158652864976929, 13.770735579841416 ], [ 98.159207861966451, 13.770737475512576 ], [ 98.159209800727524, 13.770195004274942 ], [ 98.159487298614025, 13.770195951602826 ], [ 98.159488267643297, 13.769924715955591 ], [ 98.159210770076612, 13.769923768647081 ], [ 98.159212708711948, 13.769381297373268 ], [ 98.15949020563896, 13.769382244643037 ], [ 98.159494081378881, 13.768297301945561 ], [ 98.158384098913459, 13.768293511300918 ], [ 98.158385069075209, 13.768022275688995 ], [ 98.158107573831074, 13.768021327265778 ], [ 98.158108544291622, 13.767750091667219 ], [ 98.15783104938825, 13.76774914295083 ], [ 98.157832020147595, 13.76747790736564 ], [ 98.156722042023205, 13.767474109452081 ], [ 98.156718153743384, 13.768559051445964 ], [ 98.156995649522088, 13.768560001470906 ], [ 98.156994677719382, 13.76883123697373 ], [ 98.157272173838905, 13.768832186705506 ], [ 98.157270230810056, 13.769374657731902 ], [ 98.157547727590227, 13.769375607189916 ], [ 98.157546756364113, 13.769646842713481 ], [ 98.157269259264126, 13.769645893236053 ], [ 98.157267316109227, 13.770188364226263 ], [ 98.156989818390599, 13.77018741439738 ], [ 98.1569888464618, 13.77045864986402 ], [ 98.156711348444347, 13.770457699703083 ], [ 98.156710376174686, 13.770728935144259 ], [ 98.156432877858393, 13.770727984651259 ], [ 98.156429959963674, 13.7715416908803 ], [ 98.156348724169447, 13.771541412554487 ], [ 98.156231576518948, 13.771512730626444 ], [ 98.156363545576809, 13.771545041359849 ], [ 98.156588028044865, 13.771577588993377 ], [ 98.156814693513027, 13.771588473234544 ], [ 98.156829489511196, 13.7715884732427 ], [ 98.157009122675902, 13.771579847659462 ], [ 98.157044154551144, 13.771588424706787 ], [ 98.157080728070241, 13.771593727505874 ], [ 98.157118133795336, 13.771602885755575 ], [ 98.157154707305395, 13.771608188553023 ], [ 98.157192113039443, 13.771617346804343 ], [ 98.157416595600594, 13.771649894466059 ], [ 98.157643261165148, 13.771660778734793 ], [ 98.157717241156035, 13.771660778775527 ], [ 98.157943906747633, 13.771649894755216 ], [ 98.158066859680403, 13.771632068008596 ], [ 98.158289551242234, 13.77166435597224 ], [ 98.15837202607716, 13.771668316353475 ], [ 98.158374396142079, 13.771005867088496 ], [ 98.158651894925242, 13.771006815412422 ] ], [ [ 98.158375366513638, 13.770734631536877 ], [ 98.158376336864208, 13.770463395979229 ], [ 98.158653835007655, 13.770464344264377 ], [ 98.158652864976929, 13.770735579841416 ], [ 98.158375366513638, 13.770734631536877 ] ] ], [ [ [ 98.156723986037008, 13.76693163841896 ], [ 98.157278973778133, 13.766933537923164 ], [ 98.157279945113984, 13.766662302358711 ], [ 98.157557438696315, 13.766663251622575 ], [ 98.157558409691418, 13.766392016032675 ], [ 98.157835902974995, 13.766392964964592 ], [ 98.157836873629378, 13.766121729349255 ], [ 98.158391859620011, 13.766123626236679 ], [ 98.158393799586875, 13.765581154910322 ], [ 98.15811630722051, 13.765580206661662 ], [ 98.158118247742877, 13.765037735349985 ], [ 98.157840756036933, 13.765036786827611 ], [ 98.157842697114759, 13.764494315530618 ], [ 98.157565206069208, 13.764493366734559 ], [ 98.157566176896324, 13.764222131096426 ], [ 98.157843667622188, 13.764223079873078 ], [ 98.157844638108614, 13.76395184420951 ], [ 98.157012166953081, 13.763948997000345 ], [ 98.157011195507607, 13.76422023260567 ], [ 98.156733704844754, 13.764219282891569 ], [ 98.156734676609929, 13.763948047305668 ], [ 98.156457186287781, 13.763947097298514 ], [ 98.156458158351597, 13.76367586172602 ], [ 98.157568118487561, 13.763679659802076 ], [ 98.157571030716923, 13.762865952815336 ], [ 98.1572935416104, 13.762865003823274 ], [ 98.157295483630946, 13.762322532507465 ], [ 98.157017995184731, 13.762321583241789 ], [ 98.157019937760509, 13.761779111940712 ], [ 98.156742449974573, 13.761778162401448 ], [ 98.156745364639505, 13.760964455462904 ], [ 98.156467877833421, 13.760963505669514 ], [ 98.15646884966597, 13.760692270030709 ], [ 98.155913876756074, 13.760690369545593 ], [ 98.155917766432651, 13.759605427085644 ], [ 98.156195251598746, 13.759606377406621 ], [ 98.156196223645736, 13.75933514175712 ], [ 98.155918738799201, 13.759334191455588 ], [ 98.155921655772616, 13.758520484529262 ], [ 98.155366688059971, 13.75851858310582 ], [ 98.155367660981454, 13.758247347490567 ], [ 98.155090177476254, 13.758246396329788 ], [ 98.155088230973178, 13.758788867515337 ], [ 98.154810746849932, 13.758787916003271 ], [ 98.15480879962351, 13.759330387125773 ], [ 98.154531314882234, 13.759329435262398 ], [ 98.154530340917873, 13.759600670795132 ], [ 98.154252855878099, 13.759599718599906 ], [ 98.154251881573089, 13.759870954107127 ], [ 98.153696910917645, 13.759869048740565 ], [ 98.153695935952399, 13.760140284202773 ], [ 98.153418450336744, 13.760139331031416 ], [ 98.153417475030807, 13.760410566468094 ], [ 98.15369496096605, 13.760411519658952 ], [ 98.153692035880439, 13.761225225991325 ], [ 98.153969522795578, 13.761226178928281 ], [ 98.153965623664604, 13.762311120698369 ], [ 98.15424311187931, 13.762312073400871 ], [ 98.154241162826594, 13.762854544288725 ], [ 98.154518651701679, 13.76285549671776 ], [ 98.154516703203939, 13.76339796762047 ], [ 98.154794192739416, 13.763398919776007 ], [ 98.154793218778593, 13.763670155237802 ], [ 98.155070708654804, 13.763671107100349 ], [ 98.15506778760502, 13.764484813507956 ], [ 98.155345278461326, 13.764485765116429 ], [ 98.155342358181116, 13.765299471528174 ], [ 98.155619850017587, 13.765300422882532 ], [ 98.155617903698271, 13.765842893832463 ], [ 98.155895396195234, 13.765843844913221 ], [ 98.15589442332373, 13.766115080398599 ], [ 98.156171916161469, 13.766116031186277 ], [ 98.156169970994839, 13.766658502177831 ], [ 98.156447464493084, 13.766659452691863 ], [ 98.156444547544666, 13.76747315919229 ], [ 98.156722042023205, 13.767474109452081 ], [ 98.156723986037008, 13.76693163841896 ] ], [ [ 98.155620823145682, 13.765029187398522 ], [ 98.155898314683483, 13.765030138420919 ], [ 98.155897341875118, 13.765301373924386 ], [ 98.155619850017587, 13.765300422882532 ], [ 98.155620823145682, 13.765029187398522 ] ], [ [ 98.157002451552671, 13.766661352782302 ], [ 98.156724958012376, 13.766660402893354 ], [ 98.156725929966726, 13.766389167361718 ], [ 98.157003423187277, 13.766390117231241 ], [ 98.157002451552671, 13.766661352782302 ] ], [ [ 98.154801983667468, 13.761229035864668 ], [ 98.154524496689092, 13.761228083864951 ], [ 98.154525470779902, 13.760956848368382 ], [ 98.154802957438662, 13.760957800348621 ], [ 98.154801983667468, 13.761229035864668 ] ] ], [ [ [ 98.153141940346586, 13.759867142124479 ], [ 98.152864455092725, 13.759866188347868 ], [ 98.152863479168744, 13.760137423751546 ], [ 98.153140964742178, 13.760138377547674 ], [ 98.153141940346586, 13.759867142124479 ] ] ], [ [ [ 98.153142915929905, 13.75959590669526 ], [ 98.153144867033177, 13.75905343581873 ], [ 98.153977320045328, 13.759056295098761 ], [ 98.153978294606659, 13.758785059592947 ], [ 98.15425577866668, 13.758786012042078 ], [ 98.154257727086986, 13.758243540973391 ], [ 98.153702760266214, 13.758241635840751 ], [ 98.153703735083809, 13.757970400336351 ], [ 98.153148768986455, 13.757968493993353 ], [ 98.153146818052036, 13.758510964918097 ], [ 98.152869334395945, 13.758510011239062 ], [ 98.152868358577535, 13.758781246672877 ], [ 98.152590874623016, 13.758780292661973 ], [ 98.152591850760984, 13.758509057247677 ], [ 98.152314367147113, 13.758508102943946 ], [ 98.152315343583496, 13.758236867543154 ], [ 98.151760377058253, 13.758234958037724 ], [ 98.151762331145719, 13.757692487296209 ], [ 98.151484848553864, 13.757691532114075 ], [ 98.151485825885402, 13.757420296753825 ], [ 98.151763308157754, 13.75742125191641 ], [ 98.15176428514863, 13.757150016530588 ], [ 98.152041767122611, 13.757150971361309 ], [ 98.152042743772853, 13.756879735949916 ], [ 98.152320225448449, 13.756880690448789 ], [ 98.15232120175807, 13.756609455011834 ], [ 98.152043720401963, 13.756608500532495 ], [ 98.15204567359676, 13.756066029679577 ], [ 98.151490712225879, 13.75606411986217 ], [ 98.151491689430529, 13.755792884465761 ], [ 98.151769169785922, 13.755793839511062 ], [ 98.151770146649966, 13.75552260408908 ], [ 98.150660226633136, 13.755518782112393 ], [ 98.150659248491223, 13.755790017456151 ], [ 98.149826807742443, 13.755787147635989 ], [ 98.149824849478279, 13.75632961818795 ], [ 98.150102330345632, 13.756330575146125 ], [ 98.150100372635691, 13.756873045713151 ], [ 98.150377854163224, 13.756874002398188 ], [ 98.150374918397972, 13.757687708262257 ], [ 98.150652400905201, 13.757688664693706 ], [ 98.150651422593938, 13.757959899989249 ], [ 98.151206388310939, 13.757961811954285 ], [ 98.151205410617578, 13.758233047282928 ], [ 98.15148289382735, 13.758234002816495 ], [ 98.15148191643236, 13.758505238158667 ], [ 98.151759399982808, 13.758506193399441 ], [ 98.151758422886232, 13.758777428755129 ], [ 98.152035906777357, 13.758778383703099 ], [ 98.15203492997918, 13.7590496190723 ], [ 98.15258989846393, 13.759051528070239 ], [ 98.152588922283726, 13.759322763472477 ], [ 98.152866406877351, 13.759323717522426 ], [ 98.152865430995604, 13.759594952938162 ], [ 98.153142915929905, 13.75959590669526 ] ], [ [ 98.151765262118374, 13.756878781138735 ], [ 98.151487780485027, 13.756877826015243 ], [ 98.151488757753128, 13.756606590636911 ], [ 98.151766239066959, 13.756607545740854 ], [ 98.151765262118374, 13.756878781138735 ] ] ], [ [ [ 98.149550306954978, 13.755514955139276 ], [ 98.149272827088424, 13.755513997615305 ], [ 98.149271847349183, 13.755785232861134 ], [ 98.149549327535212, 13.755786190404702 ], [ 98.149550306954978, 13.755514955139276 ] ] ], [ [ [ 98.144789798518559, 13.767432966040081 ], [ 98.144404551278669, 13.767431628041235 ], [ 98.144407798683574, 13.767496248987005 ], [ 98.144441098015278, 13.767715674768723 ], [ 98.144439172465255, 13.767702986375438 ], [ 98.144788812729999, 13.767704200706167 ], [ 98.144789798518559, 13.767432966040081 ] ] ], [ [ [ 98.162572592411834, 13.760984328957827 ], [ 98.162017617940691, 13.760982442179792 ], [ 98.162016652479281, 13.761253678200012 ], [ 98.162294140024017, 13.76125462176454 ], [ 98.162571627589642, 13.761255565016651 ], [ 98.162572592411834, 13.760984328957827 ] ] ], [ [ [ 98.163682541604544, 13.760988098764976 ], [ 98.16312756696648, 13.76098621448622 ], [ 98.163126602783507, 13.761257450583626 ], [ 98.163404090411717, 13.761258392898485 ], [ 98.163403126527513, 13.761529629009139 ], [ 98.163680614496201, 13.761530571030859 ], [ 98.163682541604544, 13.760988098764976 ] ] ], [ [ [ 98.163948468889799, 13.764243873900618 ], [ 98.163949432343173, 13.763972637811694 ], [ 98.163671941476764, 13.763971695928998 ], [ 98.163394450631216, 13.763970753733817 ], [ 98.163393486538482, 13.764241989784198 ], [ 98.163948468889799, 13.764243873900618 ] ] ], [ [ [ 98.151997795986432, 13.76935655863468 ], [ 98.15172029962774, 13.769355602924572 ], [ 98.15172127754893, 13.769084367804034 ], [ 98.151166285534629, 13.769082455485112 ], [ 98.151165306973809, 13.769353690566547 ], [ 98.151442803290195, 13.769354646901858 ], [ 98.15144182502803, 13.76962588199682 ], [ 98.151996818363898, 13.769627793768731 ], [ 98.151997795986432, 13.76935655863468 ] ] ], [ [ [ 98.14536940752059, 13.760654022904841 ], [ 98.145924378822087, 13.76065594713226 ], [ 98.145926346712727, 13.760113477322934 ], [ 98.144816406751616, 13.760109627776041 ], [ 98.14481542153861, 13.760380862604952 ], [ 98.144537936282035, 13.760379899417565 ], [ 98.144535965152897, 13.76092236901788 ], [ 98.145368422904141, 13.760925257761087 ], [ 98.14536940752059, 13.760654022904841 ] ] ] ] } }
]
}
