{
"type": "FeatureCollection",
"name": "envelopes",
"crs": { "type": "name", "properties": { "name": "urn:ogc:def:crs:OGC:1.3:CRS84" } },
"features": [
{ "type": "Feature", "properties": { "id": "TW-01", "name": "Northern valley debris flow", "kind": "landslide", "priority": 2, "split": 0, "description": "The largest flow: a debris flow from a wide scar at the head of the valley north-west of Taw Kye, which ran 700 m south-east down the valley, scouring it to grey sand, and spread over the valley floor where the western channel joins it. Its sediment continues east to the road (TW-OW1) and south into the 2 Oct Taw Kye survey (LS-01)." }, "geometry": { "type": "Polygon", "coordinates": [ [ [ 98.14918, 13.80918 ], [ 98.15014, 13.80926 ], [ 98.1505, 13.80844 ], [ 98.1513, 13.80765 ], [ 98.15234, 13.80687 ], [ 98.15314, 13.80624 ], [ 98.15378, 13.80562 ], [ 98.15458, 13.80515 ], [ 98.1555, 13.80499 ], [ 98.1555, 13.80245 ], [ 98.1545, 13.80249 ], [ 98.1533, 13.80261 ], [ 98.1529, 13.80296 ], [ 98.15322, 13.80358 ], [ 98.153, 13.8045 ], [ 98.1524, 13.8052 ], [ 98.1515, 13.806 ], [ 98.151, 13.8067 ], [ 98.1503, 13.8074 ], [ 98.14962, 13.80804 ], [ 98.14922, 13.80859 ], [ 98.14918, 13.80918 ] ] ] } },
{ "type": "Feature", "properties": { "id": "TW-OW1", "name": "Valley mouth under sediment", "kind": "outwash", "priority": 3, "split": 0, "description": "Fields and scrub at the mouth of the northern valley under grey sand and orange mud from TW-01, up to the road." }, "geometry": { "type": "Polygon", "coordinates": [ [ [ 98.1555, 13.8018 ], [ 98.1555, 13.8052 ], [ 98.157, 13.8057 ], [ 98.159, 13.8057 ], [ 98.15977, 13.80554 ], [ 98.16005, 13.80524 ], [ 98.16024, 13.80498 ], [ 98.16041, 13.80454 ], [ 98.16041, 13.80422 ], [ 98.16027, 13.80254 ], [ 98.16009, 13.80211 ], [ 98.1598, 13.8018 ], [ 98.1555, 13.8018 ] ] ] } },
{ "type": "Feature", "properties": { "id": "TW-OW4", "name": "Paddies east of the road under sediment", "kind": "outwash", "priority": 3, "split": 0, "description": "Paddies east of the road, green on 10 Jan 2026, now under orange mud where the valley flow's sediment crossed the road." }, "geometry": { "type": "Polygon", "coordinates": [ [ [ 98.1604, 13.802 ], [ 98.162, 13.802 ], [ 98.1625, 13.804 ], [ 98.1628, 13.8055 ], [ 98.1606, 13.8057 ], [ 98.1604, 13.8045 ], [ 98.1604, 13.802 ] ] ] } },
{ "type": "Feature", "properties": { "id": "TW-OW2", "name": "West Tha Win under sediment", "kind": "outwash", "priority": 3, "split": 0, "description": "The western part of Tha Win, between the foot of the hill and the road, under the sand and debris of the two channels that meet behind the village." }, "geometry": { "type": "Polygon", "coordinates": [ [ [ 98.153, 13.7789 ], [ 98.1533, 13.7777 ], [ 98.154, 13.7767 ], [ 98.1548, 13.7762 ], [ 98.15605, 13.7764 ], [ 98.15607, 13.77725 ], [ 98.15609, 13.77781 ], [ 98.1562, 13.7784 ], [ 98.1555, 13.7792 ], [ 98.1544, 13.7796 ], [ 98.154, 13.7796 ], [ 98.153, 13.7789 ] ] ] } },
{ "type": "Feature", "properties": { "id": "TW-OW3", "name": "North Tha Win under sediment", "kind": "outwash", "priority": 3, "split": 0, "description": "Gardens at the north end of Tha Win under sand from the channel behind them." }, "geometry": { "type": "Polygon", "coordinates": [ [ [ 98.1552, 13.781 ], [ 98.1566, 13.781 ], [ 98.1566, 13.7826 ], [ 98.1552, 13.7826 ], [ 98.1552, 13.781 ] ] ] } },
{ "type": "Feature", "properties": { "id": "TW-OW5", "name": "Field beside the road under sediment", "kind": "outwash", "priority": 3, "split": 0, "description": "A grass field beside the road at the north edge of the survey under mud washed down from the slides above it (TZ-08); flat ground, so not a slide of its own." }, "geometry": { "type": "Polygon", "coordinates": [ [ [ 98.15822, 13.80843 ], [ 98.1592, 13.80843 ], [ 98.1592, 13.80957 ], [ 98.15822, 13.80957 ], [ 98.15822, 13.80843 ] ] ] } },
{ "type": "Feature", "properties": { "id": "TZ", "name": "Hills west of the road", "kind": "landslide", "priority": 5, "split": 1, "description": "Zone split into connected scars and scoured channels." }, "geometry": { "type": "Polygon", "coordinates": [ [ [ 98.14, 13.7707 ], [ 98.1555, 13.7707 ], [ 98.1555, 13.7732 ], [ 98.155, 13.7752 ], [ 98.154, 13.7767 ], [ 98.1533, 13.7777 ], [ 98.153, 13.7789 ], [ 98.154, 13.7796 ], [ 98.1544, 13.7804 ], [ 98.156, 13.7811 ], [ 98.1564, 13.7825 ], [ 98.157, 13.784 ], [ 98.15844, 13.78644 ], [ 98.15859, 13.78742 ], [ 98.15876, 13.78821 ], [ 98.15924, 13.78912 ], [ 98.15933, 13.78966 ], [ 98.15945, 13.79161 ], [ 98.15932, 13.79436 ], [ 98.15934, 13.7947 ], [ 98.1596, 13.79616 ], [ 98.15967, 13.79636 ], [ 98.15983, 13.7971 ], [ 98.15984, 13.79734 ], [ 98.15983, 13.79757 ], [ 98.15948, 13.79919 ], [ 98.15944, 13.7995 ], [ 98.15966, 13.80125 ], [ 98.15978, 13.80157 ], [ 98.16009, 13.80211 ], [ 98.16027, 13.80254 ], [ 98.16041, 13.80422 ], [ 98.16041, 13.80454 ], [ 98.16038, 13.80468 ], [ 98.16024, 13.80498 ], [ 98.16005, 13.80524 ], [ 98.15977, 13.80554 ], [ 98.15956, 13.80586 ], [ 98.15932, 13.80706 ], [ 98.15923, 13.8085 ], [ 98.15926, 13.80886 ], [ 98.15956, 13.80978 ], [ 98.15959, 13.80996 ], [ 98.15955, 13.81156 ], [ 98.1596, 13.812 ], [ 98.14, 13.812 ], [ 98.14, 13.7707 ] ] ] } },
{ "type": "Feature", "properties": { "id": "TX-1", "name": "Main road", "kind": "exclude", "priority": 0, "split": 0, "description": "The road through Tha Win and Taw Kye and its cut banks." }, "geometry": { "type": "Polygon", "coordinates": [ [ [ 98.156649355484234, 13.772248427596688 ], [ 98.156647458548591, 13.772252262622896 ], [ 98.156645939339327, 13.772256255139666 ], [ 98.156485939260321, 13.772746255106842 ], [ 98.156484712122364, 13.772750825354123 ], [ 98.156483979743058, 13.772755495832145 ], [ 98.156023978883439, 13.777245495697848 ], [ 98.156023776872843, 13.77725157705741 ], [ 98.156043776762445, 13.777811577054782 ], [ 98.156044222832236, 13.777816456921364 ], [ 98.156045206580615, 13.777821260947825 ], [ 98.156195206475886, 13.778391260968796 ], [ 98.156196486537482, 13.778395323051095 ], [ 98.158075408980537, 13.783492402568195 ], [ 98.15820412633137, 13.784086483182969 ], [ 98.158393889412437, 13.786443546153098 ], [ 98.158394255904426, 13.786446688233562 ], [ 98.158544255714546, 13.787426688250271 ], [ 98.158544736926174, 13.787429304084663 ], [ 98.158714736776929, 13.788219304107049 ], [ 98.15871576969279, 13.788223223724215 ], [ 98.158717157182309, 13.788227037333018 ], [ 98.15871888812265, 13.788230714361546 ], [ 98.159195527212546, 13.789134342972162 ], [ 98.15928397058282, 13.789665003809201 ], [ 98.15940368163929, 13.791610314712894 ], [ 98.159273794604687, 13.794357913608748 ], [ 98.159273821563744, 13.79436259461181 ], [ 98.159293821496647, 13.794702594611694 ], [ 98.159294430280866, 13.794707751328579 ], [ 98.159554430000313, 13.796167751360194 ], [ 98.159555193833185, 13.796171225886416 ], [ 98.15955623457269, 13.796174631035559 ], [ 98.159625325175512, 13.796372032867259 ], [ 98.159783941108984, 13.797105632224431 ], [ 98.159793704720656, 13.797339960013316 ], [ 98.159783949372226, 13.797564332016675 ], [ 98.15943474224585, 13.799180660692102 ], [ 98.159434107819152, 13.799184344102327 ], [ 98.159394107760377, 13.799494344091597 ], [ 98.159393786817532, 13.799498062203641 ], [ 98.159393780719341, 13.799501793517681 ], [ 98.159394089507344, 13.799505512612738 ], [ 98.159614089165274, 13.801255512633833 ], [ 98.15961503444035, 13.801260603625844 ], [ 98.159616568777224, 13.801265555707364 ], [ 98.159736568723417, 13.801585555725257 ], [ 98.159737979569869, 13.801588897846894 ], [ 98.159739659181284, 13.801592119096915 ], [ 98.160048265941469, 13.802129692336113 ], [ 98.16022447737933, 13.80255064207717 ], [ 98.160363743359355, 13.804221837772168 ], [ 98.160363743297665, 13.804535317285609 ], [ 98.1603357795492, 13.804665814662695 ], [ 98.160199764621609, 13.804957275112928 ], [ 98.160013962763031, 13.8052115302341 ], [ 98.159735824467077, 13.805509535506172 ], [ 98.159733312436401, 13.805512466913681 ], [ 98.15973106287133, 13.805515595295045 ], [ 98.159521062844036, 13.805835595260605 ], [ 98.159518884234828, 13.805839287165815 ], [ 98.159517071059767, 13.805843163165358 ], [ 98.159515639434233, 13.805847188809608 ], [ 98.159514602082481, 13.805851328318909 ], [ 98.159274601864396, 13.807051328262652 ], [ 98.15927382885701, 13.807057243978482 ], [ 98.159183828576644, 13.808497243945778 ], [ 98.15918389516689, 13.808503669391648 ], [ 98.159213895095931, 13.808863669393165 ], [ 98.159214618064851, 13.808868754077972 ], [ 98.15921592625898, 13.808873725874152 ], [ 98.15951489162299, 13.809790553540502 ], [ 98.159543650725197, 13.80996310835773 ], [ 98.159503755721857, 13.811558895859029 ], [ 98.15950386164053, 13.811563250262235 ], [ 98.159504395882152, 13.811567574491848 ], [ 98.159584395793516, 13.812027574501478 ], [ 98.159585375099795, 13.812031906355747 ], [ 98.159586784168326, 13.812036123545338 ], [ 98.159588609429008, 13.812040185456405 ], [ 98.159590833303625, 13.812044052970515 ], [ 98.159593434375054, 13.812047688841373 ], [ 98.159596387593552, 13.812051058053564 ], [ 98.159599664518026, 13.812054128159707 ], [ 98.15960323358992, 13.81205686959299 ], [ 98.159607060437082, 13.812059255951905 ], [ 98.159611108204885, 13.812061264254501 ], [ 98.15961533791112, 13.812062875159707 ], [ 98.159619708821367, 13.812064073153623 ], [ 98.159624178841341, 13.812064846698899 ], [ 98.159628704922312, 13.812065188345874 ], [ 98.159633243475582, 13.812065094804295 ], [ 98.159637750792413, 13.81206456697501 ], [ 98.15964218346484, 13.812063609941315 ], [ 98.159646498803767, 13.812062232919967 ], [ 98.159650655250132, 13.812060449172442 ], [ 98.159654612775043, 13.812058275877208 ], [ 98.159658333265355, 13.812055733964298 ], [ 98.15966178089073, 13.812052847913733 ], [ 98.159664922448627, 13.812049645519771 ], [ 98.159667727684095, 13.812046157623232 ], [ 98.159670169581247, 13.812042417814469 ], [ 98.159672224623236, 13.812038462109903 ], [ 98.159673873018946, 13.812034328605142 ], [ 98.159675098893402, 13.812030057108101 ], [ 98.159675890440795, 13.812025688755645 ], [ 98.159676240038124, 13.812021265617398 ], [ 98.159676144318595, 13.812016830290597 ], [ 98.159675604204054, 13.812012425489877 ], [ 98.159596353518893, 13.811556734571786 ], [ 98.159636243964655, 13.809961104106929 ], [ 98.159636149226159, 13.80995690504948 ], [ 98.159635656118624, 13.809952732708279 ], [ 98.159605656083841, 13.809772732711805 ], [ 98.159604073898052, 13.809766274073652 ], [ 98.159305676443751, 13.808851189102713 ], [ 98.15927637236625, 13.808499541004089 ], [ 98.159365984720125, 13.807065738840523 ], [ 98.159603704098998, 13.805877140843785 ], [ 98.159806819276355, 13.805567631921727 ], [ 98.16008417553914, 13.805270464450864 ], [ 98.160087642791353, 13.805266272701555 ], [ 98.160277642774389, 13.805006272671829 ], [ 98.160280049575491, 13.805002619935175 ], [ 98.160282086470744, 13.804998758276364 ], [ 98.16042208643097, 13.804698758250403 ], [ 98.160423949656646, 13.804694098460679 ], [ 98.16042527459912, 13.804689265996979 ], [ 98.160455274573948, 13.804549265990078 ], [ 98.160456010516711, 13.804544657783449 ], [ 98.160456256703981, 13.804539999997436 ], [ 98.160456256640884, 13.804219999993848 ], [ 98.160456103996864, 13.804216330508858 ], [ 98.160316103665821, 13.802536330515958 ], [ 98.160315478724584, 13.802531745950583 ], [ 98.160314377735816, 13.80252724778434 ], [ 98.160312812224092, 13.80252288310168 ], [ 98.160132812155027, 13.802092883128735 ], [ 98.160130340881068, 13.802087880849676 ], [ 98.159822155237251, 13.80155104151576 ], [ 98.159705262028837, 13.801239326452388 ], [ 98.159486612648962, 13.799500072749305 ], [ 98.159525652890906, 13.799197510413197 ], [ 98.159875257467519, 13.797579339219499 ], [ 98.159875892817141, 13.797575648550952 ], [ 98.159876213621672, 13.797571919167787 ], [ 98.159886213576698, 13.797341919163367 ], [ 98.159886216974357, 13.797338160654405 ], [ 98.159876216926946, 13.797098160653562 ], [ 98.159875897357182, 13.797094387519506 ], [ 98.159875255856164, 13.797090653752294 ], [ 98.159715255716364, 13.796350653773423 ], [ 98.159713765456672, 13.796345368945966 ], [ 98.1596449450454, 13.796148739309057 ], [ 98.159386025827715, 13.794694809912745 ], [ 98.159366316072493, 13.79435974519799 ], [ 98.159496204859636, 13.791612086327824 ], [ 98.15949617071233, 13.791607286003382 ], [ 98.159376170327675, 13.789657286003687 ], [ 98.159375652061527, 13.789652732063908 ], [ 98.159285651957362, 13.789112732074468 ], [ 98.159284623099225, 13.789108102788147 ], [ 98.159283104219298, 13.789103604149311 ], [ 98.159281111996947, 13.789099285559077 ], [ 98.158803976524652, 13.788194716558623 ], [ 98.158635543032489, 13.787411996908148 ], [ 98.158485983598865, 13.786434876529654 ], [ 98.158296110122151, 13.784076453846804 ], [ 98.158295249187901, 13.78407063460806 ], [ 98.158165249074685, 13.783470634625212 ], [ 98.158163514318716, 13.78346467666171 ], [ 98.156284251286507, 13.778366678540667 ], [ 98.156136047593193, 13.777803504925798 ], [ 98.15611633196113, 13.777251470272631 ], [ 98.156575536619741, 13.772769225028281 ], [ 98.156732731163657, 13.772287816466466 ], [ 98.157380644393839, 13.771121572283532 ], [ 98.157382611960031, 13.771117574477957 ], [ 98.157384169149665, 13.771113407420568 ], [ 98.157385300966169, 13.771109111242415 ], [ 98.157385996509547, 13.771104727318049 ], [ 98.15738624908137, 13.771100297867058 ], [ 98.157386056249237, 13.771095865547494 ], [ 98.157385419870252, 13.771091473045006 ], [ 98.157384346073144, 13.771087162661793 ], [ 98.157382845199166, 13.771082975909195 ], [ 98.15738093170259, 13.771078953107926 ], [ 98.157378624011429, 13.771075132999757 ], [ 98.157375944350051, 13.771071552374401 ], [ 98.157372918525056, 13.771068245715231 ], [ 98.157369575676782, 13.771065244867172 ], [ 98.157365947998713, 13.771062578730007 ], [ 98.157362070427354, 13.771060272980099 ], [ 98.157357980305832, 13.771058349823056 ], [ 98.157353717024222, 13.771056827779926 ], [ 98.157349321640254, 13.771055721508814 ], [ 98.157344836483858, 13.771055041663697 ], [ 98.157340304749496, 13.77105479479186 ], [ 98.157335770080252, 13.771054983270801 ], [ 98.157331276147417, 13.771055605285373 ], [ 98.157326866230036, 13.771056654845239 ], [ 98.15732258279796, 13.771058121842557 ], [ 98.157318467102968, 13.771059992149354 ], [ 98.157314558781465, 13.77106224775356 ], [ 98.157310895472676, 13.771064866932489 ], [ 98.157307512456271, 13.771067824462017 ], [ 98.157304442312551, 13.771071091859541 ], [ 98.157301714608664, 13.771074637658243 ], [ 98.157299355613915, 13.771078427710153 ], [ 98.156649355484234, 13.772248427596688 ] ] ] } },
{ "type": "Feature", "properties": { "id": "TX-2", "name": "Compound bare in Jan 2026", "kind": "exclude", "priority": 0, "split": 0, "description": "A compound beside the road, already bare on the Esri Vivid image of 10 Jan 2026 (debris has since run into it)." }, "geometry": { "type": "Polygon", "coordinates": [ [ [ 98.157, 13.7862 ], [ 98.1586, 13.7862 ], [ 98.1586, 13.788 ], [ 98.157, 13.788 ], [ 98.157, 13.7862 ] ] ] } },
{ "type": "Feature", "properties": { "id": "TX-3", "name": "Roadside yards", "kind": "exclude", "priority": 0, "split": 0, "description": "Houses and yards beside the road, bare on 10 Jan 2026." }, "geometry": { "type": "Polygon", "coordinates": [ [ [ 98.1555, 13.7838 ], [ 98.1595, 13.7838 ], [ 98.1595, 13.7856 ], [ 98.1555, 13.7856 ], [ 98.1555, 13.7838 ] ] ] } },
{ "type": "Feature", "properties": { "id": "TX-4", "name": "Terraced clearing", "kind": "exclude", "priority": 0, "split": 0, "description": "A terraced clearing above the western channel, already cleared on 10 Jan 2026." }, "geometry": { "type": "Polygon", "coordinates": [ [ [ 98.1487, 13.8043 ], [ 98.151, 13.8043 ], [ 98.151, 13.8062 ], [ 98.1487, 13.8062 ], [ 98.1487, 13.8043 ] ] ] } },
{ "type": "Feature", "properties": { "id": "TX-5", "name": "Smeared flight edge", "kind": "exclude", "priority": 0, "split": 0, "description": "Rejected on chip review: smeared ground at the west edge of the flights." }, "geometry": { "type": "Polygon", "coordinates": [ [ [ 98.147, 13.787 ], [ 98.149, 13.787 ], [ 98.149, 13.7912 ], [ 98.147, 13.7912 ], [ 98.147, 13.787 ] ] ] } },
{ "type": "Feature", "properties": { "id": "TX-6", "name": "Track loop", "kind": "exclude", "priority": 0, "split": 0, "description": "Rejected on chip review: a looping track and clearing already bare on 10 Jan 2026." }, "geometry": { "type": "Polygon", "coordinates": [ [ [ 98.15814, 13.80606 ], [ 98.15932, 13.80606 ], [ 98.15932, 13.80707 ], [ 98.15814, 13.80707 ], [ 98.15814, 13.80606 ] ] ] } },
{ "type": "Feature", "properties": { "id": "TX-7", "name": "Roadside gardens", "kind": "exclude", "priority": 0, "split": 0, "description": "Rejected on chip review: gardens and a field beside the road, partly bare on 10 Jan 2026." }, "geometry": { "type": "Polygon", "coordinates": [ [ [ 98.15829, 13.80701 ], [ 98.1593, 13.80701 ], [ 98.1593, 13.80843 ], [ 98.15829, 13.80843 ], [ 98.15829, 13.80701 ] ] ] } },
{ "type": "Feature", "properties": { "id": "TX-8", "name": "Road edge", "kind": "exclude", "priority": 0, "split": 0, "description": "Rejected on chip review: the edge of the road." }, "geometry": { "type": "Polygon", "coordinates": [ [ [ 98.15918, 13.80555 ], [ 98.15961, 13.80555 ], [ 98.15961, 13.8073 ], [ 98.15918, 13.8073 ], [ 98.15918, 13.80555 ] ] ] } },
{ "type": "Feature", "properties": { "id": "TX-9", "name": "Yard bare in Jan 2026", "kind": "exclude", "priority": 0, "split": 0, "description": "Rejected on chip review: sandy ground beside the compound (TX-2), already bare on 10 Jan 2026." }, "geometry": { "type": "Polygon", "coordinates": [ [ [ 98.15761, 13.78583 ], [ 98.15833, 13.78583 ], [ 98.15833, 13.78623 ], [ 98.15761, 13.78623 ], [ 98.15761, 13.78583 ] ] ] } },
{ "type": "Feature", "properties": { "id": "TX-10", "name": "Road edge", "kind": "exclude", "priority": 0, "split": 0, "description": "Rejected on chip review: the road edge and a yard bare on 10 Jan 2026." }, "geometry": { "type": "Polygon", "coordinates": [ [ [ 98.15851, 13.78835 ], [ 98.15903, 13.78835 ], [ 98.15903, 13.78881 ], [ 98.15851, 13.78881 ], [ 98.15851, 13.78835 ] ] ] } },
{ "type": "Feature", "properties": { "id": "TX-11", "name": "Yard and canopy gaps", "kind": "exclude", "priority": 0, "split": 0, "description": "Rejected on chip review: a yard beside a hut and canopy gaps, not a landslide." }, "geometry": { "type": "Polygon", "coordinates": [ [ [ 98.15446, 13.77362 ], [ 98.15515, 13.77362 ], [ 98.15515, 13.77478 ], [ 98.15446, 13.77478 ], [ 98.15446, 13.77362 ] ] ] } }
]
}
