{
"type": "FeatureCollection",
"name": "buildings",
"crs": { "type": "name", "properties": { "name": "urn:ogc:def:crs:OGC:1.3:CRS84" } },
"features": [
{ "type": "Feature", "properties": { "bid": "RBE-B0000", "source": "OSM", "src_id": "505131575", "area_m2": 46.2, "overlap": 0.0, "overlap_outwash": 0.0, "dist_m": 262.3, "landslide": "", "f_veg": 0.997, "f_soil": 0.0, "f_grey": 0.003, "f_dark": 0.0, "status": "not_building", "status_auto": "clear", "note": "Chip review: canopy in both images, no roof.", "reach": "A" }, "geometry": { "type": "Polygon", "coordinates": [ [ [ 98.144107491181089, 13.701743124331356 ], [ 98.144169191180822, 13.701744324341181 ], [ 98.144170491191261, 13.701681824342009 ], [ 98.144108791191513, 13.701680524332186 ], [ 98.144107491181089, 13.701743124331356 ] ] ] } },
{ "type": "Feature", "properties": { "bid": "RBE-B0001", "source": "OSM", "src_id": "1565005895", "area_m2": 47.8, "overlap": 0.036, "overlap_outwash": 0.967, "dist_m": 0.0, "landslide": "RB-01", "f_veg": 0.002, "f_soil": 0.28, "f_grey": 0.714, "f_dark": 0.004, "status": "edge", "status_auto": "edge", "note": "", "reach": "A" }, "geometry": { "type": "Polygon", "coordinates": [ [ [ 98.150517989109275, 13.714131125231679 ], [ 98.150603789113134, 13.714107625245603 ], [ 98.150591289120328, 13.714064525244034 ], [ 98.150505489116497, 13.714087925230112 ], [ 98.150517989109275, 13.714131125231679 ] ] ] } },
{ "type": "Feature", "properties": { "bid": "RBE-B0002", "source": "OSM", "src_id": "1565005920", "area_m2": 110.4, "overlap": 0.0, "overlap_outwash": 0.0, "dist_m": 96.5, "landslide": "", "f_veg": 0.222, "f_soil": 0.344, "f_grey": 0.39, "f_dark": 0.044, "status": "clear", "status_auto": "clear", "note": "", "reach": "" }, "geometry": { "type": "Polygon", "coordinates": [ [ [ 98.149839388826919, 13.715824825106722 ], [ 98.149949288828154, 13.715817025124338 ], [ 98.149943088842093, 13.715733525124168 ], [ 98.149833088840879, 13.71574132510654 ], [ 98.149839388826919, 13.715824825106722 ] ] ] } },
{ "type": "Feature", "properties": { "bid": "RBE-B0003", "source": "OSM", "src_id": "1565005921", "area_m2": 54.0, "overlap": 0.0, "overlap_outwash": 0.0, "dist_m": 29.8, "landslide": "", "f_veg": 0.046, "f_soil": 0.041, "f_grey": 0.908, "f_dark": 0.005, "status": "clear", "status_auto": "clear", "note": "", "reach": "A" }, "geometry": { "type": "Polygon", "coordinates": [ [ [ 98.148466089105, 13.714165024903895 ], [ 98.148530489105383, 13.714162424914198 ], [ 98.148527489117072, 13.714092424914412 ], [ 98.148463089116674, 13.714095024904108 ], [ 98.148466089105, 13.714165024903895 ] ] ] } },
{ "type": "Feature", "properties": { "bid": "RBE-B0004", "source": "OSM", "src_id": "1565005922", "area_m2": 26.3, "overlap": 0.0, "overlap_outwash": 0.0, "dist_m": 168.9, "landslide": "", "f_veg": 0.214, "f_soil": 0.0, "f_grey": 0.786, "f_dark": 0.0, "status": "clear", "status_auto": "clear", "note": "", "reach": "A" }, "geometry": { "type": "Polygon", "coordinates": [ [ [ 98.144828989192405, 13.713656924328493 ], [ 98.144871889192842, 13.713654224335363 ], [ 98.14486858920138, 13.713603124335341 ], [ 98.144825689200957, 13.713605824328473 ], [ 98.144828989192405, 13.713656924328493 ] ] ] } }
]
}
