{
"type": "FeatureCollection",
"name": "envelopes",
"crs": { "type": "name", "properties": { "name": "urn:ogc:def:crs:OGC:1.3:CRS84" } },
"features": [
{ "type": "Feature", "properties": { "id": "RB-OW", "name": "Fields under sediment east of the road", "kind": "outwash", "priority": 3, "split": 0, "description": "Grass fields east of the road under sand spread from the large flow that crossed the road here." }, "geometry": { "type": "Polygon", "coordinates": [ [ [ 98.15, 13.71215 ], [ 98.1515, 13.7122 ], [ 98.153, 13.7125 ], [ 98.1535, 13.714 ], [ 98.152, 13.7142 ], [ 98.1505, 13.7142 ], [ 98.1501, 13.713 ], [ 98.15, 13.71215 ] ] ] } },
{ "type": "Feature", "properties": { "id": "RB-01", "name": "Debris flow across the road", "kind": "landslide", "priority": 2, "split": 0, "description": "The longest open-slope flow: it broke away on the hillside west of the road, ran 400 m east, buried the road and spread debris along it and sand over the fields beyond it (RB-OW)." }, "geometry": { "type": "Polygon", "coordinates": [ [ [ 98.1455, 13.7117 ], [ 98.1456, 13.713 ], [ 98.1475, 13.7133 ], [ 98.149, 13.7136 ], [ 98.1496, 13.7146 ], [ 98.1505, 13.7146 ], [ 98.1506, 13.711 ], [ 98.149, 13.711 ], [ 98.149, 13.712 ], [ 98.148, 13.7121 ], [ 98.147, 13.7119 ], [ 98.1455, 13.7117 ] ] ] } },
{ "type": "Feature", "properties": { "id": "RZ", "name": "Hillside on both sides of the road", "kind": "landslide", "priority": 5, "split": 1, "description": "Zone split into connected scars and scoured channels." }, "geometry": { "type": "Polygon", "coordinates": [ [ [ 98.14, 13.702 ], [ 98.147, 13.7016 ], [ 98.149, 13.7012 ], [ 98.15, 13.7022 ], [ 98.153, 13.703 ], [ 98.156, 13.7035 ], [ 98.16, 13.7035 ], [ 98.16, 13.718 ], [ 98.14, 13.718 ], [ 98.14, 13.702 ] ] ] } },
{ "type": "Feature", "properties": { "id": "RX-1", "name": "Ra Be - Kyauk Twin road", "kind": "exclude", "priority": 0, "split": 0, "description": "Unsealed road and its cut banks, bare on 10 Jan 2026." }, "geometry": { "type": "Polygon", "coordinates": [ [ [ 98.150676211035815, 13.715988422510966 ], [ 98.150675987584052, 13.715985290407085 ], [ 98.150555987365649, 13.714865290416473 ], [ 98.150555487680904, 13.71486188396643 ], [ 98.150415617130946, 13.714112578231726 ], [ 98.150315724369904, 13.713463276107378 ], [ 98.150315525034813, 13.713462088187871 ], [ 98.150195524908952, 13.7128020882024 ], [ 98.150194955061551, 13.712799422669935 ], [ 98.150034954941489, 13.71214942269172 ], [ 98.150033486886727, 13.712144638190674 ], [ 98.14986459009063, 13.711687623568872 ], [ 98.149746096527679, 13.711134654110447 ], [ 98.149726350782998, 13.710483048748792 ], [ 98.149835617801813, 13.709837379258113 ], [ 98.149836107771065, 13.709833390257035 ], [ 98.149886107646097, 13.709183390240559 ], [ 98.149886211633472, 13.709178477762325 ], [ 98.149885769686961, 13.709173583267516 ], [ 98.149775769542217, 13.708423583279224 ], [ 98.149774796382502, 13.708418800832241 ], [ 98.149604796263588, 13.707768800855764 ], [ 98.149604508221358, 13.707767752157199 ], [ 98.149414508102765, 13.7071077521841 ], [ 98.149413057577533, 13.707103525069471 ], [ 98.149411188199565, 13.707099458218673 ], [ 98.149171188135398, 13.706639458254447 ], [ 98.149168845001839, 13.706635480177711 ], [ 98.14916610130787, 13.706631754943624 ], [ 98.149162985345853, 13.706628320965908 ], [ 98.14915952924683, 13.706625213654933 ], [ 98.149155768649308, 13.706622465052529 ], [ 98.148850657425697, 13.70642223584686 ], [ 98.148795404767441, 13.706201225371377 ], [ 98.148705714044695, 13.705623219214228 ], [ 98.148705349201876, 13.705621183088116 ], [ 98.148585349090467, 13.705031183103378 ], [ 98.148465416549925, 13.704441515342312 ], [ 98.148345478905995, 13.703801848570565 ], [ 98.148344276610302, 13.703796976864654 ], [ 98.148144276495202, 13.703146976893331 ], [ 98.148143870427788, 13.703145723535531 ], [ 98.147983870346792, 13.70267572355886 ], [ 98.147982384704321, 13.702671935836898 ], [ 98.147980557748326, 13.70266829358123 ], [ 98.147978404190837, 13.70266482612203 ], [ 98.147738404154978, 13.702314826156766 ], [ 98.147735775886474, 13.702311362673173 ], [ 98.147732822018, 13.70230815982087 ], [ 98.147729569433054, 13.702305246749344 ], [ 98.147726047733727, 13.702302649970745 ], [ 98.147369574717132, 13.702065001319344 ], [ 98.14701260173463, 13.701717944297986 ], [ 98.147008842897066, 13.701714667967861 ], [ 98.147004741934097, 13.701711810735402 ], [ 98.147000347490064, 13.701709406492196 ], [ 98.146520347547849, 13.701479406534595 ], [ 98.146515582998745, 13.701477438514987 ], [ 98.145915583088254, 13.701267438557576 ], [ 98.14591134922803, 13.701266176712803 ], [ 98.145907011360976, 13.701265316474386 ], [ 98.145307011469626, 13.701175316497544 ], [ 98.145302944652087, 13.701174885464017 ], [ 98.145298854785551, 13.701174807560417 ], [ 98.145294773883109, 13.701175083396516 ], [ 98.145290733887592, 13.701175710813237 ], [ 98.144702288147016, 13.701293399982642 ], [ 98.144113562845789, 13.701116782385904 ], [ 98.144109661619765, 13.701115791691144 ], [ 98.144105686969596, 13.701115136960606 ], [ 98.14410166910092, 13.701114823169954 ], [ 98.144097638547805, 13.701114852703869 ], [ 98.143497638662765, 13.701144852704946 ], [ 98.143493057932844, 13.701145306160299 ], [ 98.143488546040047, 13.701146202797311 ], [ 98.142889633906648, 13.701295930837812 ], [ 98.142290733994244, 13.701415710825174 ], [ 98.142284252810413, 13.701417496374946 ], [ 98.141804252889116, 13.701587496349367 ], [ 98.141800625537755, 13.701588953989754 ], [ 98.14098062565769, 13.701958953933323 ], [ 98.140976604057968, 13.701961008291075 ], [ 98.140972807773863, 13.701963438160247 ], [ 98.140969273365627, 13.701966220139871 ], [ 98.140966034871553, 13.701969327437981 ], [ 98.140963123480105, 13.70197273012961 ], [ 98.140960567229584, 13.701976395444982 ], [ 98.140958390738078, 13.701980288085124 ], [ 98.140956614966413, 13.701984370561792 ], [ 98.14095525701623, 13.701988603558513 ], [ 98.140954329965396, 13.701992946309224 ], [ 98.140953842741894, 13.701997356990871 ], [ 98.140953800038019, 13.702001793126175 ], [ 98.140954202265021, 13.702006211992739 ], [ 98.140955045549276, 13.702010571034455 ], [ 98.140956321769508, 13.702014828271363 ], [ 98.140958018635061, 13.702018942703948 ], [ 98.140960119804205, 13.702022874707959 ], [ 98.140962605041537, 13.702026586416048 ], [ 98.140965450412878, 13.702030042082418 ], [ 98.140968628515751, 13.702033208427103 ], [ 98.140972108743298, 13.702036054956467 ], [ 98.140975857579022, 13.702038554256857 ], [ 98.140979838919577, 13.702040682258636 ], [ 98.140984014422457, 13.702042418467975 ], [ 98.140988343875279, 13.702043746164215 ], [ 98.140992785583023, 13.702044652560904 ], [ 98.140997296769584, 13.702045128928948 ], [ 98.141001833989762, 13.702045170680657 ], [ 98.14100635354761, 13.702044777413935 ], [ 98.141010811917297, 13.702043952916155 ], [ 98.141015166162262, 13.702042705127688 ], [ 98.141019374348716, 13.702041046065421 ], [ 98.141837592434513, 13.701671850101864 ], [ 98.142312573269123, 13.701503627726863 ], [ 98.14290926611919, 13.70138428915879 ], [ 98.142911453856442, 13.701383797223423 ], [ 98.143506976659367, 13.701234916534492 ], [ 98.14409422542586, 13.701205554107057 ], [ 98.144686437244118, 13.701383217651003 ], [ 98.144690913210297, 13.701384324684085 ], [ 98.144695479782385, 13.701384989748535 ], [ 98.14470009142633, 13.701385206212874 ], [ 98.144704702158649, 13.701384971918708 ], [ 98.144709266004966, 13.701384289202213 ], [ 98.145301163391395, 13.701265909741807 ], [ 98.145888598524451, 13.701354025013822 ], [ 98.146481978338954, 13.701561707957444 ], [ 98.146952805313688, 13.701787312570158 ], [ 98.1473073982513, 13.702132055743702 ], [ 98.147310550523045, 13.702134850457071 ], [ 98.147313952232054, 13.702137349986943 ], [ 98.147666570873639, 13.702372429112541 ], [ 98.147898107761293, 13.702710087153999 ], [ 98.148055917212304, 13.703173652664312 ], [ 98.148254983930187, 13.703820619902762 ], [ 98.148374520969682, 13.704458151435601 ], [ 98.148374651025549, 13.704458816909826 ], [ 98.148494650914159, 13.705048816925087 ], [ 98.148614444560906, 13.705637802919096 ], [ 98.148704285841575, 13.706216780787107 ], [ 98.148705084973528, 13.706220733598741 ], [ 98.148765084929309, 13.706460733606937 ], [ 98.148766290855505, 13.706464743529681 ], [ 98.148767870424891, 13.706468627418904 ], [ 98.148769810134709, 13.706472352073565 ], [ 98.148772093403565, 13.706475885653838 ], [ 98.148774700713162, 13.706479197953261 ], [ 98.148777609775223, 13.706482260656976 ], [ 98.148780795721891, 13.70648504758376 ], [ 98.148784231318444, 13.706487534909847 ], [ 98.149094265733112, 13.706690995024148 ], [ 98.149326731966809, 13.707136555446162 ], [ 98.149515341311997, 13.707791725176422 ], [ 98.149684584935741, 13.70843883363017 ], [ 98.149793513777553, 13.709181531274041 ], [ 98.14974404647441, 13.70982460458 ], [ 98.149634382081956, 13.710472620706614 ], [ 98.14963386618065, 13.71047696551344 ], [ 98.149633782171989, 13.710481338728362 ], [ 98.149653782042549, 13.711141338724534 ], [ 98.149654083665084, 13.711145324983452 ], [ 98.149654744267536, 13.711149269610988 ], [ 98.149774744162315, 13.711709269626589 ], [ 98.149776513185273, 13.711715361776262 ], [ 98.149945643689264, 13.712173009259747 ], [ 98.150104718934955, 13.712819252949142 ], [ 98.150224367205752, 13.713477319141294 ], [ 98.150324275502797, 13.714126723895015 ], [ 98.150324512459193, 13.714128116007833 ], [ 98.150464196117298, 13.714876422103819 ], [ 98.150583845029757, 13.715993147327749 ], [ 98.150603788854212, 13.716551577477674 ], [ 98.150604169526105, 13.716555998176617 ], [ 98.150604991570532, 13.716560361109883 ], [ 98.150606247070783, 13.716564624260029 ], [ 98.150607923935738, 13.716568746570591 ], [ 98.150610006016279, 13.716572688341452 ], [ 98.150612473260864, 13.716576411611202 ], [ 98.150615301908573, 13.716579880522699 ], [ 98.150618464717994, 13.716583061668425 ], [ 98.150621931229551, 13.716585924412191 ], [ 98.150625668058836, 13.7165884411842 ], [ 98.150629639218138, 13.71659058774655 ], [ 98.150633806462992, 13.716592343426662 ], [ 98.150638129660564, 13.71659369131636 ], [ 98.15064256717605, 13.71659461843473 ], [ 98.150647076273756, 13.716595115853107 ], [ 98.150651613528552, 13.716595178781072 ], [ 98.150656135244191, 13.716594806612598 ], [ 98.150660597874051, 13.716594002931867 ], [ 98.150664958440544, 13.716592775478766 ], [ 98.150669174948987, 13.716591136074353 ], [ 98.150673206792106, 13.716589100506981 ], [ 98.150677015141042, 13.716586688380305 ], [ 98.15068056331927, 13.716583922924414 ], [ 98.150683817155894, 13.716580830772186 ], [ 98.150686745314701, 13.716577441702741 ], [ 98.150689319595912, 13.716573788354687 ], [ 98.150691515207811, 13.716569905911769 ], [ 98.15069331100544, 13.716565831764054 ], [ 98.150694689694333, 13.716561605147815 ], [ 98.150695637996975, 13.716557266767685 ], [ 98.150696146780703, 13.716552858404649 ], [ 98.1506962111457, 13.716548422513645 ], [ 98.150676211035815, 13.715988422510966 ] ] ] } },
{ "type": "Feature", "properties": { "id": "RX-2", "name": "Track south", "kind": "exclude", "priority": 0, "split": 0, "description": "Track bare on 10 Jan 2026 (debris has since run down it)." }, "geometry": { "type": "Polygon", "coordinates": [ [ [ 98.148627014711693, 13.703286523264721 ], [ 98.148826333325928, 13.702698533158339 ], [ 98.148826815370114, 13.70269695152966 ], [ 98.148986586764323, 13.702107794274058 ], [ 98.149226303266218, 13.701408620919343 ], [ 98.149227040858847, 13.701406058668441 ], [ 98.1492275180332, 13.701403438069264 ], [ 98.149227730193843, 13.70140078435961 ], [ 98.149227675297539, 13.70139812309616 ], [ 98.149227353873002, 13.701395479908335 ], [ 98.149226769015726, 13.701392880251479 ], [ 98.149225926358227, 13.701390349161706 ], [ 98.14922483401574, 13.701387911014786 ], [ 98.14922350250815, 13.701385589291416 ], [ 98.149221944658592, 13.701383406351052 ], [ 98.14922017547002, 13.701381383216596 ], [ 98.149218211980681, 13.701379539371938 ], [ 98.149216073100078, 13.701377892574305 ], [ 98.149213779426759, 13.701376458683253 ], [ 98.149211353050077, 13.701375251507935 ], [ 98.149208817337367, 13.701374282674109 ], [ 98.149206196708889, 13.701373561512158 ], [ 98.149203516402736, 13.701373094967273 ], [ 98.149200802231732, 13.701372887532537 ], [ 98.149198080334799, 13.701372941205657 ], [ 98.149195376925277, 13.70137325546972 ], [ 98.149192718038492, 13.701373827298205 ], [ 98.149190129280953, 13.701374651184086 ], [ 98.1491876355838, 13.701375719192898 ], [ 98.149185260962696, 13.70137702103913 ], [ 98.149183028286544, 13.7013785441853 ], [ 98.149180959057233, 13.701380273962677 ], [ 98.149179073202546, 13.701382193712565 ], [ 98.14917738888434, 13.701384284946728 ], [ 98.149175922323479, 13.701386527525443 ], [ 98.149174687643765, 13.70138889985145 ], [ 98.149173696735829, 13.701391379077965 ], [ 98.148933696669843, 13.702091379048897 ], [ 98.148933184691714, 13.702093048488159 ], [ 98.148773401035527, 13.702682250480766 ], [ 98.148573666620223, 13.703271466814666 ], [ 98.148573067232419, 13.703273496519142 ], [ 98.148572631232398, 13.703275565677034 ], [ 98.148472631167309, 13.70386556566231 ], [ 98.148472318406945, 13.703868209842907 ], [ 98.148472272235452, 13.703870871263717 ], [ 98.148472493097486, 13.703873524293792 ], [ 98.148472978866039, 13.703876143383004 ], [ 98.148473724862882, 13.703878703308096 ], [ 98.148474723903703, 13.70388117941558 ], [ 98.148475966367187, 13.703883547859192 ], [ 98.148477440287721, 13.703885785829526 ], [ 98.148479131470651, 13.703887871773686 ], [ 98.148481023628975, 13.703889785602898 ], [ 98.148483098540183, 13.703891508885929 ], [ 98.148485336221725, 13.703893025026622 ], [ 98.148487715123508, 13.703894319423704 ], [ 98.148490212335417, 13.703895379611422 ], [ 98.148492803807898, 13.70389619537959 ], [ 98.148495464583689, 13.703896758871906 ], [ 98.148498169038021, 13.70389706466163 ], [ 98.148500891125551, 13.703897109803838 ], [ 98.148503604631031, 13.703896893863785 ], [ 98.148506283421938, 13.703896418921092 ], [ 98.14850890170004, 13.703895689549716 ], [ 98.148511434249869, 13.703894712773913 ], [ 98.148513856681618, 13.703893498000561 ], [ 98.14851614566588, 13.703892056928597 ], [ 98.148518279158523, 13.703890403436333 ], [ 98.148520236612839, 13.703888553447813 ], [ 98.148521999177461, 13.703886524779437 ], [ 98.148523549877922, 13.703884336968398 ], [ 98.148524873780147, 13.70388201108452 ], [ 98.148525958134229, 13.703879569527334 ], [ 98.148526792497265, 13.703877035810372 ], [ 98.148527368833896, 13.70387443433472 ], [ 98.148627014711693, 13.703286523264721 ] ] ] } },
{ "type": "Feature", "properties": { "id": "RX-3", "name": "Plot bare in Jan 2026", "kind": "exclude", "priority": 0, "split": 0, "description": "Earthworks beside the road, already bare on the Esri Vivid image of 10 Jan 2026." }, "geometry": { "type": "Polygon", "coordinates": [ [ [ 98.1499, 13.7152 ], [ 98.1507, 13.7152 ], [ 98.1507, 13.7164 ], [ 98.1499, 13.7164 ], [ 98.1499, 13.7152 ] ] ] } },
{ "type": "Feature", "properties": { "id": "RX-4", "name": "Fish ponds", "kind": "exclude", "priority": 0, "split": 0, "description": "Fish ponds and bunds, already there on 10 Jan 2026." }, "geometry": { "type": "Polygon", "coordinates": [ [ [ 98.1505, 13.7143 ], [ 98.152, 13.7143 ], [ 98.152, 13.7153 ], [ 98.1505, 13.7153 ], [ 98.1505, 13.7143 ] ] ] } },
{ "type": "Feature", "properties": { "id": "RX-5", "name": "Cleared plantation", "kind": "exclude", "priority": 0, "split": 0, "description": "A plantation plot felled or burnt since January: grey trunks and litter with no slide scar or runout." }, "geometry": { "type": "Polygon", "coordinates": [ [ [ 98.1425, 13.7038 ], [ 98.1443, 13.7038 ], [ 98.1443, 13.7061 ], [ 98.1425, 13.7061 ], [ 98.1425, 13.7038 ] ] ] } },
{ "type": "Feature", "properties": { "id": "RX-6", "name": "Cleared plantation", "kind": "exclude", "priority": 0, "split": 0, "description": "A plantation plot felled or burnt since January, as RX-5." }, "geometry": { "type": "Polygon", "coordinates": [ [ [ 98.1445, 13.7024 ], [ 98.1453, 13.7024 ], [ 98.1453, 13.7034 ], [ 98.1445, 13.7034 ], [ 98.1445, 13.7024 ] ] ] } },
{ "type": "Feature", "properties": { "id": "RX-7", "name": "Terraced plantation", "kind": "exclude", "priority": 0, "split": 0, "description": "Terraced young plantation and its paths, already there on 10 Jan 2026." }, "geometry": { "type": "Polygon", "coordinates": [ [ [ 98.141, 13.7027 ], [ 98.1432, 13.7027 ], [ 98.1432, 13.7047 ], [ 98.141, 13.7047 ], [ 98.141, 13.7027 ] ] ] } },
{ "type": "Feature", "properties": { "id": "RX-8", "name": "Cultivated plot", "kind": "exclude", "priority": 0, "split": 0, "description": "Rejected on chip review: a cultivated plot north of the ponds, with crop rows on 10 Jan 2026." }, "geometry": { "type": "Polygon", "coordinates": [ [ [ 98.15102, 13.71527 ], [ 98.1526, 13.71527 ], [ 98.1526, 13.71668 ], [ 98.15102, 13.71668 ], [ 98.15102, 13.71527 ] ] ] } },
{ "type": "Feature", "properties": { "id": "RX-9", "name": "Canopy gaps", "kind": "exclude", "priority": 0, "split": 0, "description": "Rejected on chip review: canopy gaps and scrub, not a landslide." }, "geometry": { "type": "Polygon", "coordinates": [ [ [ 98.14578, 13.71392 ], [ 98.14621, 13.71392 ], [ 98.14621, 13.71443 ], [ 98.14578, 13.71443 ], [ 98.14578, 13.71392 ] ] ] } },
{ "type": "Feature", "properties": { "id": "RX-10", "name": "Smeared flight edge", "kind": "exclude", "priority": 0, "split": 0, "description": "Rejected on chip review: smeared ground at the edge of the flight." }, "geometry": { "type": "Polygon", "coordinates": [ [ [ 98.14282, 13.71029 ], [ 98.1434, 13.71029 ], [ 98.1434, 13.71075 ], [ 98.14282, 13.71075 ], [ 98.14282, 13.71029 ] ] ] } },
{ "type": "Feature", "properties": { "id": "RX-11", "name": "Scrub patch", "kind": "exclude", "priority": 0, "split": 0, "description": "Rejected on chip review: scrub and litter, not a landslide." }, "geometry": { "type": "Polygon", "coordinates": [ [ [ 98.1508, 13.70929 ], [ 98.15118, 13.70929 ], [ 98.15118, 13.70962 ], [ 98.1508, 13.70962 ], [ 98.1508, 13.70929 ] ] ] } },
{ "type": "Feature", "properties": { "id": "RX-12", "name": "Scrub patch", "kind": "exclude", "priority": 0, "split": 0, "description": "Rejected on chip review: scrub and canopy gaps, not a landslide." }, "geometry": { "type": "Polygon", "coordinates": [ [ [ 98.14852, 13.71545 ], [ 98.14887, 13.71545 ], [ 98.14887, 13.71592 ], [ 98.14852, 13.71592 ], [ 98.14852, 13.71545 ] ] ] } },
{ "type": "Feature", "properties": { "id": "RX-13", "name": "Plantation rows", "kind": "exclude", "priority": 0, "split": 0, "description": "Rejected on chip review: plantation rows, not a landslide." }, "geometry": { "type": "Polygon", "coordinates": [ [ [ 98.14429, 13.70416 ], [ 98.14476, 13.70416 ], [ 98.14476, 13.70457 ], [ 98.14429, 13.70457 ], [ 98.14429, 13.70416 ] ] ] } },
{ "type": "Feature", "properties": { "id": "RX-14", "name": "Garden plot", "kind": "exclude", "priority": 0, "split": 0, "description": "Rejected on chip review: a garden plot beside a house." }, "geometry": { "type": "Polygon", "coordinates": [ [ [ 98.15047, 13.71417 ], [ 98.15092, 13.71417 ], [ 98.15092, 13.71433 ], [ 98.15047, 13.71433 ], [ 98.15047, 13.71417 ] ] ] } },
{ "type": "Feature", "properties": { "id": "RX-15", "name": "Strip bare in Jan 2026", "kind": "exclude", "priority": 0, "split": 0, "description": "Rejected on chip review: a strip beside the road already pale on 10 Jan 2026." }, "geometry": { "type": "Polygon", "coordinates": [ [ [ 98.14947, 13.70851 ], [ 98.14963, 13.70851 ], [ 98.14963, 13.7089 ], [ 98.14947, 13.7089 ], [ 98.14947, 13.70851 ] ] ] } }
]
}
