{
"type": "FeatureCollection",
"name": "reach_zones",
"crs": { "type": "name", "properties": { "name": "urn:ogc:def:crs:OGC:1.3:CRS84" } },
"features": [
{ "type": "Feature", "properties": { "zone": "A", "alpha_deg": 12.8, "label": "Within reach of an open-slope debris flow (alpha 12.8 deg)" }, "geometry": { "type": "MultiPolygon", "coordinates": [ [ [ [ 98.143369129602533, 13.700160825341264 ], [ 98.143091715251302, 13.700159864662069 ], [ 98.143090732519681, 13.70043110068271 ], [ 98.14336814718898, 13.70043206138164 ], [ 98.143369129602533, 13.700160825341264 ] ] ], [ [ [ 98.150239159545691, 13.718357575599491 ], [ 98.15051659577432, 13.718358529504714 ], [ 98.15051757131468, 13.718087293349937 ], [ 98.150795007245961, 13.718088246924193 ], [ 98.150795982446638, 13.717817010743838 ], [ 98.151628289411846, 13.717819869539564 ], [ 98.151629263635897, 13.717548633294539 ], [ 98.15135182827818, 13.717547680693567 ], [ 98.151352802799593, 13.717276444462074 ], [ 98.151907672899156, 13.717278349313551 ], [ 98.15190864676245, 13.717007113036964 ], [ 98.152740951114765, 13.717009967920266 ], [ 98.15274289686711, 13.716467495231887 ], [ 98.153297765266956, 13.716469396852524 ], [ 98.153296793038265, 13.716740633238745 ], [ 98.153574227588294, 13.716741583601529 ], [ 98.153573255656994, 13.717012820001237 ], [ 98.154128125457234, 13.717014719831695 ], [ 98.154129096751575, 13.716743483392998 ], [ 98.154683965999141, 13.716745381939015 ], [ 98.154681568768325, 13.717415243502606 ], [ 98.154709196331794, 13.717358133828869 ], [ 98.154785630165037, 13.71714928264616 ], [ 98.15484075699635, 13.716934112680152 ], [ 98.154874045977735, 13.71671469615198 ], [ 98.154885176576855, 13.716493146174338 ], [ 98.15488517648086, 13.716483339661671 ], [ 98.15487524814553, 13.716274111394927 ], [ 98.154845552524719, 13.716066679928451 ], [ 98.154796344662572, 13.715862826447047 ], [ 98.154728047149447, 13.715664301407232 ], [ 98.154656797862458, 13.715507117583 ], [ 98.154612514140837, 13.715402557762681 ], [ 98.154598148143791, 13.715374457269832 ], [ 98.154583782042536, 13.715346356573143 ], [ 98.154569415941168, 13.715318255876246 ], [ 98.154555049839814, 13.715290155179348 ], [ 98.154540683738489, 13.71526205448254 ], [ 98.154396537735849, 13.715019124416715 ], [ 98.154385625076614, 13.715003115121938 ], [ 98.154353439570258, 13.714948872659544 ], [ 98.154324707756473, 13.71490672196777 ], [ 98.154295975696158, 13.714864570914308 ], [ 98.154267243636241, 13.714822419861431 ], [ 98.154238511575628, 13.71478026880756 ], [ 98.154042889027266, 13.714532383647679 ], [ 98.153941349084903, 13.714420660935154 ], [ 98.153947733953316, 13.714407458861581 ], [ 98.153951337198208, 13.71440158134863 ], [ 98.153962043876689, 13.714379449025701 ], [ 98.153965702759464, 13.714373480757068 ], [ 98.154062706240182, 13.714172959693363 ], [ 98.154079029262064, 13.714128357376945 ], [ 98.154091437215854, 13.714102708204008 ], [ 98.154107760205733, 13.714058105961602 ], [ 98.154120168191554, 13.714032456714667 ], [ 98.154196600955913, 13.713823605486384 ], [ 98.154199075970126, 13.713813944932065 ], [ 98.154210966365909, 13.713781454593814 ], [ 98.154266092417515, 13.713566284578059 ], [ 98.154266140818351, 13.713565965551059 ], [ 98.154271235854765, 13.713546078402134 ], [ 98.154282792894421, 13.713514498918316 ], [ 98.154290217788699, 13.713485517793339 ], [ 98.15432588913022, 13.713388046222029 ], [ 98.154333667534502, 13.71335768524629 ], [ 98.154421923936766, 13.713175195949914 ], [ 98.154498321261187, 13.712966387669811 ], [ 98.154553421509007, 13.71275126500759 ], [ 98.154586694337013, 13.712531898757151 ], [ 98.15459070609117, 13.712452026311734 ], [ 98.154594306276579, 13.71244458213341 ], [ 98.15462462979329, 13.712361702226376 ], [ 98.154762826492529, 13.712212576383809 ], [ 98.154819743452023, 13.712137521594867 ], [ 98.154880710745701, 13.712074147164627 ], [ 98.155022220376779, 13.711893707570423 ], [ 98.155144471723361, 13.711700281145554 ], [ 98.155246227725243, 13.711495825242698 ], [ 98.155326458730713, 13.711282408821317 ], [ 98.155354517404518, 13.711175679580773 ], [ 98.155437878419718, 13.711126829469391 ], [ 98.155600089608839, 13.711009208993392 ], [ 98.155611914944629, 13.711010923997208 ], [ 98.15562743182636, 13.71101472407441 ], [ 98.155627655883947, 13.711014756569062 ], [ 98.155684894984915, 13.711028774403106 ], [ 98.155685119019196, 13.711028806894376 ], [ 98.155742358084694, 13.711042824720371 ], [ 98.155777809072362, 13.711047966108344 ], [ 98.155814187039553, 13.711056875056824 ], [ 98.155849637998429, 13.711062016440312 ], [ 98.155886015935636, 13.711070925381854 ], [ 98.155956693880384, 13.711081175662516 ], [ 98.155972210804819, 13.711084975749024 ], [ 98.155972434864324, 13.711085008243943 ], [ 98.156029674140228, 13.711099026112096 ], [ 98.156254099038918, 13.711131573898914 ], [ 98.156480706377593, 13.711142458191258 ], [ 98.156495072312936, 13.711142458199181 ], [ 98.156721679676963, 13.711131574155687 ], [ 98.156946104650203, 13.711099026608176 ], [ 98.157166185836758, 13.711045129012557 ], [ 98.15737980367777, 13.710970400443065 ], [ 98.157584900866155, 13.710875560592862 ], [ 98.157779502161475, 13.710761522842384 ], [ 98.157961733414311, 13.710629385462173 ], [ 98.158129839616493, 13.710480421035003 ], [ 98.158282201803715, 13.710316064199121 ], [ 98.158417352647319, 13.710137897830803 ], [ 98.158533990585482, 13.709947637799196 ], [ 98.158630992357331, 13.709747116440431 ], [ 98.158707423819564, 13.70953826491016 ], [ 98.158762548941382, 13.70932309458448 ], [ 98.158795836891073, 13.709103677688445 ], [ 98.158806967146191, 13.708882127338752 ], [ 98.158806967008729, 13.70886807703077 ], [ 98.15879583243958, 13.708646526876286 ], [ 98.158762540341272, 13.708427110575434 ], [ 98.15870741139571, 13.708211941221956 ], [ 98.158677008532351, 13.708128868587934 ], [ 98.158654985906594, 13.707984455221174 ], [ 98.158655915805838, 13.707983451779731 ], [ 98.158791010285569, 13.707805305891204 ], [ 98.158907598547998, 13.707615073962987 ], [ 98.158918237453079, 13.707593075587369 ], [ 98.158921846956105, 13.707587187693395 ], [ 98.158932551740904, 13.707565058634895 ], [ 98.158936212517403, 13.707559087101842 ], [ 98.159011145676175, 13.707404184262129 ], [ 98.15903677147621, 13.707362382906791 ], [ 98.159133772192334, 13.707161861488922 ], [ 98.159210202822933, 13.706953009897704 ], [ 98.159212676767211, 13.706943353233404 ], [ 98.159224568225653, 13.706910859029222 ], [ 98.159279692742743, 13.706695688632379 ], [ 98.159279740524084, 13.706695373679443 ], [ 98.159294058008797, 13.706639487439054 ], [ 98.159299332648118, 13.706604719385833 ], [ 98.159308423141425, 13.706569235939398 ], [ 98.159308470911114, 13.706568921063015 ], [ 98.159322788406058, 13.706513034752918 ], [ 98.159356075966869, 13.706293617779579 ], [ 98.159356351260413, 13.706288137940078 ], [ 98.159370440811799, 13.706195265718632 ], [ 98.159381570937924, 13.705973715290813 ], [ 98.15938156860183, 13.705734860055198 ], [ 98.159370434173283, 13.705513309818519 ], [ 98.159337142507042, 13.705293893436746 ], [ 98.159282014280834, 13.705078724004331 ], [ 98.159270571685482, 13.705047457899568 ], [ 98.159277942025611, 13.705045652860479 ], [ 98.15949155448871, 13.704970924179978 ], [ 98.159696646509786, 13.704876084209541 ], [ 98.159753330334667, 13.704842866235966 ], [ 98.159894183000674, 13.704777732179423 ], [ 98.160088779308708, 13.704663694289893 ], [ 98.160271005888163, 13.704531556763353 ], [ 98.160439107776753, 13.70438259218334 ], [ 98.160591466052495, 13.704218235188877 ], [ 98.160726613425126, 13.704040068656981 ], [ 98.160843248366902, 13.703849808457532 ], [ 98.160940247646309, 13.703649286927371 ], [ 98.161016677144517, 13.70344043522285 ], [ 98.161071800849982, 13.703225264720757 ], [ 98.161105087944833, 13.703005847646827 ], [ 98.161116217915009, 13.702784297118432 ], [ 98.16111621765728, 13.702757939053205 ], [ 98.161104966715044, 13.702535233787849 ], [ 98.161071327775346, 13.702314695975801 ], [ 98.161057794563547, 13.702248534178471 ], [ 98.161033666664096, 13.702143620046652 ], [ 98.161020133590739, 13.702090690632783 ], [ 98.161006600463438, 13.702037761007881 ], [ 98.16094708125614, 13.701842750049144 ], [ 98.160869863693819, 13.701653763603877 ], [ 98.1607755737638, 13.70147233364318 ], [ 98.160664975841343, 13.701299930879731 ], [ 98.160538966492368, 13.701137952846279 ], [ 98.160398567204879, 13.700987712567416 ], [ 98.160385034606193, 13.700974480278358 ], [ 98.160216929651114, 13.700825500680603 ], [ 98.160034698310781, 13.700693349602231 ], [ 98.159840095780496, 13.700579299861982 ], [ 98.159634996400328, 13.700484449932334 ], [ 98.159421375603017, 13.700409713360315 ], [ 98.159201290888433, 13.700355809969432 ], [ 98.158976862008046, 13.700323258927334 ], [ 98.158971636731337, 13.700323007935815 ], [ 98.158882119458255, 13.700310025211714 ], [ 98.158877630507021, 13.700309809602839 ], [ 98.158795312761953, 13.700289648230816 ], [ 98.158570883962469, 13.700257097222687 ], [ 98.158344272589233, 13.700246212073433 ], [ 98.158181883086698, 13.70024621216284 ], [ 98.157854910849878, 13.700268934001924 ], [ 98.157760183627815, 13.700282166306463 ], [ 98.157555960147207, 13.700319921498416 ], [ 98.157356030112354, 13.700375457480286 ], [ 98.157315432690353, 13.700388689758213 ], [ 98.157300068232502, 13.700393697633253 ], [ 98.157245944999204, 13.700401258022442 ], [ 98.15702135870724, 13.700444275731362 ], [ 98.157034252569844, 13.700441754160588 ], [ 98.156989831147555, 13.70044899350858 ], [ 98.156961581653576, 13.700453597326961 ], [ 98.156959558258308, 13.701021228661505 ], [ 98.156682141915795, 13.701020283161732 ], [ 98.156681174705952, 13.701291520123924 ], [ 98.156403758066361, 13.701290574293726 ], [ 98.156402790517419, 13.701561811230489 ], [ 98.155847956665085, 13.701559918598209 ], [ 98.15584892485019, 13.701288681700323 ], [ 98.156126341447774, 13.701289628152525 ], [ 98.15612730929378, 13.701018391229194 ], [ 98.1564047255943, 13.70101933735096 ], [ 98.15640569310122, 13.700748100402192 ], [ 98.156683109104662, 13.700749046193531 ], [ 98.156684195016368, 13.700444507742288 ], [ 98.156654721565687, 13.700434196987073 ], [ 98.156563045029259, 13.700391803415085 ], [ 98.156526562458595, 13.700379040642213 ], [ 98.156468316745062, 13.70035210632641 ], [ 98.156376255142064, 13.700319900207868 ], [ 98.156360055869726, 13.700312409244512 ], [ 98.156225145931217, 13.700265213373475 ], [ 98.156184131941387, 13.700246247439187 ], [ 98.156042856477342, 13.700196824684587 ], [ 98.156035273244029, 13.700193317998998 ], [ 98.155821664765483, 13.700118590746563 ], [ 98.155812419350056, 13.70011632649911 ], [ 98.155781066957786, 13.700105358389003 ], [ 98.155771821535069, 13.700103094139639 ], [ 98.155740469149677, 13.700092126031317 ], [ 98.15573122371984, 13.700089861780075 ], [ 98.155699871341795, 13.700078893673707 ], [ 98.155698762703437, 13.700078622162724 ], [ 98.155510414892177, 13.700012731878388 ], [ 98.155501169419153, 13.700010467615794 ], [ 98.155469817084153, 13.699999499520734 ], [ 98.155468708247923, 13.6999992279612 ], [ 98.155280360584428, 13.699933337710583 ], [ 98.155243378741034, 13.699924280667661 ], [ 98.155239515423688, 13.699922929151468 ], [ 98.155223316754416, 13.699915438454195 ], [ 98.155180468256333, 13.69990044864441 ], [ 98.155155653701144, 13.699888973730701 ], [ 98.155112805176429, 13.699873983909892 ], [ 98.155087990648042, 13.69986250900727 ], [ 98.155045142096441, 13.699847519175339 ], [ 98.155020327594798, 13.699836044283783 ], [ 98.154977479016438, 13.699821054440791 ], [ 98.154952664541554, 13.699809579560293 ], [ 98.154916181086321, 13.699796816445996 ], [ 98.154857936257244, 13.699769882471687 ], [ 98.154821452741743, 13.699757119334116 ], [ 98.154763207972834, 13.69973018538303 ], [ 98.154733089546212, 13.699719648962265 ], [ 98.154641414457345, 13.699677255929252 ], [ 98.154611295923573, 13.699666719468594 ], [ 98.154519620941613, 13.699624326475373 ], [ 98.154483137205048, 13.699611563252478 ], [ 98.154424892657218, 13.699584629386742 ], [ 98.15439477393582, 13.699574092856256 ], [ 98.154303099141714, 13.699531699932985 ], [ 98.154292075695764, 13.699527843564601 ], [ 98.154100109932656, 13.699439073383717 ], [ 98.154057260952186, 13.699424083374437 ], [ 98.154032446879341, 13.699412608660243 ], [ 98.153989597872126, 13.699397618639901 ], [ 98.153964783826211, 13.699386143936858 ], [ 98.153928299727752, 13.699373380574267 ], [ 98.153870055541873, 13.699346446848294 ], [ 98.153833571383046, 13.699333683462408 ], [ 98.153775327257449, 13.699306749759701 ], [ 98.153738843038326, 13.699293986350538 ], [ 98.153680598972997, 13.699267052671104 ], [ 98.153650479608245, 13.699256515901133 ], [ 98.153558805457408, 13.699214123217375 ], [ 98.153547780867683, 13.699210266443583 ], [ 98.153539637022476, 13.699206500507394 ], [ 98.153533838647377, 13.699203102521256 ], [ 98.15351257175324, 13.699193268129472 ], [ 98.153506773364114, 13.69918987013507 ], [ 98.153301685785678, 13.69909503193777 ], [ 98.153271566075986, 13.699084495039328 ], [ 98.153179892315222, 13.699042102502336 ], [ 98.152966285031113, 13.698967375292309 ], [ 98.152746215092876, 13.69891347871164 ], [ 98.152521801841218, 13.69888093179661 ], [ 98.152295206439945, 13.698870047979684 ], [ 98.152268141522839, 13.698870047994687 ], [ 98.15204154614753, 13.698880932061652 ], [ 98.151817132971246, 13.69891347921711 ], [ 98.151699849361435, 13.698942202909235 ], [ 98.151532948554404, 13.698966408888582 ], [ 98.151312878703806, 13.699020305687123 ], [ 98.151099271550279, 13.699095033086172 ], [ 98.151074665263536, 13.699106411761326 ], [ 98.150974952246656, 13.698968278399267 ], [ 98.150822417250083, 13.698796598585508 ], [ 98.150653010692167, 13.698640773533663 ], [ 98.150468447391845, 13.698502380551449 ], [ 98.150442855730617, 13.698486915757416 ], [ 98.150441838264115, 13.698485255929926 ], [ 98.150306705544025, 13.698307096948854 ], [ 98.150154364377201, 13.698142745398334 ], [ 98.150140831778387, 13.698129513109269 ], [ 98.14997272972623, 13.697980535977575 ], [ 98.1497905018106, 13.697848387133806 ], [ 98.149595903165945, 13.69773433935498 ], [ 98.14939080806522, 13.697639491077204 ], [ 98.149379752124162, 13.697635623077259 ], [ 98.149371590848702, 13.697631849055258 ], [ 98.149365793199962, 13.697628451471754 ], [ 98.149344525598451, 13.697618616686199 ], [ 98.149338727955907, 13.69761521910613 ], [ 98.149317460348414, 13.697605384317248 ], [ 98.149311662711924, 13.697601986740535 ], [ 98.149290395098149, 13.697592151948184 ], [ 98.149284597467727, 13.697588754374836 ], [ 98.149263329430497, 13.69757891938611 ], [ 98.149257531361172, 13.697575521558468 ], [ 98.149052445278855, 13.697480683497558 ], [ 98.148838839500996, 13.697405956425628 ], [ 98.148618771123907, 13.697352059984066 ], [ 98.148394359474921, 13.697319513208212 ], [ 98.148167765704144, 13.697308629529408 ], [ 98.14784298669845, 13.697308629710397 ], [ 98.147616392966569, 13.6973195136401 ], [ 98.147391981406102, 13.697352060656334 ], [ 98.147171913164229, 13.697405957318459 ], [ 98.14698638104943, 13.697470863436024 ], [ 98.146831503725352, 13.697478302532927 ], [ 98.146607091980783, 13.697510849462679 ], [ 98.146387023550801, 13.697564746047643 ], [ 98.146173512155627, 13.697639440221696 ], [ 98.146110817968022, 13.697639440156617 ], [ 98.145884223848554, 13.697650323854885 ], [ 98.145659811882993, 13.697682870661811 ], [ 98.145439743225367, 13.697736767138334 ], [ 98.14526405502302, 13.697798229236296 ], [ 98.145231199883199, 13.697798229198435 ], [ 98.145004605652218, 13.697809112882698 ], [ 98.144780193575158, 13.697841659672282 ], [ 98.144560124807271, 13.697895556128278 ], [ 98.144346518679328, 13.697970283207999 ], [ 98.144331576755718, 13.697977192807054 ], [ 98.144171225771018, 13.698000448772753 ], [ 98.143951156991406, 13.698054345303202 ], [ 98.143775469588178, 13.698115807114398 ], [ 98.143756143791194, 13.698115807124388 ], [ 98.143529549608161, 13.698126691164799 ], [ 98.14337641610237, 13.698148900559428 ], [ 98.143374041350341, 13.698804645049316 ], [ 98.143928866936463, 13.698806565277529 ], [ 98.143927885265597, 13.699077801387384 ], [ 98.14476012475869, 13.699080679456792 ], [ 98.144762086171013, 13.698538207112817 ], [ 98.145316911334177, 13.698540124192249 ], [ 98.145312010823929, 13.69989630520409 ], [ 98.14558942502758, 13.699897263375833 ], [ 98.145587465310598, 13.700439735777909 ], [ 98.145310050470869, 13.700438777566797 ], [ 98.145308090032657, 13.700981249905478 ], [ 98.144475843732792, 13.700978373288095 ], [ 98.144477806079365, 13.700435901067594 ], [ 98.14336814718898, 13.70043206138164 ], [ 98.143367164754096, 13.700703297416011 ], [ 98.143644579762778, 13.700704257823695 ], [ 98.143642615465154, 13.701246729913876 ], [ 98.143920031131302, 13.701247690050025 ], [ 98.143917085479202, 13.702061398199433 ], [ 98.14336225225972, 13.702059477497775 ], [ 98.143363234801242, 13.701788241493436 ], [ 98.1425309860863, 13.701785358167566 ], [ 98.142530002590476, 13.702056594112678 ], [ 98.142252586076765, 13.702055632362283 ], [ 98.142251602241487, 13.70232686828164 ], [ 98.141974185431025, 13.702325906200466 ], [ 98.141973201256278, 13.702597142094046 ], [ 98.141695784149093, 13.702596179682084 ], [ 98.141693815099259, 13.703138651411695 ], [ 98.141971232842707, 13.703139613863195 ], [ 98.141970248603855, 13.703410849738759 ], [ 98.142802502916723, 13.703413735286285 ], [ 98.142801519610927, 13.703684971215109 ], [ 98.143078938076059, 13.703685932461934 ], [ 98.143077955067056, 13.703957168404497 ], [ 98.143632792697602, 13.703959090004451 ], [ 98.14363181030356, 13.704230325980474 ], [ 98.143354391159463, 13.704229365316298 ], [ 98.143352425671083, 13.704771837210863 ], [ 98.142797586174268, 13.704769914870347 ], [ 98.142796602761734, 13.705041150769139 ], [ 98.14251918272717, 13.705040189112513 ], [ 98.142518198975097, 13.705311424985549 ], [ 98.142240778643725, 13.705310462998078 ], [ 98.142239794552125, 13.70558169884535 ], [ 98.141962373923903, 13.705580736527029 ], [ 98.141965327089139, 13.704767029026483 ], [ 98.141410487805885, 13.704765103575177 ], [ 98.141409502802503, 13.705036339375154 ], [ 98.140854662968437, 13.705034412639964 ], [ 98.140855648608166, 13.70476317687956 ], [ 98.140578229041381, 13.704762213065131 ], [ 98.140581186786662, 13.703948505807245 ], [ 98.139748931078174, 13.703945612675762 ], [ 98.139747944230024, 13.704216848374976 ], [ 98.140025363096271, 13.704217813083009 ], [ 98.140024376544858, 13.704489048796029 ], [ 98.139469538197517, 13.704487119029263 ], [ 98.139468550988369, 13.704758354696644 ], [ 98.139745970469491, 13.704759319755384 ], [ 98.139743996623267, 13.705301791111761 ], [ 98.140021416762153, 13.705302755899046 ], [ 98.140020430125105, 13.705573991588039 ], [ 98.140297850603588, 13.705574956084046 ], [ 98.140296864263306, 13.705846191786835 ], [ 98.140574285081399, 13.705847155991545 ], [ 98.140573299037897, 13.706118391708126 ], [ 98.141128141374679, 13.706120319223816 ], [ 98.141127155946194, 13.706391554973976 ], [ 98.140849734448892, 13.7063905913519 ], [ 98.140848748680796, 13.70666182707626 ], [ 98.141681014191462, 13.70666471706849 ], [ 98.141682983797025, 13.706122245495065 ], [ 98.141960405040251, 13.706123208164023 ], [ 98.14195942056638, 13.70639444397351 ], [ 98.142236842149174, 13.70639540635112 ], [ 98.14223782630485, 13.706124170521871 ], [ 98.142515247590808, 13.706125132568609 ], [ 98.142514263753341, 13.706396368417614 ], [ 98.143346528693939, 13.706399252750389 ], [ 98.143345545789757, 13.706670488652616 ], [ 98.145010078156034, 13.706676249036285 ], [ 98.145009097139834, 13.706947485050796 ], [ 98.144731674707288, 13.706946525744963 ], [ 98.144729711974549, 13.707488997716563 ], [ 98.145561981245407, 13.707491874818821 ], [ 98.145561000801806, 13.707763110854691 ], [ 98.1466706947338, 13.7077669427137 ], [ 98.146667757094377, 13.708580651021302 ], [ 98.146945181585295, 13.708581608267144 ], [ 98.146944202647916, 13.708852844377313 ], [ 98.147221627478331, 13.708853801331633 ], [ 98.147217712789541, 13.709938745790835 ], [ 98.146662860603655, 13.709936831413808 ], [ 98.146666777838746, 13.708851887111821 ], [ 98.146111928284157, 13.708849971647298 ], [ 98.146112908176335, 13.708578735596115 ], [ 98.145558059343344, 13.708576818926245 ], [ 98.145557078814619, 13.708848054938079 ], [ 98.145279654111761, 13.708847096116704 ], [ 98.145278673243496, 13.709118332102847 ], [ 98.145001248243659, 13.709117372950603 ], [ 98.145003210595462, 13.7085749010117 ], [ 98.14472578625346, 13.708573941587671 ], [ 98.144726767715682, 13.708302705628908 ], [ 98.144449343713248, 13.708301745913417 ], [ 98.14445032547242, 13.708030509968347 ], [ 98.143895478167977, 13.708028589643311 ], [ 98.143896460542337, 13.707757353731662 ], [ 98.143064190700329, 13.707754470969627 ], [ 98.143065174008086, 13.707483235111166 ], [ 98.140290945771966, 13.707473605877409 ], [ 98.140291932240729, 13.707202370210668 ], [ 98.139921030394063, 13.707201080491842 ], [ 98.139976045995041, 13.707309429543804 ], [ 98.140038262546895, 13.707407864973504 ], [ 98.140027175720704, 13.707451137310084 ], [ 98.139993883999125, 13.707670552668933 ], [ 98.139982749597024, 13.707892101859835 ], [ 98.139982729014449, 13.709996048562706 ], [ 98.139993817455675, 13.710217183088796 ], [ 98.140026980881203, 13.710436196164075 ], [ 98.140081901167306, 13.710650986477154 ], [ 98.140158051441489, 13.710859493226012 ], [ 98.140225627702804, 13.710999486454551 ], [ 98.140278119729956, 13.710999668998245 ], [ 98.140277764099125, 13.71109742283155 ], [ 98.140370922992645, 13.711249733427376 ], [ 98.140397987962999, 13.711289430753888 ], [ 98.140443263470672, 13.711349221973224 ], [ 98.140465649879317, 13.711382057056078 ], [ 98.140492714618048, 13.711421754042881 ], [ 98.140628426143252, 13.711600975721714 ], [ 98.140629270426459, 13.711601887065237 ], [ 98.140656557115179, 13.711638905604856 ], [ 98.140822137395716, 13.711819180608373 ], [ 98.140849202549489, 13.711845645537599 ], [ 98.140876267437918, 13.711872110207359 ], [ 98.140903332326801, 13.711898574877578 ], [ 98.140930397214305, 13.711925039546447 ], [ 98.140957462103145, 13.711951504216621 ], [ 98.140984526991659, 13.711977968886478 ], [ 98.141011591879575, 13.712004433555762 ], [ 98.141025124258078, 13.712017665826382 ], [ 98.14119323543602, 13.712166652573307 ], [ 98.141244616633244, 13.712203913557145 ], [ 98.141247365450582, 13.71220634966477 ], [ 98.141429605158663, 13.712338507447864 ], [ 98.141450996987317, 13.712351044466907 ], [ 98.141470202625214, 13.71236497212476 ], [ 98.14154429813415, 13.712408396956411 ], [ 98.141543774477427, 13.712409827768578 ], [ 98.141488644846845, 13.712624996154295 ], [ 98.141455352336479, 13.712844411453746 ], [ 98.141452436755358, 13.71290242332965 ], [ 98.142768074512063, 13.712906989220572 ], [ 98.142769058543692, 13.712635753496031 ], [ 98.143046487511185, 13.712636715394407 ], [ 98.14304747120309, 13.712365479644108 ], [ 98.143324899873576, 13.712366441211481 ], [ 98.143325883225799, 13.712095205435437 ], [ 98.143880739994017, 13.71209712759695 ], [ 98.143881722688192, 13.711825891775435 ], [ 98.144436578905015, 13.711827812652508 ], [ 98.144437560941185, 13.711556576785558 ], [ 98.144992416606556, 13.71155849637824 ], [ 98.144993397984734, 13.711287260465875 ], [ 98.145270825531028, 13.711288219775666 ], [ 98.145269844471187, 13.711559455707727 ], [ 98.145547272357092, 13.711560414725966 ], [ 98.1455462915943, 13.711831650671707 ], [ 98.145268863390044, 13.711830691633777 ], [ 98.145267882287612, 13.712101927553821 ], [ 98.144990453786306, 13.712100968184949 ], [ 98.144988490880863, 13.71264343996762 ], [ 98.143601345510206, 13.712638638257362 ], [ 98.143600362433688, 13.712909874041117 ], [ 98.143322933105139, 13.71290891274554 ], [ 98.143321949688911, 13.713180148503556 ], [ 98.142767090459088, 13.713178224939105 ], [ 98.142766106384755, 13.713449460651624 ], [ 98.142488676483481, 13.713448498382729 ], [ 98.142487692069395, 13.713719734069493 ], [ 98.142210261871099, 13.713718771469557 ], [ 98.142206322727603, 13.714803714077455 ], [ 98.141651459847807, 13.714801787785577 ], [ 98.141650474371659, 13.71507302338299 ], [ 98.141505760400449, 13.71507252077164 ], [ 98.141529217600706, 13.715227134696088 ], [ 98.141584343798343, 13.715442304017785 ], [ 98.141660776758599, 13.715651154595358 ], [ 98.141757780441026, 13.715851675067688 ], [ 98.14187442068976, 13.716041934292415 ], [ 98.142009574228368, 13.716220099944763 ], [ 98.142161939476267, 13.716384456164729 ], [ 98.142330049082901, 13.716533420082808 ], [ 98.142512284058625, 13.716665557065065 ], [ 98.142522277005227, 13.716671412874101 ], [ 98.1425914710955, 13.716762627479087 ], [ 98.142743836700575, 13.716926983711819 ], [ 98.142911946701659, 13.717075947643455 ], [ 98.143030073938732, 13.717161600506174 ], [ 98.143031729571234, 13.716705250927571 ], [ 98.143309163336369, 13.716706212810763 ], [ 98.143308179621428, 13.716977448484624 ], [ 98.143585613726358, 13.716978410076186 ], [ 98.143583909483937, 13.717448452093953 ], [ 98.143707512652952, 13.717491690337507 ], [ 98.143840881767545, 13.717524351549935 ], [ 98.143924818407896, 13.717573537677744 ], [ 98.144129920634555, 13.717668377370039 ], [ 98.144343543767263, 13.717743105883807 ], [ 98.144563630452623, 13.717797003520795 ], [ 98.144660261646024, 13.717811017324943 ], [ 98.144752418220037, 13.717853630681823 ], [ 98.144966041476579, 13.717928359251259 ], [ 98.145186128295379, 13.717982256953409 ], [ 98.145410559067884, 13.71801480470687 ], [ 98.145436681048352, 13.718016059368241 ], [ 98.145602072738825, 13.718073915755538 ], [ 98.14566461438028, 13.718089231768227 ], [ 98.14568026909275, 13.718104539304704 ], [ 98.145848385725571, 13.718253530647594 ], [ 98.145899765934814, 13.718290790764646 ], [ 98.145902515677889, 13.718293227688978 ], [ 98.14594620039513, 13.718324907157193 ], [ 98.145970178021756, 13.718346157023488 ], [ 98.146021558264849, 13.718383417165382 ], [ 98.146024308036374, 13.718385854114871 ], [ 98.14620655435354, 13.71851801615859 ], [ 98.146401174730912, 13.718632075719382 ], [ 98.146422495904687, 13.718641935785556 ], [ 98.146428341511026, 13.718645361241842 ], [ 98.146449207583643, 13.718655009723699 ], [ 98.146522967450636, 13.718698237530869 ], [ 98.14672808728244, 13.718793095946817 ], [ 98.146941730622956, 13.718867839414878 ], [ 98.147161839505586, 13.718921747946345 ], [ 98.147386293676902, 13.718954302249637 ], [ 98.147612931022138, 13.718965188733067 ], [ 98.147639996457016, 13.718965188748152 ], [ 98.147866610829311, 13.718954304730918 ], [ 98.14794955827611, 13.718942275590109 ], [ 98.147973839805289, 13.71894822192305 ], [ 98.147974313312091, 13.718948290592511 ], [ 98.148082100557204, 13.718974686752759 ], [ 98.148306532491532, 13.719007234466639 ], [ 98.148533146935577, 13.719018118743421 ], [ 98.14857374508783, 13.719018118766023 ], [ 98.14880035955872, 13.719007234740353 ], [ 98.148945891065225, 13.718986129563802 ], [ 98.14909142248608, 13.719007234895685 ], [ 98.149318036969589, 13.719018119180282 ], [ 98.149372167839275, 13.719018119210391 ], [ 98.149598782350367, 13.719007235176656 ], [ 98.149823214400413, 13.718974687692661 ], [ 98.149827362857138, 13.718973671777315 ], [ 98.149876312687411, 13.718980770592946 ], [ 98.150102927197977, 13.718991654867912 ], [ 98.150129992632827, 13.718991654882956 ], [ 98.150236896633672, 13.718986520438168 ], [ 98.150239159545691, 13.718357575599491 ] ], [ [ 98.150241111242238, 13.717815103323074 ], [ 98.150240135404559, 13.718086339464287 ], [ 98.149962699515584, 13.718085385267244 ], [ 98.149961723338222, 13.718356621382865 ], [ 98.149684287151914, 13.718355666854841 ], [ 98.149685263647811, 13.718084430758806 ], [ 98.149407827801198, 13.71808347593897 ], [ 98.149408804594415, 13.717812239856514 ], [ 98.149131369087513, 13.717811284744885 ], [ 98.149133323247369, 13.717268812601134 ], [ 98.149410758117284, 13.717269767673566 ], [ 98.14941173484695, 13.716998531573076 ], [ 98.149966604013372, 13.717000440744638 ], [ 98.149965627920679, 13.717271676884305 ], [ 98.150243062854145, 13.71727263102261 ], [ 98.150244038628344, 13.717001394863367 ], [ 98.151076342600248, 13.717004255351325 ], [ 98.151074392941595, 13.71754672778121 ], [ 98.150796957626184, 13.71754577455747 ], [ 98.150795982446638, 13.717817010743838 ], [ 98.150241111242238, 13.717815103323074 ] ], [ [ 98.140853677307319, 13.705305648394365 ], [ 98.1405762571042, 13.705304684540351 ], [ 98.140577243083484, 13.705033448805745 ], [ 98.140854662968437, 13.705034412639964 ], [ 98.140853677307319, 13.705305648394365 ] ], [ [ 98.145841364565172, 13.706950361101503 ], [ 98.145840384482355, 13.707221597169069 ], [ 98.145008116102346, 13.707218721059299 ], [ 98.145009097139834, 13.706947485050796 ], [ 98.145841364565172, 13.706950361101503 ] ], [ [ 98.150529276148546, 13.714832459023786 ], [ 98.150528300862092, 13.715103695250686 ], [ 98.150805733290198, 13.715104648609714 ], [ 98.150804758301021, 13.715375884850172 ], [ 98.15108219106871, 13.715376837917429 ], [ 98.151081216376824, 13.715648074171439 ], [ 98.150803783290698, 13.715647121084617 ], [ 98.150802808259215, 13.715918357313056 ], [ 98.15052537487577, 13.715917403895336 ], [ 98.150524399504704, 13.716188640098197 ], [ 98.149969532164391, 13.716186732289572 ], [ 98.149970508172402, 13.715915496125859 ], [ 98.149693074852451, 13.715914541774106 ], [ 98.149696003704761, 13.715100833305671 ], [ 98.149973436069359, 13.71510178759867 ], [ 98.149974411992687, 13.714830551410916 ], [ 98.150529276148546, 13.714832459023786 ] ], [ [ 98.153024221034158, 13.715383500670953 ], [ 98.153022276087526, 13.715925973446437 ], [ 98.152744842535071, 13.715925022519473 ], [ 98.152746788118606, 13.715382549783014 ], [ 98.153024221034158, 13.715383500670953 ] ], [ [ 98.151639978705717, 13.714565034202565 ], [ 98.151362546851047, 13.71456408181661 ], [ 98.151363521139928, 13.714292845519008 ], [ 98.151640952676203, 13.714293797885416 ], [ 98.151639978705717, 13.714565034202565 ] ], [ [ 98.151086089624798, 13.714291892841297 ], [ 98.151087064210969, 13.714020656557238 ], [ 98.151364495407691, 13.714021609215401 ], [ 98.151363521139928, 13.714292845519008 ], [ 98.151086089624798, 13.714291892841297 ] ], [ [ 98.149701860837553, 13.713473416206527 ], [ 98.149700884701687, 13.713744652404742 ], [ 98.149423453950334, 13.713743697898376 ], [ 98.149424430404579, 13.713472461719752 ], [ 98.149701860837553, 13.713473416206527 ] ], [ [ 98.158325398813943, 13.706993165838636 ], [ 98.158047975367168, 13.706992221467216 ], [ 98.158045077062141, 13.707805932230658 ], [ 98.15832250146363, 13.707806876660252 ], [ 98.15832056979194, 13.708349350511305 ], [ 98.158043144753933, 13.708348406042923 ], [ 98.158039279885926, 13.709433353595385 ], [ 98.157761853595787, 13.709432408738238 ], [ 98.157758953769715, 13.710246119281315 ], [ 98.157481526545652, 13.710245174054757 ], [ 98.157480559576683, 13.710516410871035 ], [ 98.157203132055287, 13.710515465313852 ], [ 98.157202164747019, 13.710786702104707 ], [ 98.156924736928289, 13.710785756216888 ], [ 98.15692570455488, 13.710514519445452 ], [ 98.156370849617048, 13.710512626774994 ], [ 98.156372786080482, 13.709970153291811 ], [ 98.156927639745064, 13.709972045884562 ], [ 98.156928607308657, 13.709700809095104 ], [ 98.157206033854138, 13.709701754905247 ], [ 98.157207968281767, 13.709159281269475 ], [ 98.156930542372862, 13.709158335498168 ], [ 98.156932477353067, 13.708615861877206 ], [ 98.157209902625439, 13.70861680760968 ], [ 98.157212803983512, 13.707803097074935 ], [ 98.157490228322075, 13.707804042437996 ], [ 98.157499894969291, 13.705091673404375 ], [ 98.157777316146692, 13.705092618262228 ], [ 98.15777538362147, 13.705635092155807 ], [ 98.158052805456222, 13.705636036741371 ], [ 98.158048941426912, 13.706720984534057 ], [ 98.15832636455545, 13.706721928886084 ], [ 98.158325398813943, 13.706993165838636 ] ], [ [ 98.15722247381288, 13.705090728235428 ], [ 98.157224407526911, 13.704548254395462 ], [ 98.157501828046975, 13.704549199525587 ], [ 98.157499894969291, 13.705091673404375 ], [ 98.15722247381288, 13.705090728235428 ] ], [ [ 98.146130542599309, 13.703696485647438 ], [ 98.146131522087472, 13.703425249482116 ], [ 98.145854103706128, 13.70342429167656 ], [ 98.145855083491156, 13.703153055524906 ], [ 98.145577665449224, 13.703152097427981 ], [ 98.145578645531103, 13.702880861289998 ], [ 98.145301227828554, 13.702879902901719 ], [ 98.145302208207283, 13.702608666777415 ], [ 98.145579625591708, 13.702609625146007 ], [ 98.145580605631039, 13.702338388996017 ], [ 98.145858022718627, 13.702339347033901 ], [ 98.145857042997406, 13.702610583203578 ], [ 98.146134460424378, 13.702611540950112 ], [ 98.146133481, 13.702882777133455 ], [ 98.146410898766348, 13.702883734588626 ], [ 98.146409919638842, 13.703154970785629 ], [ 98.146687337744567, 13.703155927949428 ], [ 98.146683422294544, 13.704240872756014 ], [ 98.146960841694067, 13.704241829687385 ], [ 98.146950075953484, 13.707225427626163 ], [ 98.146395230175401, 13.707223513019891 ], [ 98.146398168450716, 13.70640980468116 ], [ 98.14612074654822, 13.706408846970318 ], [ 98.146123685586815, 13.705595138636525 ], [ 98.146401106534725, 13.705596096288367 ], [ 98.146407961320051, 13.703697443161612 ], [ 98.146130542599309, 13.703696485647438 ] ], [ [ 98.148893989989006, 13.706689646374011 ], [ 98.148892036845581, 13.707232118947259 ], [ 98.148614613797349, 13.70723116397766 ], [ 98.148616567577236, 13.706688691443633 ], [ 98.148893989989006, 13.706689646374011 ] ], [ [ 98.156675371005846, 13.702918941771022 ], [ 98.156674403648992, 13.703190178691193 ], [ 98.156396984782646, 13.703189232724984 ], [ 98.156397952457638, 13.702917995824242 ], [ 98.156675371005846, 13.702918941771022 ] ] ] ] } },
{ "type": "Feature", "properties": { "zone": "B", "alpha_deg": 15.0, "label": "Within reach only of a channelised flow (alpha 15.0 deg)" }, "geometry": { "type": "Polygon", "coordinates": [ ] } }
]
}
