{"type": "FeatureCollection", "features": [{"type": "Feature", "properties": {"osm_id": 508874067, "building": "yes"}, "geometry": {"type": "Polygon", "coordinates": [[[98.1084707, 13.9784619], [98.1085837, 13.9784141], [98.1085381, 13.9783126], [98.1084251, 13.9783604], [98.1084707, 13.9784619]]]}}, {"type": "Feature", "properties": {"osm_id": 508874068, "building": "yes"}, "geometry": {"type": "Polygon", "coordinates": [[[98.1087014, 13.978061], [98.1087856, 13.9780701], [98.1087963, 13.9779764], [98.1087121, 13.9779673], [98.1087014, 13.978061]]]}}, {"type": "Feature", "properties": {"osm_id": 508874071, "building": "yes"}, "geometry": {"type": "Polygon", "coordinates": [[[98.1092137, 13.9781834], [98.1092898, 13.978164], [98.1092629, 13.978065], [98.1091869, 13.9780845], [98.1092137, 13.9781834]]]}}, {"type": "Feature", "properties": {"osm_id": 508874254, "building": "yes"}, "geometry": {"type": "Polygon", "coordinates": [[[98.1073201, 13.9788913], [98.1073862, 13.9788727], [98.1073621, 13.978792], [98.1072959, 13.9788106], [98.1073201, 13.9788913]]]}}, {"type": "Feature", "properties": {"osm_id": 582864150, "building": "yes"}, "geometry": {"type": "Polygon", "coordinates": [[[98.0687526, 14.0041134], [98.0688344, 14.0041134], [98.0688344, 14.0040458], [98.0687526, 14.0040458], [98.0687526, 14.0041134]]]}}, {"type": "Feature", "properties": {"osm_id": 582864151, "building": "yes"}, "geometry": {"type": "Polygon", "coordinates": [[[98.0692743, 14.003766], [98.0693521, 14.0037985], [98.0693828, 14.0037293], [98.069305, 14.0036968], [98.0692743, 14.003766]]]}}, {"type": "Feature", "properties": {"osm_id": 582864152, "building": "yes"}, "geometry": {"type": "Polygon", "coordinates": [[[98.0699381, 14.0034459], [98.0700132, 14.0034329], [98.0699967, 14.0033432], [98.0699216, 14.0033562], [98.0699381, 14.0034459]]]}}, {"type": "Feature", "properties": {"osm_id": 582864153, "building": "yes"}, "geometry": {"type": "Polygon", "coordinates": [[[98.0691978, 14.0031076], [98.0692743, 14.0031102], [98.0692766, 14.0030468], [98.0692001, 14.0030442], [98.0691978, 14.0031076]]]}}, {"type": "Feature", "properties": {"osm_id": 582864154, "building": "yes"}, "geometry": {"type": "Polygon", "coordinates": [[[98.0688921, 14.0031505], [98.0689806, 14.0031778], [98.0689955, 14.0031323], [98.068907, 14.003105], [98.0688921, 14.0031505]]]}}, {"type": "Feature", "properties": {"osm_id": 582864155, "building": "yes"}, "geometry": {"type": "Polygon", "coordinates": [[[98.0691529, 14.0034544], [98.0692521, 14.003457], [98.0692544, 14.0033754], [98.0691552, 14.0033728], [98.0691529, 14.0034544]]]}}, {"type": "Feature", "properties": {"osm_id": 582864156, "building": "yes"}, "geometry": {"type": "Polygon", "coordinates": [[[98.0690087, 14.0036801], [98.0690773, 14.0036974], [98.0690947, 14.0036324], [98.0690262, 14.0036151], [98.0690087, 14.0036801]]]}}, {"type": "Feature", "properties": {"osm_id": 582864157, "building": "yes"}, "geometry": {"type": "Polygon", "coordinates": [[[98.0689618, 14.0043789], [98.0690396, 14.0043997], [98.0690542, 14.0043481], [98.0689765, 14.0043273], [98.0689618, 14.0043789]]]}}, {"type": "Feature", "properties": {"osm_id": 582864158, "building": "yes"}, "geometry": {"type": "Polygon", "coordinates": [[[98.069234, 14.0043047], [98.0692823, 14.004319], [98.0693034, 14.004252], [98.0692552, 14.0042376], [98.069234, 14.0043047]]]}}, {"type": "Feature", "properties": {"osm_id": 582864159, "building": "yes"}, "geometry": {"type": "Polygon", "coordinates": [[[98.0693809, 14.0052325], [98.069458, 14.0052377], [98.0694624, 14.0051767], [98.0693853, 14.0051715], [98.0693809, 14.0052325]]]}}, {"type": "Feature", "properties": {"osm_id": 582864160, "building": "yes"}, "geometry": {"type": "Polygon", "coordinates": [[[98.0694164, 14.0049963], [98.0695492, 14.0049963], [98.0695492, 14.0049339], [98.0694164, 14.0049339], [98.0694164, 14.0049963]]]}}, {"type": "Feature", "properties": {"osm_id": 582864161, "building": "yes"}, "geometry": {"type": "Polygon", "coordinates": [[[98.0697504, 14.0053034], [98.0698369, 14.0053002], [98.0698344, 14.0052372], [98.0697479, 14.0052405], [98.0697504, 14.0053034]]]}}, {"type": "Feature", "properties": {"osm_id": 582864162, "building": "yes"}, "geometry": {"type": "Polygon", "coordinates": [[[98.0697101, 14.0045637], [98.0697276, 14.0044205], [98.0696407, 14.0044106], [98.0696232, 14.0045537], [98.0697101, 14.0045637]]]}}, {"type": "Feature", "properties": {"osm_id": 582864163, "building": "yes"}, "geometry": {"type": "Polygon", "coordinates": [[[98.0702908, 14.0050555], [98.0703726, 14.0050646], [98.0703822, 14.0049836], [98.0703004, 14.0049745], [98.0702908, 14.0050555]]]}}, {"type": "Feature", "properties": {"osm_id": 582864164, "building": "yes"}, "geometry": {"type": "Polygon", "coordinates": [[[98.0706476, 14.0051831], [98.0707468, 14.0051987], [98.0707593, 14.0051237], [98.0706601, 14.0051081], [98.0706476, 14.0051831]]]}}, {"type": "Feature", "properties": {"osm_id": 582864165, "building": "yes"}, "geometry": {"type": "Polygon", "coordinates": [[[98.0706972, 14.0054459], [98.0708259, 14.0054368], [98.0708203, 14.0053615], [98.0706915, 14.0053706], [98.0706972, 14.0054459]]]}}, {"type": "Feature", "properties": {"osm_id": 582864166, "building": "yes"}, "geometry": {"type": "Polygon", "coordinates": [[[98.0717325, 14.0055695], [98.0718331, 14.0055682], [98.0718319, 14.0054823], [98.0717313, 14.0054836], [98.0717325, 14.0055695]]]}}, {"type": "Feature", "properties": {"osm_id": 582864167, "building": "yes"}, "geometry": {"type": "Polygon", "coordinates": [[[98.0711344, 14.0065988], [98.0712336, 14.0065832], [98.0712137, 14.0064641], [98.0711145, 14.0064797], [98.0711344, 14.0065988]]]}}, {"type": "Feature", "properties": {"osm_id": 582864169, "building": "yes"}, "geometry": {"type": "Polygon", "coordinates": [[[98.0710177, 14.0108017], [98.0711062, 14.0107965], [98.0711027, 14.0107407], [98.0710142, 14.0107459], [98.0710177, 14.0108017]]]}}, {"type": "Feature", "properties": {"osm_id": 582864170, "building": "yes"}, "geometry": {"type": "Polygon", "coordinates": [[[98.0704491, 14.0106599], [98.0704933, 14.010617], [98.0704249, 14.0105506], [98.0703807, 14.0105935], [98.0704491, 14.0106599]]]}}, {"type": "Feature", "properties": {"osm_id": 582864171, "building": "yes"}, "geometry": {"type": "Polygon", "coordinates": [[[98.069977, 14.0107458], [98.0700816, 14.0107458], [98.0700816, 14.0106794], [98.069977, 14.0106794], [98.069977, 14.0107458]]]}}, {"type": "Feature", "properties": {"osm_id": 582864172, "building": "yes"}, "geometry": {"type": "Polygon", "coordinates": [[[98.0700682, 14.009995], [98.070154, 14.0099742], [98.0701381, 14.0099123], [98.0700523, 14.0099331], [98.0700682, 14.009995]]]}}, {"type": "Feature", "properties": {"osm_id": 582864173, "building": "yes"}, "geometry": {"type": "Polygon", "coordinates": [[[98.0696806, 14.0099312], [98.0697584, 14.0099846], [98.0697966, 14.0099322], [98.0697188, 14.0098788], [98.0696806, 14.0099312]]]}}, {"type": "Feature", "properties": {"osm_id": 582864174, "building": "yes"}, "geometry": {"type": "Polygon", "coordinates": [[[98.0698268, 14.0097087], [98.0699073, 14.0096853], [98.0698891, 14.0096266], [98.0698086, 14.00965], [98.0698268, 14.0097087]]]}}, {"type": "Feature", "properties": {"osm_id": 582864175, "building": "yes"}, "geometry": {"type": "Polygon", "coordinates": [[[98.0694714, 14.0093561], [98.0695814, 14.00936], [98.0695852, 14.0092584], [98.0694752, 14.0092545], [98.0694714, 14.0093561]]]}}, {"type": "Feature", "properties": {"osm_id": 582864176, "building": "yes"}, "geometry": {"type": "Polygon", "coordinates": [[[98.0698174, 14.0093977], [98.0699243, 14.0093926], [98.0699176, 14.0092599], [98.0698107, 14.009265], [98.0698174, 14.0093977]]]}}, {"type": "Feature", "properties": {"osm_id": 582864177, "building": "yes"}, "geometry": {"type": "Polygon", "coordinates": [[[98.0697557, 14.0090997], [98.0698442, 14.0091024], [98.0698471, 14.0090104], [98.0697586, 14.0090078], [98.0697557, 14.0090997]]]}}, {"type": "Feature", "properties": {"osm_id": 582864178, "building": "yes"}, "geometry": {"type": "Polygon", "coordinates": [[[98.0694473, 14.0089722], [98.0695626, 14.0089683], [98.0695603, 14.0089029], [98.0694449, 14.0089068], [98.0694473, 14.0089722]]]}}, {"type": "Feature", "properties": {"osm_id": 582864179, "building": "yes"}, "geometry": {"type": "Polygon", "coordinates": [[[98.0697047, 14.0088512], [98.0697624, 14.0088538], [98.0697649, 14.0088022], [98.0697072, 14.0087996], [98.0697047, 14.0088512]]]}}, {"type": "Feature", "properties": {"osm_id": 582864180, "building": "yes"}, "geometry": {"type": "Polygon", "coordinates": [[[98.0694097, 14.0087263], [98.0694088, 14.0088058], [98.0695282, 14.0088071], [98.0695291, 14.0087276], [98.0694097, 14.0087263]]]}}, {"type": "Feature", "properties": {"osm_id": 582864181, "building": "yes"}, "geometry": {"type": "Polygon", "coordinates": [[[98.0694634, 14.0084947], [98.0695309, 14.0085067], [98.069551, 14.0084], [98.0694835, 14.008388], [98.0694634, 14.0084947]]]}}, {"type": "Feature", "properties": {"osm_id": 582864182, "building": "yes"}, "geometry": {"type": "Polygon", "coordinates": [[[98.0694312, 14.0083685], [98.0695479, 14.0083672], [98.069547, 14.0082918], [98.0694303, 14.0082931], [98.0694312, 14.0083685]]]}}, {"type": "Feature", "properties": {"osm_id": 582864183, "building": "yes"}, "geometry": {"type": "Polygon", "coordinates": [[[98.069855, 14.0085728], [98.069859, 14.0084296], [98.0697718, 14.0084273], [98.0697678, 14.0085704], [98.069855, 14.0085728]]]}}, {"type": "Feature", "properties": {"osm_id": 582864184, "building": "yes"}, "geometry": {"type": "Polygon", "coordinates": [[[98.0697088, 14.008267], [98.0697944, 14.0082839], [98.0698105, 14.0082071], [98.0697249, 14.0081902], [98.0697088, 14.008267]]]}}, {"type": "Feature", "properties": {"osm_id": 582864185, "building": "yes"}, "geometry": {"type": "Polygon", "coordinates": [[[98.0697061, 14.0081525], [98.0698094, 14.0081876], [98.0698344, 14.0081184], [98.0697311, 14.0080832], [98.0697061, 14.0081525]]]}}, {"type": "Feature", "properties": {"osm_id": 582864186, "building": "yes"}, "geometry": {"type": "Polygon", "coordinates": [[[98.069753, 14.0080471], [98.0698442, 14.0080679], [98.0698617, 14.0079959], [98.0697705, 14.007975], [98.069753, 14.0080471]]]}}, {"type": "Feature", "properties": {"osm_id": 582864187, "building": "yes"}, "geometry": {"type": "Polygon", "coordinates": [[[98.069796, 14.0079313], [98.0698965, 14.0079443], [98.0699059, 14.0078759], [98.0698054, 14.0078629], [98.069796, 14.0079313]]]}}, {"type": "Feature", "properties": {"osm_id": 582864188, "building": "yes"}, "geometry": {"type": "Polygon", "coordinates": [[[98.0705108, 14.007671], [98.0706008, 14.0077005], [98.070637, 14.0075964], [98.070547, 14.0075669], [98.0705108, 14.007671]]]}}, {"type": "Feature", "properties": {"osm_id": 582864189, "building": "yes"}, "geometry": {"type": "Polygon", "coordinates": [[[98.0707495, 14.0076268], [98.0708361, 14.0076414], [98.0708522, 14.0075516], [98.0707656, 14.007537], [98.0707495, 14.0076268]]]}}, {"type": "Feature", "properties": {"osm_id": 582864190, "building": "yes"}, "geometry": {"type": "Polygon", "coordinates": [[[98.0685407, 14.0072338], [98.0686587, 14.0072572], [98.0686742, 14.007184], [98.0685561, 14.0071605], [98.0685407, 14.0072338]]]}}, {"type": "Feature", "properties": {"osm_id": 582864191, "building": "yes"}, "geometry": {"type": "Polygon", "coordinates": [[[98.0684844, 14.0073978], [98.0686091, 14.0074277], [98.0686308, 14.0073425], [98.0685061, 14.0073125], [98.0684844, 14.0073978]]]}}, {"type": "Feature", "properties": {"osm_id": 582864192, "building": "yes"}, "geometry": {"type": "Polygon", "coordinates": [[[98.0686735, 14.0076203], [98.0687812, 14.0076296], [98.0688, 14.0074267], [98.0686922, 14.0074173], [98.0686735, 14.0076203]]]}}, {"type": "Feature", "properties": {"osm_id": 582864193, "building": "yes"}, "geometry": {"type": "Polygon", "coordinates": [[[98.0689672, 14.0070399], [98.0690557, 14.0070477], [98.0690622, 14.0069783], [98.0689737, 14.0069705], [98.0689672, 14.0070399]]]}}, {"type": "Feature", "properties": {"osm_id": 582864194, "building": "yes"}, "geometry": {"type": "Polygon", "coordinates": [[[98.0693118, 14.0066196], [98.0693689, 14.0066252], [98.069377, 14.0065471], [98.0693199, 14.0065415], [98.0693118, 14.0066196]]]}}, {"type": "Feature", "properties": {"osm_id": 582864195, "building": "yes"}, "geometry": {"type": "Polygon", "coordinates": [[[98.0693883, 14.0066352], [98.0694821, 14.0066378], [98.0694843, 14.0065658], [98.0693904, 14.0065632], [98.0693883, 14.0066352]]]}}, {"type": "Feature", "properties": {"osm_id": 582864196, "building": "yes"}, "geometry": {"type": "Polygon", "coordinates": [[[98.0696525, 14.0069254], [98.0697463, 14.0069163], [98.0697404, 14.0068588], [98.0696465, 14.0068679], [98.0696525, 14.0069254]]]}}, {"type": "Feature", "properties": {"osm_id": 582864197, "building": "yes"}, "geometry": {"type": "Polygon", "coordinates": [[[98.0694808, 14.0070998], [98.0695868, 14.0070959], [98.0695833, 14.0070075], [98.0694773, 14.0070114], [98.0694808, 14.0070998]]]}}, {"type": "Feature", "properties": {"osm_id": 582864198, "building": "yes"}, "geometry": {"type": "Polygon", "coordinates": [[[98.0696981, 14.007334], [98.0697474, 14.0073357], [98.0697527, 14.00719], [98.0697034, 14.0071883], [98.0696981, 14.007334]]]}}, {"type": "Feature", "properties": {"osm_id": 582864199, "building": "yes"}, "geometry": {"type": "Polygon", "coordinates": [[[98.0697649, 14.0073246], [98.0698681, 14.0073336], [98.0698747, 14.0072618], [98.0697715, 14.0072528], [98.0697649, 14.0073246]]]}}, {"type": "Feature", "properties": {"osm_id": 582864200, "building": "yes"}, "geometry": {"type": "Polygon", "coordinates": [[[98.0698751, 14.0072195], [98.069968, 14.0072226], [98.0699733, 14.007073], [98.0698805, 14.0070698], [98.0698751, 14.0072195]]]}}, {"type": "Feature", "properties": {"osm_id": 582864201, "building": "yes"}, "geometry": {"type": "Polygon", "coordinates": [[[98.070036, 14.007049], [98.0701272, 14.0071037], [98.0701714, 14.0070343], [98.0700802, 14.0069796], [98.070036, 14.007049]]]}}, {"type": "Feature", "properties": {"osm_id": 582864202, "building": "yes"}, "geometry": {"type": "Polygon", "coordinates": [[[98.0700655, 14.0074108], [98.0701473, 14.0074433], [98.0701684, 14.0073935], [98.0700866, 14.007361], [98.0700655, 14.0074108]]]}}, {"type": "Feature", "properties": {"osm_id": 582864203, "building": "yes"}, "geometry": {"type": "Polygon", "coordinates": [[[98.069918, 14.0075305], [98.0699899, 14.0075388], [98.0700034, 14.0074295], [98.0699314, 14.0074212], [98.069918, 14.0075305]]]}}, {"type": "Feature", "properties": {"osm_id": 582864204, "building": "yes"}, "geometry": {"type": "Polygon", "coordinates": [[[98.0698483, 14.0075383], [98.0698617, 14.0074329], [98.0698113, 14.0074269], [98.0697979, 14.0075323], [98.0698483, 14.0075383]]]}}, {"type": "Feature", "properties": {"osm_id": 582864205, "building": "yes"}, "geometry": {"type": "Polygon", "coordinates": [[[98.0697182, 14.0075266], [98.0697767, 14.0075331], [98.0697901, 14.0074199], [98.0697316, 14.0074134], [98.0697182, 14.0075266]]]}}, {"type": "Feature", "properties": {"osm_id": 582864206, "building": "yes"}, "geometry": {"type": "Polygon", "coordinates": [[[98.0697249, 14.0076398], [98.0698268, 14.0076489], [98.0698321, 14.0075929], [98.0697302, 14.0075838], [98.0697249, 14.0076398]]]}}, {"type": "Feature", "properties": {"osm_id": 582864207, "building": "yes"}, "geometry": {"type": "Polygon", "coordinates": [[[98.0697343, 14.0077608], [98.069859, 14.0077738], [98.0698694, 14.0076795], [98.0697447, 14.0076665], [98.0697343, 14.0077608]]]}}, {"type": "Feature", "properties": {"osm_id": 582864208, "building": "yes"}, "geometry": {"type": "Polygon", "coordinates": [[[98.0699529, 14.0080783], [98.0700171, 14.008097], [98.0700412, 14.0080189], [98.069977, 14.0080002], [98.0699529, 14.0080783]]]}}, {"type": "Feature", "properties": {"osm_id": 582864209, "building": "yes"}, "geometry": {"type": "Polygon", "coordinates": [[[98.0708125, 14.008483], [98.0709049, 14.0084766], [98.0708968, 14.008366], [98.0708045, 14.0083724], [98.0708125, 14.008483]]]}}, {"type": "Feature", "properties": {"osm_id": 582864210, "building": "yes"}, "geometry": {"type": "Polygon", "coordinates": [[[98.0704692, 14.0086912], [98.0705403, 14.0087315], [98.0705685, 14.0086846], [98.0704975, 14.0086443], [98.0704692, 14.0086912]]]}}, {"type": "Feature", "properties": {"osm_id": 582864211, "building": "yes"}, "geometry": {"type": "Polygon", "coordinates": [[[98.070201, 14.0090074], [98.0703014, 14.0090404], [98.0703523, 14.0088947], [98.0702519, 14.0088616], [98.070201, 14.0090074]]]}}, {"type": "Feature", "properties": {"osm_id": 582864212, "building": "yes"}, "geometry": {"type": "Polygon", "coordinates": [[[98.0706583, 14.0089774], [98.0707006, 14.009012], [98.0707582, 14.0089457], [98.070716, 14.0089111], [98.0706583, 14.0089774]]]}}, {"type": "Feature", "properties": {"osm_id": 582864213, "building": "yes"}, "geometry": {"type": "Polygon", "coordinates": [[[98.0703954, 14.0088968], [98.0705309, 14.0089449], [98.0705608, 14.0088658], [98.0704253, 14.0088176], [98.0703954, 14.0088968]]]}}, {"type": "Feature", "properties": {"osm_id": 582864214, "building": "yes"}, "geometry": {"type": "Polygon", "coordinates": [[[98.0703673, 14.0090542], [98.0704866, 14.0090945], [98.0705194, 14.0090033], [98.0704, 14.008963], [98.0703673, 14.0090542]]]}}, {"type": "Feature", "properties": {"osm_id": 582864215, "building": "yes"}, "geometry": {"type": "Polygon", "coordinates": [[[98.0703418, 14.009239], [98.070555, 14.0092832], [98.0705735, 14.0091994], [98.0703603, 14.0091552], [98.0703418, 14.009239]]]}}, {"type": "Feature", "properties": {"osm_id": 582864216, "building": "yes"}, "geometry": {"type": "Polygon", "coordinates": [[[98.0708688, 14.0096189], [98.07096, 14.0096163], [98.0709578, 14.009542], [98.0708666, 14.0095446], [98.0708688, 14.0096189]]]}}, {"type": "Feature", "properties": {"osm_id": 582864217, "building": "yes"}, "geometry": {"type": "Polygon", "coordinates": [[[98.0712819, 14.0096762], [98.0713382, 14.0096853], [98.0713457, 14.009642], [98.0712893, 14.0096329], [98.0712819, 14.0096762]]]}}, {"type": "Feature", "properties": {"osm_id": 582864218, "building": "yes"}, "geometry": {"type": "Polygon", "coordinates": [[[98.0725546, 14.0116592], [98.0726257, 14.0116592], [98.0726257, 14.0115812], [98.0725546, 14.0115812], [98.0725546, 14.0116592]]]}}, {"type": "Feature", "properties": {"osm_id": 582864219, "building": "yes"}, "geometry": {"type": "Polygon", "coordinates": [[[98.0728792, 14.0097946], [98.0729757, 14.0097933], [98.072974, 14.0096707], [98.0728774, 14.009672], [98.0728792, 14.0097946]]]}}, {"type": "Feature", "properties": {"osm_id": 582864220, "building": "yes"}, "geometry": {"type": "Polygon", "coordinates": [[[98.073476, 14.010911], [98.0735505, 14.010977], [98.0736471, 14.0108742], [98.0735725, 14.0108082], [98.073476, 14.010911]]]}}, {"type": "Feature", "properties": {"osm_id": 582864221, "building": "yes"}, "geometry": {"type": "Polygon", "coordinates": [[[98.0726337, 14.0105935], [98.0727015, 14.0106709], [98.072782, 14.0106046], [98.0727142, 14.0105272], [98.0726337, 14.0105935]]]}}, {"type": "Feature", "properties": {"osm_id": 582864222, "building": "yes"}, "geometry": {"type": "Polygon", "coordinates": [[[98.0723655, 14.0106274], [98.0724728, 14.0105922], [98.0724443, 14.0105104], [98.0723371, 14.0105455], [98.0723655, 14.0106274]]]}}, {"type": "Feature", "properties": {"osm_id": 582864223, "building": "yes"}, "geometry": {"type": "Polygon", "coordinates": [[[98.072104, 14.0108837], [98.0721925, 14.0108887], [98.0721978, 14.0107989], [98.0721094, 14.0107939], [98.072104, 14.0108837]]]}}, {"type": "Feature", "properties": {"osm_id": 582864224, "building": "yes"}, "geometry": {"type": "Polygon", "coordinates": [[[98.0715287, 14.0111361], [98.071648, 14.0111557], [98.0716584, 14.0110961], [98.071539, 14.0110766], [98.0715287, 14.0111361]]]}}, {"type": "Feature", "properties": {"osm_id": 582864225, "building": "yes"}, "geometry": {"type": "Polygon", "coordinates": [[[98.0711009, 14.0119897], [98.0711907, 14.0119858], [98.0711877, 14.0119203], [98.0710978, 14.0119243], [98.0711009, 14.0119897]]]}}, {"type": "Feature", "properties": {"osm_id": 582864226, "building": "yes"}, "geometry": {"type": "Polygon", "coordinates": [[[98.0715233, 14.0122545], [98.0716031, 14.0122519], [98.071601, 14.0121917], [98.0715212, 14.0121943], [98.0715233, 14.0122545]]]}}, {"type": "Feature", "properties": {"osm_id": 582864227, "building": "yes"}, "geometry": {"type": "Polygon", "coordinates": [[[98.0711887, 14.0123118], [98.0712846, 14.0122981], [98.0712743, 14.0122304], [98.0711785, 14.0122441], [98.0711887, 14.0123118]]]}}, {"type": "Feature", "properties": {"osm_id": 582864228, "building": "yes"}, "geometry": {"type": "Polygon", "coordinates": [[[98.0705215, 14.0113339], [98.0706006, 14.0113365], [98.0706039, 14.0112435], [98.0705248, 14.0112409], [98.0705215, 14.0113339]]]}}, {"type": "Feature", "properties": {"osm_id": 582864229, "building": "yes"}, "geometry": {"type": "Polygon", "coordinates": [[[98.0700561, 14.0111856], [98.0701379, 14.0111947], [98.0701462, 14.0111249], [98.0700644, 14.0111158], [98.0700561, 14.0111856]]]}}, {"type": "Feature", "properties": {"osm_id": 582864230, "addr:city": "Panyit", "addr:street": "Main Street", "amenity": "restaurant", "building": "house", "cuisine": "regional;burmese;asian;tea_leaf_salad;snacks;coffee;tea", "name": "Mango Restaurant", "opening_hours": "sunrise-sunset"}, "geometry": {"type": "Polygon", "coordinates": [[[98.0700092, 14.0113717], [98.0700722, 14.011373], [98.0700732, 14.0113284], [98.0700102, 14.0113271], [98.0700092, 14.0113717]]]}}, {"type": "Feature", "properties": {"osm_id": 582864231, "building": "yes"}, "geometry": {"type": "Polygon", "coordinates": [[[98.0699797, 14.0113209], [98.0701084, 14.0113183], [98.0701072, 14.0112583], [98.0699784, 14.0112609], [98.0699797, 14.0113209]]]}}, {"type": "Feature", "properties": {"osm_id": 582864232, "building": "yes"}, "geometry": {"type": "Polygon", "coordinates": [[[98.0702399, 14.0115655], [98.0703096, 14.0115773], [98.0703226, 14.0115046], [98.0702528, 14.0114929], [98.0702399, 14.0115655]]]}}, {"type": "Feature", "properties": {"osm_id": 582864233, "building": "yes"}, "geometry": {"type": "Polygon", "coordinates": [[[98.0708165, 14.0115681], [98.0709198, 14.0115655], [98.0709168, 14.0114539], [98.0708136, 14.0114565], [98.0708165, 14.0115681]]]}}, {"type": "Feature", "properties": {"osm_id": 582864234, "building": "yes"}, "geometry": {"type": "Polygon", "coordinates": [[[98.0707314, 14.0119409], [98.0707944, 14.0119526], [98.0708067, 14.0118905], [98.0707437, 14.0118788], [98.0707314, 14.0119409]]]}}, {"type": "Feature", "properties": {"osm_id": 582864235, "building": "yes"}, "geometry": {"type": "Polygon", "coordinates": [[[98.0705168, 14.0119676], [98.070611, 14.0119712], [98.0706144, 14.0118879], [98.0705202, 14.0118843], [98.0705168, 14.0119676]]]}}, {"type": "Feature", "properties": {"osm_id": 582864236, "building": "yes"}, "geometry": {"type": "Polygon", "coordinates": [[[98.0701574, 14.0119748], [98.0702003, 14.0119806], [98.0702041, 14.0119546], [98.0701612, 14.0119487], [98.0701574, 14.0119748]]]}}, {"type": "Feature", "properties": {"osm_id": 582864237, "building": "yes"}, "geometry": {"type": "Polygon", "coordinates": [[[98.070144, 14.0119344], [98.0702198, 14.0119455], [98.0702274, 14.0118959], [98.0701517, 14.0118848], [98.070144, 14.0119344]]]}}, {"type": "Feature", "properties": {"osm_id": 582864238, "building": "yes"}, "geometry": {"type": "Polygon", "coordinates": [[[98.069916, 14.0117353], [98.0699938, 14.0117406], [98.0699972, 14.0116923], [98.0699194, 14.0116871], [98.069916, 14.0117353]]]}}, {"type": "Feature", "properties": {"osm_id": 582864239, "building": "yes"}, "geometry": {"type": "Polygon", "coordinates": [[[98.069914, 14.0119513], [98.0699428, 14.0118791], [98.0698805, 14.0118557], [98.0698516, 14.0119279], [98.069914, 14.0119513]]]}}, {"type": "Feature", "properties": {"osm_id": 582864240, "building": "yes"}, "geometry": {"type": "Polygon", "coordinates": [[[98.0698208, 14.0120984], [98.0698851, 14.0121075], [98.0698959, 14.012036], [98.0698315, 14.0120269], [98.0698208, 14.0120984]]]}}, {"type": "Feature", "properties": {"osm_id": 582864241, "building": "yes"}, "geometry": {"type": "Polygon", "coordinates": [[[98.0697242, 14.0122688], [98.069796, 14.0122695], [98.0697964, 14.0122234], [98.0697247, 14.0122227], [98.0697242, 14.0122688]]]}}, {"type": "Feature", "properties": {"osm_id": 582864242, "building": "yes"}, "geometry": {"type": "Polygon", "coordinates": [[[98.0699307, 14.0123846], [98.0699796, 14.0123868], [98.069983, 14.0123146], [98.0699341, 14.0123124], [98.0699307, 14.0123846]]]}}, {"type": "Feature", "properties": {"osm_id": 582864243, "building": "yes"}, "geometry": {"type": "Polygon", "coordinates": [[[98.0700226, 14.012384], [98.0700266, 14.0123267], [98.069988, 14.0123242], [98.0699839, 14.0123814], [98.0700226, 14.012384]]]}}, {"type": "Feature", "properties": {"osm_id": 582864244, "building": "yes"}, "geometry": {"type": "Polygon", "coordinates": [[[98.069403, 14.0122103], [98.0694426, 14.0122279], [98.0694758, 14.0121574], [98.0694362, 14.0121399], [98.069403, 14.0122103]]]}}, {"type": "Feature", "properties": {"osm_id": 582864245, "building": "yes"}, "geometry": {"type": "Polygon", "coordinates": [[[98.0689906, 14.0111973], [98.0690711, 14.0111778], [98.0690552, 14.0111159], [98.0689747, 14.0111355], [98.0689906, 14.0111973]]]}}, {"type": "Feature", "properties": {"osm_id": 582864246, "building": "yes"}, "geometry": {"type": "Polygon", "coordinates": [[[98.0685769, 14.0114309], [98.0686694, 14.0114263], [98.0686659, 14.0113592], [98.0685734, 14.0113638], [98.0685769, 14.0114309]]]}}, {"type": "Feature", "properties": {"osm_id": 582864247, "building": "yes"}, "geometry": {"type": "Polygon", "coordinates": [[[98.0685823, 14.0118804], [98.0686855, 14.0118687], [98.0686763, 14.0117924], [98.0685731, 14.0118041], [98.0685823, 14.0118804]]]}}, {"type": "Feature", "properties": {"osm_id": 582864248, "building": "yes"}, "geometry": {"type": "Polygon", "coordinates": [[[98.0690175, 14.0121752], [98.0690999, 14.0121745], [98.0690994, 14.0121089], [98.0690169, 14.0121096], [98.0690175, 14.0121752]]]}}, {"type": "Feature", "properties": {"osm_id": 1564097333, "building": "yes"}, "geometry": {"type": "Polygon", "coordinates": [[[98.0630833, 13.9795913], [98.0630761, 13.9795321], [98.063211, 13.9795169], [98.0632181, 13.979576], [98.0630833, 13.9795913]]]}}, {"type": "Feature", "properties": {"osm_id": 1564097334, "building": "yes"}, "geometry": {"type": "Polygon", "coordinates": [[[98.0629761, 13.97983], [98.0629734, 13.9797345], [98.0631453, 13.97973], [98.0631469, 13.9797908], [98.0631216, 13.9797915], [98.0631226, 13.9798262], [98.0629761, 13.97983]]]}}, {"type": "Feature", "properties": {"osm_id": 1564097335, "building": "yes"}, "geometry": {"type": "Polygon", "coordinates": [[[98.0627897, 13.9796386], [98.0627855, 13.9795967], [98.0628536, 13.9795901], [98.0628579, 13.9796321], [98.0627897, 13.9796386]]]}}, {"type": "Feature", "properties": {"osm_id": 1564097336, "building": "yes"}, "geometry": {"type": "Polygon", "coordinates": [[[98.0632611, 13.979562], [98.0632545, 13.9794582], [98.0633035, 13.9794553], [98.0633109, 13.9795718], [98.0632611, 13.979562]]]}}, {"type": "Feature", "properties": {"osm_id": 1564097337, "building": "yes"}, "geometry": {"type": "Polygon", "coordinates": [[[98.0634588, 13.9796606], [98.0634552, 13.9796266], [98.0635318, 13.979619], [98.0635354, 13.979653], [98.0634588, 13.9796606]]]}}, {"type": "Feature", "properties": {"osm_id": 1564097338, "building": "yes"}, "geometry": {"type": "Polygon", "coordinates": [[[98.0630375, 13.9794343], [98.0630373, 13.9793322], [98.063218, 13.9793318], [98.0632182, 13.9794339], [98.0630375, 13.9794343]]]}}, {"type": "Feature", "properties": {"osm_id": 1564097339, "building": "yes"}, "geometry": {"type": "Polygon", "coordinates": [[[98.0621291, 13.9801195], [98.0621653, 13.9801374], [98.0621271, 13.9802102], [98.0620909, 13.9801922], [98.0621291, 13.9801195]]]}}, {"type": "Feature", "properties": {"osm_id": 1564414096, "building": "yes"}, "geometry": {"type": "Polygon", "coordinates": [[[98.0978132, 13.9866172], [98.0978597, 13.9865667], [98.097815, 13.986528], [98.0977686, 13.9865786], [98.0978132, 13.9866172]]]}}, {"type": "Feature", "properties": {"osm_id": 1564414097, "building": "yes"}, "geometry": {"type": "Polygon", "coordinates": [[[98.1012102, 13.9853409], [98.1011943, 13.9852786], [98.1012399, 13.9852677], [98.1012557, 13.98533], [98.1012102, 13.9853409]]]}}, {"type": "Feature", "properties": {"osm_id": 1564414098, "building": "yes"}, "geometry": {"type": "Polygon", "coordinates": [[[98.0999523, 13.9848996], [98.0999482, 13.9848533], [98.0999955, 13.9848493], [98.0999996, 13.9848957], [98.0999523, 13.9848996]]]}}, {"type": "Feature", "properties": {"osm_id": 1564414099, "building": "yes"}, "geometry": {"type": "Polygon", "coordinates": [[[98.1058027, 13.9839838], [98.1057788, 13.983882], [98.1059101, 13.983853], [98.105934, 13.9839548], [98.1058027, 13.9839838]]]}}, {"type": "Feature", "properties": {"osm_id": 1564414100, "building": "yes"}, "geometry": {"type": "Polygon", "coordinates": [[[98.1075709, 13.9790939], [98.1075088, 13.9789841], [98.1074458, 13.9790177], [98.1075078, 13.9791275], [98.1075709, 13.9790939]]]}}, {"type": "Feature", "properties": {"osm_id": 1564414101, "building": "yes"}, "geometry": {"type": "Polygon", "coordinates": [[[98.1067202, 13.9787151], [98.1066944, 13.9786282], [98.1066463, 13.9786417], [98.1066721, 13.9787285], [98.1067202, 13.9787151]]]}}, {"type": "Feature", "properties": {"osm_id": 1564414102, "building": "yes"}, "geometry": {"type": "Polygon", "coordinates": [[[98.1067622, 13.9787123], [98.1067466, 13.9786531], [98.1067986, 13.9786402], [98.1068141, 13.9786994], [98.1067622, 13.9787123]]]}}, {"type": "Feature", "properties": {"osm_id": 1564414103, "building": "yes"}, "geometry": {"type": "Polygon", "coordinates": [[[98.1062514, 13.9799104], [98.1061948, 13.9798588], [98.1062373, 13.9798148], [98.106294, 13.9798664], [98.1062514, 13.9799104]]]}}, {"type": "Feature", "properties": {"osm_id": 1564414108, "building": "yes"}, "geometry": {"type": "Polygon", "coordinates": [[[98.1032743, 13.9758094], [98.103237, 13.9757618], [98.1032792, 13.9757307], [98.1033165, 13.9757782], [98.1032743, 13.9758094]]]}}, {"type": "Feature", "properties": {"osm_id": 1564414109, "building": "yes"}, "geometry": {"type": "Polygon", "coordinates": [[[98.1065208, 13.9804405], [98.1065113, 13.9803952], [98.1065577, 13.9803861], [98.1065672, 13.9804314], [98.1065208, 13.9804405]]]}}, {"type": "Feature", "properties": {"osm_id": 1564454252, "building": "yes"}, "geometry": {"type": "Polygon", "coordinates": [[[98.0622901, 14.0135038], [98.0622915, 14.0133814], [98.062222, 14.0133807], [98.0622207, 14.0135031], [98.0622901, 14.0135038]]]}}, {"type": "Feature", "properties": {"osm_id": 1564454253, "building": "yes"}, "geometry": {"type": "Polygon", "coordinates": [[[98.0625479, 14.0119275], [98.0628448, 14.011924], [98.0628435, 14.0118232], [98.0625466, 14.0118267], [98.0625479, 14.0119275]]]}}, {"type": "Feature", "properties": {"osm_id": 1564752244, "building": "yes"}, "geometry": {"type": "Polygon", "coordinates": [[[98.0626058, 13.9783473], [98.0626649, 13.9782899], [98.0627549, 13.9783772], [98.0626958, 13.9784346], [98.0626058, 13.9783473]]]}}, {"type": "Feature", "properties": {"osm_id": 1564752245, "building": "yes"}, "geometry": {"type": "Polygon", "coordinates": [[[98.0627456, 13.9783289], [98.0627829, 13.9783006], [98.0628193, 13.9783458], [98.062782, 13.9783741], [98.0627456, 13.9783289]]]}}, {"type": "Feature", "properties": {"osm_id": 1564752246, "building": "yes"}, "geometry": {"type": "Polygon", "coordinates": [[[98.0628077, 13.9782899], [98.0628249, 13.97827], [98.0628491, 13.9782897], [98.0628318, 13.9783097], [98.0628077, 13.9782899]]]}}, {"type": "Feature", "properties": {"osm_id": 1564752247, "building": "yes"}, "geometry": {"type": "Polygon", "coordinates": [[[98.0641744, 13.9791276], [98.064171, 13.9790633], [98.0643043, 13.9790568], [98.0643076, 13.9791211], [98.0641744, 13.9791276]]]}}]}