{
"type": "FeatureCollection",
"name": "buildings",
"crs": { "type": "name", "properties": { "name": "urn:ogc:def:crs:OGC:1.3:CRS84" } },
"features": [
{ "type": "Feature", "properties": { "bid": "PGZ-B0000", "source": "OSM", "src_id": "504989232", "area_m2": 74.1, "overlap": 0.0, "overlap_outwash": 0.0, "dist_m": 115.3, "landslide": "", "f_veg": 0.445, "f_soil": 0.0, "f_grey": 0.555, "f_dark": 0.0, "status": "clear", "status_auto": "clear", "note": "", "reach": "A" }, "geometry": { "type": "Polygon", "coordinates": [ [ [ 98.166273334663487, 13.707504557320778 ], [ 98.16636583466105, 13.707492157311954 ], [ 98.166356534654653, 13.707426457312442 ], [ 98.166264034657132, 13.707438857321268 ], [ 98.166273334663487, 13.707504557320778 ] ] ] } },
{ "type": "Feature", "properties": { "bid": "PGZ-B0001", "source": "OSM", "src_id": "504989233", "area_m2": 38.9, "overlap": 0.0, "overlap_outwash": 0.0, "dist_m": 151.8, "landslide": "", "f_veg": 0.707, "f_soil": 0.009, "f_grey": 0.281, "f_dark": 0.003, "status": "clear", "status_auto": "clear", "note": "", "reach": "A" }, "geometry": { "type": "Polygon", "coordinates": [ [ [ 98.166588534698803, 13.707903257293315 ], [ 98.166653534702263, 13.707946957287422 ], [ 98.166677634698601, 13.707913057284941 ], [ 98.166612534695147, 13.707869457290844 ], [ 98.166588534698803, 13.707903257293315 ] ] ] } },
{ "type": "Feature", "properties": { "bid": "PGZ-B0002", "source": "OSM", "src_id": "504989234", "area_m2": 74.0, "overlap": 0.0, "overlap_outwash": 0.0, "dist_m": 143.1, "landslide": "", "f_veg": 0.06, "f_soil": 0.842, "f_grey": 0.088, "f_dark": 0.009, "status": "clear", "status_auto": "clear", "note": "", "reach": "A" }, "geometry": { "type": "Polygon", "coordinates": [ [ [ 98.166483234711094, 13.708013357303933 ], [ 98.166575734715806, 13.708073257295533 ], [ 98.16660753471082, 13.708026957292249 ], [ 98.166515034706094, 13.707967057300648 ], [ 98.166483234711094, 13.708013357303933 ] ] ] } },
{ "type": "Feature", "properties": { "bid": "PGZ-B0003", "source": "OSM", "src_id": "505121427", "area_m2": 91.0, "overlap": 0.0, "overlap_outwash": 0.0, "dist_m": 314.1, "landslide": "", "f_veg": 0.0, "f_soil": 0.383, "f_grey": 0.519, "f_dark": 0.099, "status": "clear", "status_auto": "clear", "note": "", "reach": "A" }, "geometry": { "type": "Polygon", "coordinates": [ [ [ 98.168128734048452, 13.701538457109852 ], [ 98.168199834053055, 13.701594557103455 ], [ 98.168253734045948, 13.701529957097971 ], [ 98.168182634041344, 13.701473957104366 ], [ 98.168128734048452, 13.701538457109852 ] ] ] } },
{ "type": "Feature", "properties": { "bid": "PGZ-B0004", "source": "OSM", "src_id": "505121428", "area_m2": 79.7, "overlap": 0.0, "overlap_outwash": 0.0, "dist_m": 285.5, "landslide": "", "f_veg": 0.133, "f_soil": 0.421, "f_grey": 0.42, "f_dark": 0.026, "status": "clear", "status_auto": "clear", "note": "", "reach": "A" }, "geometry": { "type": "Polygon", "coordinates": [ [ [ 98.167989334075557, 13.701793857124548 ], [ 98.168083134078842, 13.701839457115945 ], [ 98.168112434072825, 13.70178265711284 ], [ 98.16801853406956, 13.701737057121449 ], [ 98.167989334075557, 13.701793857124548 ] ] ] } },
{ "type": "Feature", "properties": { "bid": "PGZ-B0005", "source": "OSM", "src_id": "505121429", "area_m2": 59.7, "overlap": 0.0, "overlap_outwash": 0.0, "dist_m": 273.8, "landslide": "", "f_veg": 0.002, "f_soil": 0.0, "f_grey": 0.998, "f_dark": 0.0, "status": "clear", "status_auto": "clear", "note": "", "reach": "A" }, "geometry": { "type": "Polygon", "coordinates": [ [ [ 98.167923534086356, 13.701894157131367 ], [ 98.168016134089513, 13.701938457122871 ], [ 98.168038134084938, 13.701895057120534 ], [ 98.167945634081775, 13.701850757129023 ], [ 98.167923534086356, 13.701894157131367 ] ] ] } },
{ "type": "Feature", "properties": { "bid": "PGZ-B0006", "source": "OSM", "src_id": "505121430", "area_m2": 107.9, "overlap": 0.0, "overlap_outwash": 0.0, "dist_m": 293.2, "landslide": "", "f_veg": 0.541, "f_soil": 0.396, "f_grey": 0.062, "f_dark": 0.002, "status": "clear", "status_auto": "clear", "note": "", "reach": "A" }, "geometry": { "type": "Polygon", "coordinates": [ [ [ 98.167601734071667, 13.701702657160672 ], [ 98.167690234075138, 13.70174955715258 ], [ 98.167734334066765, 13.701670957147938 ], [ 98.167645834063293, 13.701624057156039 ], [ 98.167601734071667, 13.701702657160672 ] ] ] } },
{ "type": "Feature", "properties": { "bid": "PGZ-B0007", "source": "OSM", "src_id": "505121431", "area_m2": 177.2, "overlap": 0.0, "overlap_outwash": 0.0, "dist_m": 264.2, "landslide": "", "f_veg": 0.139, "f_soil": 0.198, "f_grey": 0.629, "f_dark": 0.034, "status": "clear", "status_auto": "clear", "note": "", "reach": "A" }, "geometry": { "type": "Polygon", "coordinates": [ [ [ 98.167361634100487, 13.701961957184919 ], [ 98.167433634104526, 13.702012357178415 ], [ 98.167534134089806, 13.701876857168102 ], [ 98.167462234085761, 13.701826457174606 ], [ 98.167361634100487, 13.701961957184919 ] ] ] } },
{ "type": "Feature", "properties": { "bid": "PGZ-B0008", "source": "OSM", "src_id": "505121432", "area_m2": 95.7, "overlap": 0.0, "overlap_outwash": 0.0, "dist_m": 238.6, "landslide": "", "f_veg": 0.025, "f_soil": 0.014, "f_grey": 0.96, "f_dark": 0.0, "status": "clear", "status_auto": "clear", "note": "", "reach": "A" }, "geometry": { "type": "Polygon", "coordinates": [ [ [ 98.167208734125339, 13.702192557200757 ], [ 98.167299934129161, 13.702243357192431 ], [ 98.167338934122114, 13.702177357188349 ], [ 98.167247734118291, 13.702126557196676 ], [ 98.167208734125339, 13.702192557200757 ] ] ] } },
{ "type": "Feature", "properties": { "bid": "PGZ-B0009", "source": "OSM", "src_id": "505121433", "area_m2": 93.6, "overlap": 0.0, "overlap_outwash": 0.0, "dist_m": 232.5, "landslide": "", "f_veg": 0.003, "f_soil": 0.0, "f_grey": 0.996, "f_dark": 0.001, "status": "clear", "status_auto": "clear", "note": "", "reach": "A" }, "geometry": { "type": "Polygon", "coordinates": [ [ [ 98.167070634133992, 13.702261657214228 ], [ 98.167163134137041, 13.702304657205733 ], [ 98.167197034129785, 13.702235857202117 ], [ 98.167104534126736, 13.702192857210617 ], [ 98.167070634133992, 13.702261657214228 ] ] ] } },
{ "type": "Feature", "properties": { "bid": "PGZ-B0010", "source": "OSM", "src_id": "505121434", "area_m2": 72.5, "overlap": 0.0, "overlap_outwash": 0.0, "dist_m": 217.0, "landslide": "", "f_veg": 0.744, "f_soil": 0.256, "f_grey": 0.001, "f_dark": 0.0, "status": "clear", "status_auto": "clear", "note": "", "reach": "A" }, "geometry": { "type": "Polygon", "coordinates": [ [ [ 98.167017034151073, 13.702427057220284 ], [ 98.167114934151982, 13.702449257211153 ], [ 98.167128934145978, 13.702390457209479 ], [ 98.167031034145083, 13.70236835721861 ], [ 98.167017034151073, 13.702427057220284 ] ] ] } },
{ "type": "Feature", "properties": { "bid": "PGZ-B0011", "source": "OSM", "src_id": "505121435", "area_m2": 91.6, "overlap": 0.0, "overlap_outwash": 0.0, "dist_m": 197.8, "landslide": "", "f_veg": 0.066, "f_soil": 0.0, "f_grey": 0.898, "f_dark": 0.036, "status": "clear", "status_auto": "clear", "note": "", "reach": "A" }, "geometry": { "type": "Polygon", "coordinates": [ [ [ 98.166980734168192, 13.702595157224714 ], [ 98.167078634170139, 13.702627757215646 ], [ 98.167103334162874, 13.702557757212892 ], [ 98.167005434160941, 13.702525157221961 ], [ 98.166980734168192, 13.702595157224714 ] ] ] } },
{ "type": "Feature", "properties": { "bid": "PGZ-B0012", "source": "OSM", "src_id": "505121436", "area_m2": 52.6, "overlap": 0.0, "overlap_outwash": 0.0, "dist_m": 142.1, "landslide": "", "f_veg": 0.0, "f_soil": 0.217, "f_grey": 0.745, "f_dark": 0.038, "status": "clear", "status_auto": "clear", "note": "", "reach": "A" }, "geometry": { "type": "Polygon", "coordinates": [ [ [ 98.166894934226193, 13.703169757236241 ], [ 98.166956634224988, 13.703165857230379 ], [ 98.166951834218025, 13.703094857230411 ], [ 98.16689013421923, 13.703098757236274 ], [ 98.166894934226193, 13.703169757236241 ] ] ] } },
{ "type": "Feature", "properties": { "bid": "PGZ-B0013", "source": "OSM", "src_id": "505121437", "area_m2": 53.4, "overlap": 0.0, "overlap_outwash": 0.0, "dist_m": 127.4, "landslide": "", "f_veg": 0.0, "f_soil": 0.141, "f_grey": 0.859, "f_dark": 0.0, "status": "clear", "status_auto": "clear", "note": "", "reach": "A" }, "geometry": { "type": "Polygon", "coordinates": [ [ [ 98.166892234240279, 13.703311757237339 ], [ 98.166956634238787, 13.703305257231204 ], [ 98.1669493342321, 13.703236657231491 ], [ 98.166884934233593, 13.703243157237619 ], [ 98.166892234240279, 13.703311757237339 ] ] ] } },
{ "type": "Feature", "properties": { "bid": "PGZ-B0014", "source": "OSM", "src_id": "505121438", "area_m2": 81.5, "overlap": 0.0, "overlap_outwash": 0.0, "dist_m": 105.5, "landslide": "", "f_veg": 0.022, "f_soil": 0.029, "f_grey": 0.948, "f_dark": 0.0, "status": "clear", "status_auto": "clear", "note": "", "reach": "A" }, "geometry": { "type": "Polygon", "coordinates": [ [ [ 98.166880234258869, 13.703498057239576 ], [ 98.166996834257603, 13.703500757228561 ], [ 98.166998234251807, 13.703442357228083 ], [ 98.166881534253079, 13.70343975723911 ], [ 98.166880234258869, 13.703498057239576 ] ] ] } },
{ "type": "Feature", "properties": { "bid": "PGZ-B0015", "source": "OSM", "src_id": "505121439", "area_m2": 86.3, "overlap": 0.0, "overlap_outwash": 0.0, "dist_m": 95.7, "landslide": "", "f_veg": 0.0, "f_soil": 0.0, "f_grey": 1.0, "f_dark": 0.0, "status": "clear", "status_auto": "clear", "note": "", "reach": "A" }, "geometry": { "type": "Polygon", "coordinates": [ [ [ 98.166907034267311, 13.703586657237572 ], [ 98.167011634266174, 13.703589357227688 ], [ 98.167013434259317, 13.703520357227106 ], [ 98.166908834260454, 13.703517757236991 ], [ 98.166907034267311, 13.703586657237572 ] ] ] } },
{ "type": "Feature", "properties": { "bid": "PGZ-B0016", "source": "OSM", "src_id": "505121440", "area_m2": 58.5, "overlap": 0.0, "overlap_outwash": 0.0, "dist_m": 83.9, "landslide": "", "f_veg": 0.03, "f_soil": 0.067, "f_grey": 0.867, "f_dark": 0.036, "status": "clear", "status_auto": "clear", "note": "", "reach": "A" }, "geometry": { "type": "Polygon", "coordinates": [ [ [ 98.166968734277702, 13.703700057232405 ], [ 98.16704243427597, 13.703692257225384 ], [ 98.167035134269582, 13.703626757225686 ], [ 98.166961334271321, 13.703634557232716 ], [ 98.166968734277702, 13.703700057232405 ] ] ] } },
{ "type": "Feature", "properties": { "bid": "PGZ-B0017", "source": "OSM", "src_id": "505121441", "area_m2": 79.4, "overlap": 0.0, "overlap_outwash": 0.0, "dist_m": 73.0, "landslide": "", "f_veg": 0.109, "f_soil": 0.509, "f_grey": 0.382, "f_dark": 0.0, "status": "clear", "status_auto": "clear", "note": "", "reach": "A" }, "geometry": { "type": "Polygon", "coordinates": [ [ [ 98.166955334288588, 13.70380815723431 ], [ 98.167047834286194, 13.703796457225488 ], [ 98.167038334279326, 13.703725857225969 ], [ 98.166945834281719, 13.703737657234793 ], [ 98.166955334288588, 13.70380815723431 ] ] ] } },
{ "type": "Feature", "properties": { "bid": "PGZ-B0018", "source": "OSM", "src_id": "505121442", "area_m2": 100.8, "overlap": 0.0, "overlap_outwash": 0.0, "dist_m": 57.6, "landslide": "", "f_veg": 0.007, "f_soil": 0.001, "f_grey": 0.992, "f_dark": 0.0, "status": "clear", "status_auto": "clear", "note": "", "reach": "A" }, "geometry": { "type": "Polygon", "coordinates": [ [ [ 98.166987534302848, 13.703956757232147 ], [ 98.167084034299251, 13.703933257222882 ], [ 98.167062934291422, 13.703851157224387 ], [ 98.166966334295012, 13.703874557233663 ], [ 98.166987534302848, 13.703956757232147 ] ] ] } },
{ "type": "Feature", "properties": { "bid": "PGZ-B0019", "source": "OSM", "src_id": "505121443", "area_m2": 46.5, "overlap": 0.0, "overlap_outwash": 0.0, "dist_m": 47.3, "landslide": "", "f_veg": 0.0, "f_soil": 0.004, "f_grey": 0.996, "f_dark": 0.0, "status": "clear", "status_auto": "clear", "note": "", "reach": "A" }, "geometry": { "type": "Polygon", "coordinates": [ [ [ 98.167063934309184, 13.704030957225358 ], [ 98.167135034306455, 13.704012757218521 ], [ 98.167121034301573, 13.703961557219543 ], [ 98.16705003430431, 13.703979757226369 ], [ 98.167063934309184, 13.704030957225358 ] ] ] } },
{ "type": "Feature", "properties": { "bid": "PGZ-B0020", "source": "OSM", "src_id": "505121445", "area_m2": 57.7, "overlap": 0.0, "overlap_outwash": 0.0, "dist_m": 37.7, "landslide": "", "f_veg": 0.0, "f_soil": 0.649, "f_grey": 0.351, "f_dark": 0.0, "status": "clear", "status_auto": "clear", "note": "", "reach": "A" }, "geometry": { "type": "Polygon", "coordinates": [ [ [ 98.167039834319723, 13.704133957228251 ], [ 98.167133634315761, 13.704106557219214 ], [ 98.167119134311278, 13.7040593572203 ], [ 98.167025234315233, 13.70408675722935 ], [ 98.167039834319723, 13.704133957228251 ] ] ] } },
{ "type": "Feature", "properties": { "bid": "PGZ-B0021", "source": "OSM", "src_id": "505121447", "area_m2": 69.0, "overlap": 0.0, "overlap_outwash": 0.0, "dist_m": 29.2, "landslide": "", "f_veg": 0.057, "f_soil": 0.003, "f_grey": 0.927, "f_dark": 0.013, "status": "clear", "status_auto": "clear", "note": "", "reach": "A" }, "geometry": { "type": "Polygon", "coordinates": [ [ [ 98.167061234326781, 13.704208157226669 ], [ 98.167159134322631, 13.704179557217232 ], [ 98.167142434317512, 13.70412545721849 ], [ 98.167044534321633, 13.704154157227924 ], [ 98.167061234326781, 13.704208157226669 ] ] ] } },
{ "type": "Feature", "properties": { "bid": "PGZ-B0022", "source": "OSM", "src_id": "505121450", "area_m2": 65.3, "overlap": 0.0, "overlap_outwash": 0.0, "dist_m": 18.1, "landslide": "", "f_veg": 0.001, "f_soil": 0.255, "f_grey": 0.727, "f_dark": 0.017, "status": "clear", "status_auto": "clear", "note": "", "reach": "A" }, "geometry": { "type": "Polygon", "coordinates": [ [ [ 98.16712223433467, 13.704296157221416 ], [ 98.167212834330499, 13.704266157212665 ], [ 98.167193834325417, 13.704212157214142 ], [ 98.167103334329568, 13.704242157222883 ], [ 98.16712223433467, 13.704296157221416 ] ] ] } },
{ "type": "Feature", "properties": { "bid": "PGZ-B0023", "source": "OSM", "src_id": "505121452", "area_m2": 79.5, "overlap": 0.0, "overlap_outwash": 0.0, "dist_m": 97.1, "landslide": "", "f_veg": 0.0, "f_soil": 0.498, "f_grey": 0.502, "f_dark": 0.0, "status": "clear", "status_auto": "clear", "note": "", "reach": "A" }, "geometry": { "type": "Polygon", "coordinates": [ [ [ 98.167219534257228, 13.70352675720765 ], [ 98.16731473425547, 13.703521557198609 ], [ 98.167310634248636, 13.703451957198586 ], [ 98.167215434250394, 13.70345715720762 ], [ 98.167219534257228, 13.70352675720765 ] ] ] } },
{ "type": "Feature", "properties": { "bid": "PGZ-B0024", "source": "OSM", "src_id": "505121454", "area_m2": 93.6, "overlap": 0.0, "overlap_outwash": 0.0, "dist_m": 71.5, "landslide": "", "f_veg": 0.0, "f_soil": 0.009, "f_grey": 0.972, "f_dark": 0.019, "status": "clear", "status_auto": "clear", "note": "", "reach": "A" }, "geometry": { "type": "Polygon", "coordinates": [ [ [ 98.167232934279994, 13.70375865720775 ], [ 98.167341534277924, 13.703752157197437 ], [ 98.167336934270892, 13.703680357197449 ], [ 98.167228334272977, 13.70368685720776 ], [ 98.167232934279994, 13.70375865720775 ] ] ] } },
{ "type": "Feature", "properties": { "bid": "PGZ-B0025", "source": "OSM", "src_id": "505121456", "area_m2": 82.1, "overlap": 0.0, "overlap_outwash": 0.0, "dist_m": 58.0, "landslide": "", "f_veg": 0.0, "f_soil": 0.0, "f_grey": 1.0, "f_dark": 0.0, "status": "clear", "status_auto": "clear", "note": "", "reach": "A" }, "geometry": { "type": "Polygon", "coordinates": [ [ [ 98.16727183429137, 13.703878557204781 ], [ 98.167367034287665, 13.703853757195635 ], [ 98.167348434281237, 13.703786457196992 ], [ 98.167253234284942, 13.703811257206144 ], [ 98.16727183429137, 13.703878557204781 ] ] ] } },
{ "type": "Feature", "properties": { "bid": "PGZ-B0026", "source": "OSM", "src_id": "505121458", "area_m2": 61.3, "overlap": 0.0, "overlap_outwash": 0.0, "dist_m": 44.0, "landslide": "", "f_veg": 0.007, "f_soil": 0.021, "f_grey": 0.972, "f_dark": 0.0, "status": "clear", "status_auto": "clear", "note": "", "reach": "A" }, "geometry": { "type": "Polygon", "coordinates": [ [ [ 98.167295934303439, 13.704003657203247 ], [ 98.167376434300294, 13.703982757195506 ], [ 98.167360034294617, 13.703923257196699 ], [ 98.167279634297742, 13.703944157204434 ], [ 98.167295934303439, 13.704003657203247 ] ] ] } },
{ "type": "Feature", "properties": { "bid": "PGZ-B0027", "source": "OSM", "src_id": "505121460", "area_m2": 57.9, "overlap": 0.0, "overlap_outwash": 0.0, "dist_m": 22.0, "landslide": "", "f_veg": 0.136, "f_soil": 0.524, "f_grey": 0.293, "f_dark": 0.047, "status": "clear", "status_auto": "clear", "note": "", "reach": "A" }, "geometry": { "type": "Polygon", "coordinates": [ [ [ 98.167392534321749, 13.704201657195279 ], [ 98.167470234318657, 13.704180857187808 ], [ 98.16745383431315, 13.704122957189014 ], [ 98.167376034316234, 13.704143857196499 ], [ 98.167392534321749, 13.704201657195279 ] ] ] } },
{ "type": "Feature", "properties": { "bid": "PGZ-B0028", "source": "OSM", "src_id": "505121462", "area_m2": 77.9, "overlap": 0.648, "overlap_outwash": 0.0, "dist_m": 0.0, "landslide": "PG-01", "f_veg": 0.018, "f_soil": 0.015, "f_grey": 0.966, "f_dark": 0.001, "status": "edge", "status_auto": "damaged", "note": "Chip review: roof intact; only the yard beside it is bare - standing at the edge of PG-01.", "reach": "A" }, "geometry": { "type": "Polygon", "coordinates": [ [ [ 98.167199334349462, 13.704455757215063 ], [ 98.167224234355771, 13.704522957213108 ], [ 98.167310034351672, 13.704492957204813 ], [ 98.167285234345343, 13.704425757206762 ], [ 98.167199334349462, 13.704455757215063 ] ] ] } },
{ "type": "Feature", "properties": { "bid": "PGZ-B0029", "source": "OSM", "src_id": "505121463", "area_m2": 63.6, "overlap": 1.0, "overlap_outwash": 0.0, "dist_m": 0.0, "landslide": "PG-01", "f_veg": 0.0, "f_soil": 0.904, "f_grey": 0.079, "f_dark": 0.017, "status": "not_building", "status_auto": "destroyed", "note": "Chip review: the footprint lies on a yard on 10 Jan 2026; the house beside it is still standing.", "reach": "A" }, "geometry": { "type": "Polygon", "coordinates": [ [ [ 98.167160534417675, 13.705139757222794 ], [ 98.16724903441586, 13.705133257214383 ], [ 98.16724433441, 13.705073557214472 ], [ 98.167155834411815, 13.705080057222887 ], [ 98.167160534417675, 13.705139757222794 ] ] ] } },
{ "type": "Feature", "properties": { "bid": "PGZ-B0030", "source": "OSM", "src_id": "505121464", "area_m2": 65.7, "overlap": 1.0, "overlap_outwash": 0.0, "dist_m": 0.0, "landslide": "PG-01", "f_veg": 0.0, "f_soil": 0.639, "f_grey": 0.361, "f_dark": 0.0, "status": "destroyed", "status_auto": "damaged", "note": "Chip review: a small dark roof on 10 Jan 2026; boulders and debris on the footprint now (boulders read as roof-grey).", "reach": "A" }, "geometry": { "type": "Polygon", "coordinates": [ [ [ 98.167242334439422, 13.705370357216422 ], [ 98.167326834438171, 13.70536905720842 ], [ 98.167325734431756, 13.705304057208137 ], [ 98.167241234432993, 13.705305357216137 ], [ 98.167242334439422, 13.705370357216422 ] ] ] } },
{ "type": "Feature", "properties": { "bid": "PGZ-B0031", "source": "OSM", "src_id": "505121465", "area_m2": 66.8, "overlap": 1.0, "overlap_outwash": 0.0, "dist_m": 0.0, "landslide": "PG-01", "f_veg": 0.0, "f_soil": 0.789, "f_grey": 0.211, "f_dark": 0.0, "status": "destroyed", "status_auto": "destroyed", "note": "", "reach": "A" }, "geometry": { "type": "Polygon", "coordinates": [ [ [ 98.167227534456003, 13.705535857218802 ], [ 98.167313334454846, 13.705535857210684 ], [ 98.167313334448409, 13.7054707572103 ], [ 98.167227534449552, 13.705470757218416 ], [ 98.167227534456003, 13.705535857218802 ] ] ] } },
{ "type": "Feature", "properties": { "bid": "PGZ-B0032", "source": "OSM", "src_id": "505121466", "area_m2": 106.3, "overlap": 0.978, "overlap_outwash": 0.0, "dist_m": 0.0, "landslide": "PG-01", "f_veg": 0.01, "f_soil": 0.088, "f_grey": 0.881, "f_dark": 0.021, "status": "damaged", "status_auto": "damaged", "note": "", "reach": "A" }, "geometry": { "type": "Polygon", "coordinates": [ [ [ 98.167188634468246, 13.705654457223188 ], [ 98.167297234467213, 13.705658357212933 ], [ 98.167300434459079, 13.705576657212147 ], [ 98.167191734460118, 13.705572757222411 ], [ 98.167188634468246, 13.705654457223188 ] ] ] } },
{ "type": "Feature", "properties": { "bid": "PGZ-B0033", "source": "OSM", "src_id": "505121467", "area_m2": 46.5, "overlap": 0.042, "overlap_outwash": 0.0, "dist_m": 0.0, "landslide": "PG-01", "f_veg": 0.014, "f_soil": 0.201, "f_grey": 0.758, "f_dark": 0.028, "status": "edge", "status_auto": "edge", "note": "", "reach": "A" }, "geometry": { "type": "Polygon", "coordinates": [ [ [ 98.167676834351923, 13.704544357170411 ], [ 98.167741234349265, 13.704526157164212 ], [ 98.167724534343975, 13.704470557165459 ], [ 98.167660134346619, 13.704488757171662 ], [ 98.167676834351923, 13.704544357170411 ] ] ] } },
{ "type": "Feature", "properties": { "bid": "PGZ-B0034", "source": "OSM", "src_id": "505121468", "area_m2": 103.1, "overlap": 1.0, "overlap_outwash": 0.0, "dist_m": 0.0, "landslide": "PG-01", "f_veg": 0.0, "f_soil": 0.986, "f_grey": 0.0, "f_dark": 0.014, "status": "destroyed", "status_auto": "destroyed", "note": "", "reach": "A" }, "geometry": { "type": "Polygon", "coordinates": [ [ [ 98.167678134395089, 13.704980857172878 ], [ 98.167800234394647, 13.704992557161393 ], [ 98.167807334387618, 13.704922657160308 ], [ 98.167685234388088, 13.704910957171792 ], [ 98.167678134395089, 13.704980857172878 ] ] ] } },
{ "type": "Feature", "properties": { "bid": "PGZ-B0035", "source": "OSM", "src_id": "505121469", "area_m2": 76.7, "overlap": 1.0, "overlap_outwash": 0.0, "dist_m": 0.0, "landslide": "PG-01", "f_veg": 0.0, "f_soil": 0.971, "f_grey": 0.003, "f_dark": 0.026, "status": "destroyed", "status_auto": "destroyed", "note": "", "reach": "A" }, "geometry": { "type": "Polygon", "coordinates": [ [ [ 98.167607034415639, 13.705178857180776 ], [ 98.167709034414031, 13.705176257171107 ], [ 98.167707334407837, 13.705113457170903 ], [ 98.167605334409444, 13.705116057180563 ], [ 98.167607034415639, 13.705178857180776 ] ] ] } },
{ "type": "Feature", "properties": { "bid": "PGZ-B0036", "source": "OSM", "src_id": "505121470", "area_m2": 94.2, "overlap": 1.0, "overlap_outwash": 0.0, "dist_m": 0.0, "landslide": "PG-01", "f_veg": 0.002, "f_soil": 0.976, "f_grey": 0.013, "f_dark": 0.009, "status": "destroyed", "status_auto": "destroyed", "note": "", "reach": "A" }, "geometry": { "type": "Polygon", "coordinates": [ [ [ 98.167696934428122, 13.705316957173087 ], [ 98.16781093442647, 13.705315657162297 ], [ 98.167810134419653, 13.70524655716196 ], [ 98.167696134421277, 13.705247857172756 ], [ 98.167696934428122, 13.705316957173087 ] ] ] } },
{ "type": "Feature", "properties": { "bid": "PGZ-B0037", "source": "OSM", "src_id": "505121471", "area_m2": 71.2, "overlap": 1.0, "overlap_outwash": 0.0, "dist_m": 0.0, "landslide": "PG-01", "f_veg": 0.023, "f_soil": 0.184, "f_grey": 0.774, "f_dark": 0.02, "status": "destroyed", "status_auto": "damaged", "note": "Chip review: a grey roof on 10 Jan 2026; a large boulder and earth on the footprint now (the boulder reads as roof-grey).", "reach": "A" }, "geometry": { "type": "Polygon", "coordinates": [ [ [ 98.167499834444385, 13.705455057192557 ], [ 98.167596334442862, 13.705452457183409 ], [ 98.167594634436767, 13.705390857183207 ], [ 98.167498034438324, 13.705393457192363 ], [ 98.167499834444385, 13.705455057192557 ] ] ] } },
{ "type": "Feature", "properties": { "bid": "PGZ-B0038", "source": "OSM", "src_id": "505121472", "area_m2": 56.2, "overlap": 0.387, "overlap_outwash": 0.0, "dist_m": 0.0, "landslide": "PG-01", "f_veg": 0.0, "f_soil": 0.887, "f_grey": 0.112, "f_dark": 0.0, "status": "destroyed", "status_auto": "destroyed", "note": "", "reach": "A" }, "geometry": { "type": "Polygon", "coordinates": [ [ [ 98.167515834461852, 13.705633557192105 ], [ 98.167605734460281, 13.70562965718357 ], [ 98.167603334455151, 13.705577457183491 ], [ 98.167513434456708, 13.705581357192019 ], [ 98.167515834461852, 13.705633557192105 ] ] ] } },
{ "type": "Feature", "properties": { "bid": "PGZ-B0039", "source": "OSM", "src_id": "505121473", "area_m2": 101.2, "overlap": 0.859, "overlap_outwash": 0.0, "dist_m": 0.0, "landslide": "PG-01", "f_veg": 0.091, "f_soil": 0.0, "f_grey": 0.888, "f_dark": 0.021, "status": "damaged", "status_auto": "damaged", "note": "", "reach": "A" }, "geometry": { "type": "Polygon", "coordinates": [ [ [ 98.167810934469429, 13.705749557164866 ], [ 98.167831134475335, 13.705811957163323 ], [ 98.16795453446997, 13.705774157151426 ], [ 98.167934334464064, 13.705711757152965 ], [ 98.167810934469429, 13.705749557164866 ] ] ] } },
{ "type": "Feature", "properties": { "bid": "PGZ-B0040", "source": "OSM", "src_id": "505121474", "area_m2": 95.1, "overlap": 0.0, "overlap_outwash": 0.0, "dist_m": 54.9, "landslide": "", "f_veg": 0.006, "f_soil": 0.0, "f_grey": 0.943, "f_dark": 0.051, "status": "clear", "status_auto": "clear", "note": "", "reach": "" }, "geometry": { "type": "Polygon", "coordinates": [ [ [ 98.16861563451296, 13.706296757091959 ], [ 98.168703834512158, 13.706300557083642 ], [ 98.168707934503203, 13.706210657082719 ], [ 98.168619634504012, 13.706206857091052 ], [ 98.16861563451296, 13.706296757091959 ] ] ] } },
{ "type": "Feature", "properties": { "bid": "PGZ-B0041", "source": "OSM", "src_id": "505121475", "area_m2": 93.0, "overlap": 0.0, "overlap_outwash": 0.0, "dist_m": 38.9, "landslide": "", "f_veg": 0.134, "f_soil": 0.0, "f_grey": 0.76, "f_dark": 0.106, "status": "clear", "status_auto": "clear", "note": "", "reach": "A" }, "geometry": { "type": "Polygon", "coordinates": [ [ [ 98.168319234508758, 13.706214657119526 ], [ 98.16839123451075, 13.706244657112892 ], [ 98.168431434501201, 13.706153457108543 ], [ 98.168359434499195, 13.706123457115181 ], [ 98.168319234508758, 13.706214657119526 ] ] ] } },
{ "type": "Feature", "properties": { "bid": "PGZ-B0042", "source": "OSM", "src_id": "505121476", "area_m2": 85.8, "overlap": 0.0, "overlap_outwash": 0.0, "dist_m": 18.5, "landslide": "", "f_veg": 0.112, "f_soil": 0.078, "f_grey": 0.78, "f_dark": 0.029, "status": "clear", "status_auto": "clear", "note": "", "reach": "A" }, "geometry": { "type": "Polygon", "coordinates": [ [ [ 98.168055034498053, 13.706071357143676 ], [ 98.1681116345015, 13.706113757138572 ], [ 98.168174734492808, 13.706034357132129 ], [ 98.168118034489353, 13.705991857137244 ], [ 98.168055034498053, 13.706071357143676 ] ] ] } },
{ "type": "Feature", "properties": { "bid": "PGZ-B0043", "source": "OSM", "src_id": "505121477", "area_m2": 75.9, "overlap": 0.0, "overlap_outwash": 0.0, "dist_m": 75.1, "landslide": "", "f_veg": 0.142, "f_soil": 0.005, "f_grey": 0.847, "f_dark": 0.006, "status": "clear", "status_auto": "clear", "note": "", "reach": "" }, "geometry": { "type": "Polygon", "coordinates": [ [ [ 98.167920234554089, 13.706619257159677 ], [ 98.168001834555554, 13.706644957152111 ], [ 98.168025334548275, 13.706574557149469 ], [ 98.16794373454681, 13.706548857157037 ], [ 98.167920234554089, 13.706619257159677 ] ] ] } },
{ "type": "Feature", "properties": { "bid": "PGZ-B0044", "source": "OSM", "src_id": "505121478", "area_m2": 52.7, "overlap": 0.0, "overlap_outwash": 0.0, "dist_m": 74.1, "landslide": "", "f_veg": 0.088, "f_soil": 0.015, "f_grey": 0.896, "f_dark": 0.0, "status": "clear", "status_auto": "clear", "note": "", "reach": "" }, "geometry": { "type": "Polygon", "coordinates": [ [ [ 98.167798834549103, 13.706552757170769 ], [ 98.167913534551715, 13.706594457160165 ], [ 98.167926534548215, 13.706560757158734 ], [ 98.167811834545603, 13.70651905716934 ], [ 98.167798834549103, 13.706552757170769 ] ] ] } },
{ "type": "Feature", "properties": { "bid": "PGZ-B0045", "source": "OSM", "src_id": "505121479", "area_m2": 53.2, "overlap": 0.0, "overlap_outwash": 0.0, "dist_m": 81.9, "landslide": "", "f_veg": 0.003, "f_soil": 0.691, "f_grey": 0.277, "f_dark": 0.029, "status": "clear", "status_auto": "clear", "note": "", "reach": "A" }, "geometry": { "type": "Polygon", "coordinates": [ [ [ 98.16771433456428, 13.706694857179608 ], [ 98.167802234565571, 13.706719557171439 ], [ 98.167816134560766, 13.706672957169843 ], [ 98.167728234559476, 13.706648157178016 ], [ 98.16771433456428, 13.706694857179608 ] ] ] } },
{ "type": "Feature", "properties": { "bid": "PGZ-B0046", "source": "OSM", "src_id": "505121480", "area_m2": 163.4, "overlap": 0.0, "overlap_outwash": 0.0, "dist_m": 65.3, "landslide": "", "f_veg": 0.013, "f_soil": 0.888, "f_grey": 0.084, "f_dark": 0.015, "status": "clear", "status_auto": "clear", "note": "", "reach": "A" }, "geometry": { "type": "Polygon", "coordinates": [ [ [ 98.16752663456154, 13.70664205719706 ], [ 98.167687534563157, 13.706679857182053 ], [ 98.167707534554935, 13.706599657179687 ], [ 98.167546534553338, 13.706561857194702 ], [ 98.16752663456154, 13.70664205719706 ] ] ] } },
{ "type": "Feature", "properties": { "bid": "PGZ-B0047", "source": "OSM", "src_id": "505121481", "area_m2": 44.2, "overlap": 0.0, "overlap_outwash": 0.0, "dist_m": 73.9, "landslide": "", "f_veg": 0.0, "f_soil": 0.228, "f_grey": 0.769, "f_dark": 0.003, "status": "clear", "status_auto": "clear", "note": "", "reach": "A" }, "geometry": { "type": "Polygon", "coordinates": [ [ [ 98.167249034571284, 13.70670325722369 ], [ 98.167338834572803, 13.706730657215351 ], [ 98.16735093456893, 13.706693157213987 ], [ 98.167261134567397, 13.70666575722232 ], [ 98.167249034571284, 13.70670325722369 ] ] ] } },
{ "type": "Feature", "properties": { "bid": "PGZ-B0048", "source": "OSM", "src_id": "505121482", "area_m2": 79.4, "overlap": 0.0, "overlap_outwash": 0.0, "dist_m": 78.5, "landslide": "", "f_veg": 0.087, "f_soil": 0.282, "f_grey": 0.631, "f_dark": 0.0, "status": "clear", "status_auto": "clear", "note": "", "reach": "A" }, "geometry": { "type": "Polygon", "coordinates": [ [ [ 98.167368334575514, 13.706761957212748 ], [ 98.167495734573961, 13.7067632572007 ], [ 98.167496334568796, 13.706711157200333 ], [ 98.167368934570348, 13.706709857212386 ], [ 98.167368334575514, 13.706761957212748 ] ] ] } },
{ "type": "Feature", "properties": { "bid": "PGZ-B0049", "source": "OSM", "src_id": "505121483", "area_m2": 82.8, "overlap": 0.0, "overlap_outwash": 0.0, "dist_m": 128.7, "landslide": "", "f_veg": 0.009, "f_soil": 0.007, "f_grey": 0.978, "f_dark": 0.006, "status": "clear", "status_auto": "clear", "note": "", "reach": "A" }, "geometry": { "type": "Polygon", "coordinates": [ [ [ 98.166531534635453, 13.707255757294867 ], [ 98.166634734634783, 13.707262857285144 ], [ 98.166639634628126, 13.707196157284281 ], [ 98.166536434628782, 13.707188957294003 ], [ 98.166531534635453, 13.707255757294867 ] ] ] } },
{ "type": "Feature", "properties": { "bid": "PGZ-B0050", "source": "OSM", "src_id": "505121484", "area_m2": 57.2, "overlap": 0.0, "overlap_outwash": 0.0, "dist_m": 151.5, "landslide": "", "f_veg": 0.066, "f_soil": 0.0, "f_grey": 0.899, "f_dark": 0.035, "status": "clear", "status_auto": "clear", "note": "", "reach": "A" }, "geometry": { "type": "Polygon", "coordinates": [ [ [ 98.166600534655416, 13.707466757289588 ], [ 98.166678334656538, 13.707488257282353 ], [ 98.166695034650672, 13.707431357280436 ], [ 98.166617234649578, 13.707409857287676 ], [ 98.166600534655416, 13.707466757289588 ] ] ] } },
{ "type": "Feature", "properties": { "bid": "PGZ-B0051", "source": "OSM", "src_id": "505131709", "area_m2": 39.7, "overlap": 0.0, "overlap_outwash": 0.0, "dist_m": 621.1, "landslide": "", "f_veg": 1.0, "f_soil": 0.0, "f_grey": 0.0, "f_dark": 0.0, "status": "clear", "status_auto": "clear", "note": "", "reach": "A" }, "geometry": { "type": "Polygon", "coordinates": [ [ [ 98.16039533565467, 13.716728357932203 ], [ 98.160449135654616, 13.716735057927142 ], [ 98.160457235648522, 13.716674457926016 ], [ 98.160403335648567, 13.716667757931083 ], [ 98.16039533565467, 13.716728357932203 ] ] ] } },
{ "type": "Feature", "properties": { "bid": "PGZ-B0052", "source": "OSM", "src_id": "505131711", "area_m2": 26.8, "overlap": 0.0, "overlap_outwash": 0.0, "dist_m": 99.9, "landslide": "", "f_veg": 1.0, "f_soil": 0.0, "f_grey": 0.0, "f_dark": 0.0, "status": "clear", "status_auto": "clear", "note": "", "reach": "A" }, "geometry": { "type": "Polygon", "coordinates": [ [ [ 98.163509334971252, 13.710243957598676 ], [ 98.163560934972125, 13.710259557593885 ], [ 98.163573634968031, 13.710219957592447 ], [ 98.163522034967158, 13.710204357597238 ], [ 98.163509334971252, 13.710243957598676 ] ] ] } },
{ "type": "Feature", "properties": { "bid": "PGZ-B0053", "source": "OSM", "src_id": "505131713", "area_m2": 32.6, "overlap": 0.0, "overlap_outwash": 0.0, "dist_m": 72.7, "landslide": "", "f_veg": 0.881, "f_soil": 0.072, "f_grey": 0.034, "f_dark": 0.013, "status": "clear", "status_auto": "clear", "note": "", "reach": "A" }, "geometry": { "type": "Polygon", "coordinates": [ [ [ 98.167360334276793, 13.703743057195611 ], [ 98.167415334276043, 13.703743057190405 ], [ 98.167415334271155, 13.703693557190112 ], [ 98.167360334271891, 13.703693557195315 ], [ 98.167360334276793, 13.703743057195611 ] ] ] } },
{ "type": "Feature", "properties": { "bid": "PGZ-B0054", "source": "OSM", "src_id": "508404351", "area_m2": 105.9, "overlap": 0.0, "overlap_outwash": 0.0, "dist_m": 174.4, "landslide": "", "f_veg": 0.168, "f_soil": 0.314, "f_grey": 0.499, "f_dark": 0.018, "status": "clear", "status_auto": "clear", "note": "", "reach": "A" }, "geometry": { "type": "Polygon", "coordinates": [ [ [ 98.167040834192392, 13.702847657220527 ], [ 98.167057234184426, 13.702769357218509 ], [ 98.166948734183734, 13.702747857228648 ], [ 98.166932234191691, 13.702826157230673 ], [ 98.167040834192392, 13.702847657220527 ] ] ] } },
{ "type": "Feature", "properties": { "bid": "PGZ-B0055", "source": "OSM", "src_id": "508566555", "area_m2": 26.4, "overlap": 0.0, "overlap_outwash": 0.0, "dist_m": 11.2, "landslide": "", "f_veg": 0.961, "f_soil": 0.0, "f_grey": 0.039, "f_dark": 0.0, "status": "clear", "status_auto": "clear", "note": "", "reach": "A" }, "geometry": { "type": "Polygon", "coordinates": [ [ [ 98.166505334522782, 13.706114157290571 ], [ 98.1665066345181, 13.706067057290166 ], [ 98.166459734518597, 13.706065857294599 ], [ 98.166458434523292, 13.706112957295003 ], [ 98.166505334522782, 13.706114157290571 ] ] ] } },
{ "type": "Feature", "properties": { "bid": "PGZ-B0056", "source": "OSM", "src_id": "508566557", "area_m2": 52.3, "overlap": 0.0, "overlap_outwash": 0.0, "dist_m": 29.2, "landslide": "", "f_veg": 0.369, "f_soil": 0.0, "f_grey": 0.614, "f_dark": 0.016, "status": "clear", "status_auto": "clear", "note": "", "reach": "A" }, "geometry": { "type": "Polygon", "coordinates": [ [ [ 98.166678034546592, 13.706377857275795 ], [ 98.166734734539844, 13.706317157270067 ], [ 98.166695234536931, 13.706282357273604 ], [ 98.166638534543694, 13.706343057279327 ], [ 98.166678034546592, 13.706377857275795 ] ] ] } },
{ "type": "Feature", "properties": { "bid": "PGZ-B0057", "source": "VIDA/microsoft", "src_id": "002200000000000002af", "area_m2": 72.0, "overlap": 0.741, "overlap_outwash": 0.0, "dist_m": 0.0, "landslide": "PG-03", "f_veg": 0.0, "f_soil": 0.243, "f_grey": 0.757, "f_dark": 0.0, "status": "not_building", "status_auto": "damaged", "note": "Chip review: canopy on 10 Jan 2026, no roof - a Microsoft footprint in the channel.", "reach": "A" }, "geometry": { "type": "Polygon", "coordinates": [ [ [ 98.165619647746041, 13.709269746931914 ], [ 98.165541106043321, 13.709196862857608 ], [ 98.165501668476125, 13.709236913339566 ], [ 98.16558021013654, 13.70930979744981 ], [ 98.165619647746041, 13.709269746931914 ] ] ] } },
{ "type": "Feature", "properties": { "bid": "PGZ-B0058", "source": "VIDA/microsoft", "src_id": "0022000000000000080d", "area_m2": 29.1, "overlap": 0.0, "overlap_outwash": 0.0, "dist_m": 48.8, "landslide": "", "f_veg": 1.0, "f_soil": 0.0, "f_grey": 0.0, "f_dark": 0.0, "status": "clear", "status_auto": "clear", "note": "", "reach": "A" }, "geometry": { "type": "Polygon", "coordinates": [ [ [ 98.160331778763691, 13.709117748745047 ], [ 98.16032969447788, 13.709163052727233 ], [ 98.160383219071591, 13.709165405829451 ], [ 98.160385303358908, 13.709120101850718 ], [ 98.160331778763691, 13.709117748745047 ] ] ] } },
{ "type": "Feature", "properties": { "bid": "PGZ-B0059", "source": "VIDA/microsoft", "src_id": "0022000000000000092b", "area_m2": 24.5, "overlap": 0.0, "overlap_outwash": 0.0, "dist_m": 10.0, "landslide": "PG-01", "f_veg": 0.911, "f_soil": 0.0, "f_grey": 0.053, "f_dark": 0.036, "status": "not_building", "status_auto": "edge", "note": "Chip review: canopy on 10 Jan 2026, no roof.", "reach": "A" }, "geometry": { "type": "Polygon", "coordinates": [ [ [ 98.166927604160023, 13.705933212858353 ], [ 98.166928854841203, 13.705874525824855 ], [ 98.166894002371862, 13.705873836291509 ], [ 98.166892751691279, 13.705932523328526 ], [ 98.166927604160023, 13.705933212858353 ] ] ] } },
{ "type": "Feature", "properties": { "bid": "PGZ-B0060", "source": "VIDA/microsoft", "src_id": "002200000000000029b7", "area_m2": 45.6, "overlap": 1.0, "overlap_outwash": 0.0, "dist_m": 0.0, "landslide": "PG-03", "f_veg": 0.0, "f_soil": 0.031, "f_grey": 0.969, "f_dark": 0.0, "status": "not_building", "status_auto": "damaged", "note": "Chip review: canopy on 10 Jan 2026, no roof - a Microsoft footprint in the channel.", "reach": "A" }, "geometry": { "type": "Polygon", "coordinates": [ [ [ 98.16465605868666, 13.709164034331369 ], [ 98.164588273588535, 13.70915978633413 ], [ 98.164584605029717, 13.709215837374062 ], [ 98.164652390124431, 13.709220085366798 ], [ 98.16465605868666, 13.709164034331369 ] ] ] } },
{ "type": "Feature", "properties": { "bid": "PGZ-B0061", "source": "VIDA/microsoft", "src_id": "0022000000000000b2d0", "area_m2": 109.0, "overlap": 0.0, "overlap_outwash": 0.0, "dist_m": 54.9, "landslide": "", "f_veg": 0.035, "f_soil": 0.0, "f_grey": 0.872, "f_dark": 0.094, "status": "clear", "status_auto": "clear", "note": "", "reach": "" }, "geometry": { "type": "Polygon", "coordinates": [ [ [ 98.16895599643486, 13.706198432602678 ], [ 98.169074564943685, 13.706206787165589 ], [ 98.169080318265216, 13.706130419149115 ], [ 98.168961666365632, 13.706121979670163 ], [ 98.16895599643486, 13.706198432602678 ] ] ] } },
{ "type": "Feature", "properties": { "bid": "PGZ-B0062", "source": "VIDA/microsoft", "src_id": "0022000000000000e005", "area_m2": 101.6, "overlap": 0.802, "overlap_outwash": 0.0, "dist_m": 0.0, "landslide": "PG-03", "f_veg": 0.256, "f_soil": 0.067, "f_grey": 0.677, "f_dark": 0.0, "status": "not_building", "status_auto": "damaged", "note": "Chip review: canopy and grass on 10 Jan 2026, no roof.", "reach": "A" }, "geometry": { "type": "Polygon", "coordinates": [ [ [ 98.164662395319752, 13.709321445555434 ], [ 98.164652807021866, 13.709369101092889 ], [ 98.164753525952051, 13.709388216037148 ], [ 98.164771702055845, 13.709297847233501 ], [ 98.164692577633204, 13.709282840486482 ], [ 98.164683989849735, 13.709325553748799 ], [ 98.164662395319752, 13.709321445555434 ] ] ] } },
{ "type": "Feature", "properties": { "bid": "PGZ-B0063", "source": "VIDA/microsoft", "src_id": "0022000000000000fe43", "area_m2": 56.8, "overlap": 0.0, "overlap_outwash": 0.0, "dist_m": 216.6, "landslide": "", "f_veg": 0.784, "f_soil": 0.003, "f_grey": 0.18, "f_dark": 0.033, "status": "clear", "status_auto": "clear", "note": "", "reach": "" }, "geometry": { "type": "Polygon", "coordinates": [ [ [ 98.169597536194829, 13.707466563800493 ], [ 98.169607542060959, 13.707512606491408 ], [ 98.169706266633028, 13.707492512450939 ], [ 98.169696260753412, 13.707446382117876 ], [ 98.169597536194829, 13.707466563800493 ] ] ] } },
{ "type": "Feature", "properties": { "bid": "PGZ-B0064", "source": "VIDA/microsoft", "src_id": "00220000000000012a90", "area_m2": 82.2, "overlap": 0.0, "overlap_outwash": 0.0, "dist_m": 90.1, "landslide": "", "f_veg": 0.003, "f_soil": 0.01, "f_grey": 0.966, "f_dark": 0.021, "status": "clear", "status_auto": "clear", "note": "", "reach": "A" }, "geometry": { "type": "Polygon", "coordinates": [ [ [ 98.169403339253833, 13.706299976888618 ], [ 98.169335549765151, 13.706375326886386 ], [ 98.169387246550542, 13.706419202552613 ], [ 98.169455036087143, 13.706343852515356 ], [ 98.169403339253833, 13.706299976888618 ] ] ] } },
{ "type": "Feature", "properties": { "bid": "PGZ-B0065", "source": "VIDA/microsoft", "src_id": "0022000000000001555c", "area_m2": 98.0, "overlap": 0.0, "overlap_outwash": 0.0, "dist_m": 79.9, "landslide": "", "f_veg": 0.034, "f_soil": 0.819, "f_grey": 0.125, "f_dark": 0.022, "status": "clear", "status_auto": "clear", "note": "", "reach": "" }, "geometry": { "type": "Polygon", "coordinates": [ [ [ 98.169243913135332, 13.706314099138202 ], [ 98.169292024438036, 13.706364580266898 ], [ 98.169379408635933, 13.706285952901341 ], [ 98.169331297275789, 13.706235471823447 ], [ 98.169243913135332, 13.706314099138202 ] ] ] } },
{ "type": "Feature", "properties": { "bid": "PGZ-B0066", "source": "VIDA/microsoft", "src_id": "0022000000000001717a", "area_m2": 28.6, "overlap": 0.0, "overlap_outwash": 0.0, "dist_m": 8.8, "landslide": "PG-01", "f_veg": 0.974, "f_soil": 0.0, "f_grey": 0.026, "f_dark": 0.0, "status": "not_building", "status_auto": "edge", "note": "Chip review: grass on 10 Jan 2026; the hut stands beside the footprint.", "reach": "A" }, "geometry": { "type": "Polygon", "coordinates": [ [ [ 98.166540726027165, 13.706079677679801 ], [ 98.166491115722835, 13.70607745938961 ], [ 98.166488864504515, 13.706125484852135 ], [ 98.166538474807297, 13.706127703138977 ], [ 98.166540726027165, 13.706079677679801 ] ] ] } },
{ "type": "Feature", "properties": { "bid": "PGZ-B0067", "source": "VIDA/microsoft", "src_id": "002200000000000197ae", "area_m2": 35.0, "overlap": 0.0, "overlap_outwash": 0.0, "dist_m": 125.8, "landslide": "", "f_veg": 0.001, "f_soil": 0.005, "f_grey": 0.993, "f_dark": 0.001, "status": "clear", "status_auto": "clear", "note": "", "reach": "A" }, "geometry": { "type": "Polygon", "coordinates": [ [ [ 98.16750500665961, 13.703259681253771 ], [ 98.167501921602351, 13.70320780085002 ], [ 98.167445723648441, 13.703210972063239 ], [ 98.167448892083101, 13.703262937380506 ], [ 98.16750500665961, 13.703259681253771 ] ] ] } },
{ "type": "Feature", "properties": { "bid": "PGZ-B0068", "source": "VIDA/microsoft", "src_id": "0022000000000001a094", "area_m2": 19.9, "overlap": 0.0, "overlap_outwash": 0.0, "dist_m": 25.1, "landslide": "", "f_veg": 0.547, "f_soil": 0.091, "f_grey": 0.353, "f_dark": 0.009, "status": "clear", "status_auto": "clear", "note": "", "reach": "A" }, "geometry": { "type": "Polygon", "coordinates": [ [ [ 98.167182160918458, 13.70418578142262 ], [ 98.167111288446719, 13.704209336384487 ], [ 98.167118709210513, 13.704230305124433 ], [ 98.167189581689414, 13.7042067501538 ], [ 98.167182160918458, 13.70418578142262 ] ] ] } },
{ "type": "Feature", "properties": { "bid": "PGZ-B0069", "source": "VIDA/microsoft", "src_id": "0022000000000001c1ba", "area_m2": 22.8, "overlap": 0.0, "overlap_outwash": 0.0, "dist_m": 217.6, "landslide": "", "f_veg": 0.171, "f_soil": 0.0, "f_grey": 0.829, "f_dark": 0.0, "status": "clear", "status_auto": "clear", "note": "", "reach": "A" }, "geometry": { "type": "Polygon", "coordinates": [ [ [ 98.163176223709499, 13.712263239391048 ], [ 98.163204321042926, 13.712280019877575 ], [ 98.163235419877779, 13.712230775900595 ], [ 98.163207322532415, 13.712213995422683 ], [ 98.163176223709499, 13.712263239391048 ] ] ] } },
{ "type": "Feature", "properties": { "bid": "PGZ-B0070", "source": "VIDA/microsoft", "src_id": "0022000000000001e575", "area_m2": 56.5, "overlap": 1.0, "overlap_outwash": 0.0, "dist_m": 0.0, "landslide": "PG-01", "f_veg": 0.0, "f_soil": 0.969, "f_grey": 0.0, "f_dark": 0.031, "status": "destroyed", "status_auto": "destroyed", "note": "", "reach": "A" }, "geometry": { "type": "Polygon", "coordinates": [ [ [ 98.167588470071379, 13.705228146793585 ], [ 98.167518764521162, 13.705229660672977 ], [ 98.167520348744176, 13.705297370466598 ], [ 98.167590054295914, 13.705295856576614 ], [ 98.167588470071379, 13.705228146793585 ] ] ] } },
{ "type": "Feature", "properties": { "bid": "PGZ-B0071", "source": "VIDA/microsoft", "src_id": "00220000000000025934", "area_m2": 22.9, "overlap": 0.0, "overlap_outwash": 0.0, "dist_m": 168.5, "landslide": "", "f_veg": 0.0, "f_soil": 0.0, "f_grey": 0.933, "f_dark": 0.067, "status": "clear", "status_auto": "clear", "note": "", "reach": "A" }, "geometry": { "type": "Polygon", "coordinates": [ [ [ 98.167265206736076, 13.702837543217008 ], [ 98.167219264636415, 13.702831258972051 ], [ 98.16721334469878, 13.702872128596216 ], [ 98.167259203415213, 13.702878415594789 ], [ 98.167265206736076, 13.702837543217008 ] ] ] } },
{ "type": "Feature", "properties": { "bid": "PGZ-B0072", "source": "VIDA/microsoft", "src_id": "00220000000000027d7a", "area_m2": 36.4, "overlap": 0.0, "overlap_outwash": 0.0, "dist_m": 185.6, "landslide": "", "f_veg": 0.104, "f_soil": 0.0, "f_grey": 0.896, "f_dark": 0.0, "status": "clear", "status_auto": "clear", "note": "", "reach": "A" }, "geometry": { "type": "Polygon", "coordinates": [ [ [ 98.167286885395328, 13.702653706280779 ], [ 98.167273544675766, 13.702712002225732 ], [ 98.167323238891058, 13.702722720829957 ], [ 98.167336579619686, 13.702664424882624 ], [ 98.167286885395328, 13.702653706280779 ] ] ] } },
{ "type": "Feature", "properties": { "bid": "PGZ-B0073", "source": "VIDA/microsoft", "src_id": "0022000000000002a758", "area_m2": 45.2, "overlap": null, "overlap_outwash": null, "dist_m": null, "landslide": null, "f_veg": null, "f_soil": null, "f_grey": null, "f_dark": null, "status": "not_surveyed", "status_auto": "not_surveyed", "note": "", "reach": "A" }, "geometry": { "type": "Polygon", "coordinates": [ [ [ 98.167884764690214, 13.700971592283354 ], [ 98.167806387297418, 13.700952879983749 ], [ 98.167794880836183, 13.700998316394651 ], [ 98.167873258216659, 13.701017028698288 ], [ 98.167884764690214, 13.700971592283354 ] ] ] } },
{ "type": "Feature", "properties": { "bid": "PGZ-B0074", "source": "VIDA/microsoft", "src_id": "002200000000000359e3", "area_m2": 84.6, "overlap": 0.0, "overlap_outwash": 0.0, "dist_m": 153.4, "landslide": "", "f_veg": 1.0, "f_soil": 0.0, "f_grey": 0.0, "f_dark": 0.0, "status": "clear", "status_auto": "clear", "note": "", "reach": "" }, "geometry": { "type": "Polygon", "coordinates": [ [ [ 98.169552843304231, 13.706870623354593 ], [ 98.169561181524926, 13.706950558495853 ], [ 98.169648816197849, 13.706941876586281 ], [ 98.169640477967164, 13.706861941467348 ], [ 98.169552843304231, 13.706870623354593 ] ] ] } },
{ "type": "Feature", "properties": { "bid": "PGZ-B0075", "source": "VIDA/microsoft", "src_id": "00220000000000036ec7", "area_m2": 71.1, "overlap": 0.987, "overlap_outwash": 0.0, "dist_m": 0.0, "landslide": "PG-03", "f_veg": 0.019, "f_soil": 0.124, "f_grey": 0.856, "f_dark": 0.0, "status": "not_building", "status_auto": "damaged", "note": "Chip review: canopy on 10 Jan 2026, no roof - a Microsoft footprint in the channel.", "reach": "A" }, "geometry": { "type": "Polygon", "coordinates": [ [ [ 98.164985646975325, 13.709905220511837 ], [ 98.164948127379304, 13.709981676412967 ], [ 98.165011493835024, 13.710011054672465 ], [ 98.165049013463531, 13.709934598750678 ], [ 98.164985646975325, 13.709905220511837 ] ] ] } },
{ "type": "Feature", "properties": { "bid": "PGZ-B0076", "source": "VIDA/microsoft", "src_id": "0022000000000003790b", "area_m2": 27.2, "overlap": 0.0, "overlap_outwash": 0.0, "dist_m": 404.4, "landslide": "", "f_veg": 0.958, "f_soil": 0.0, "f_grey": 0.041, "f_dark": 0.001, "status": "clear", "status_auto": "clear", "note": "", "reach": "" }, "geometry": { "type": "Polygon", "coordinates": [ [ [ 98.17056927882139, 13.710694115594022 ], [ 98.170551351413224, 13.710644301316686 ], [ 98.170510660394669, 13.710658094924897 ], [ 98.170528671176129, 13.710707906457596 ], [ 98.17056927882139, 13.710694115594022 ] ] ] } }
]
}
