{
"type": "FeatureCollection",
"name": "envelopes",
"crs": { "type": "name", "properties": { "name": "urn:ogc:def:crs:OGC:1.3:CRS84" } },
"features": [
{ "type": "Feature", "properties": { "id": "PG-01", "name": "Village debris flow", "kind": "landslide", "priority": 1, "split": 0, "description": "A debris flow off the hill west of the road that crossed the road and buried the block of houses between the road and the paddies in the middle of the village; the ground was being dug out with machinery on 7 Oct." }, "geometry": { "type": "Polygon", "coordinates": [ [ [ 98.16555, 13.7061 ], [ 98.167, 13.706 ], [ 98.1676, 13.706 ], [ 98.1682, 13.7058 ], [ 98.169, 13.7056 ], [ 98.1691, 13.705 ], [ 98.1685, 13.7047 ], [ 98.1678, 13.7044 ], [ 98.1672, 13.7044 ], [ 98.1669, 13.7048 ], [ 98.1662, 13.7052 ], [ 98.16555, 13.7057 ], [ 98.16555, 13.7061 ] ] ] } },
{ "type": "Feature", "properties": { "id": "PG-03", "name": "Road debris flow", "kind": "landslide", "priority": 2, "split": 0, "description": "The main channel flow: fed by the scars at the head of the valley (PG-04), it scoured a channel of grey sand and boulders north-east down the valley, spread across the road north of the village and ran on as a fan beyond it." }, "geometry": { "type": "Polygon", "coordinates": [ [ [ 98.1672, 13.7102 ], [ 98.1662, 13.7104 ], [ 98.1652, 13.7106 ], [ 98.1645, 13.7104 ], [ 98.164, 13.7098 ], [ 98.1637, 13.709 ], [ 98.1634, 13.7082 ], [ 98.1633, 13.7074 ], [ 98.1631, 13.7068 ], [ 98.1624, 13.7062 ], [ 98.1617, 13.7058 ], [ 98.161, 13.7052 ], [ 98.1608, 13.7047 ], [ 98.1614, 13.7044 ], [ 98.1622, 13.705 ], [ 98.1629, 13.7057 ], [ 98.1636, 13.7063 ], [ 98.1642, 13.7068 ], [ 98.1652, 13.7074 ], [ 98.1652, 13.7077 ], [ 98.1644, 13.7077 ], [ 98.1644, 13.7083 ], [ 98.1652, 13.7088 ], [ 98.1658, 13.7092 ], [ 98.1662, 13.7096 ], [ 98.167, 13.7097 ], [ 98.1672, 13.7102 ] ] ] } },
{ "type": "Feature", "properties": { "id": "PG-04", "name": "South-west channels", "kind": "landslide", "priority": 3, "split": 0, "description": "Two broad scars at the head of the valley and a third channel from the south, which joined and fed the road debris flow (PG-03); their upper parts run beyond the flight." }, "geometry": { "type": "Polygon", "coordinates": [ [ [ 98.157, 13.7035 ], [ 98.1578, 13.7052 ], [ 98.16, 13.705 ], [ 98.162, 13.7054 ], [ 98.1633, 13.7062 ], [ 98.1636, 13.706 ], [ 98.1622, 13.7048 ], [ 98.1608, 13.7044 ], [ 98.1603, 13.703 ], [ 98.16, 13.702 ], [ 98.1592, 13.702 ], [ 98.159, 13.7033 ], [ 98.1582, 13.7033 ], [ 98.157, 13.7035 ] ] ] } },
{ "type": "Feature", "properties": { "id": "PG-05", "name": "North-west valley flow", "kind": "landslide", "priority": 3, "split": 0, "description": "A debris flow down the valley at the north-west edge of the survey with a side scar from the east." }, "geometry": { "type": "Polygon", "coordinates": [ [ [ 98.1523, 13.7133 ], [ 98.1533, 13.7127 ], [ 98.1542, 13.7115 ], [ 98.155, 13.7106 ], [ 98.1546, 13.7103 ], [ 98.1538, 13.7107 ], [ 98.153, 13.7118 ], [ 98.1522, 13.7128 ], [ 98.1523, 13.7133 ] ] ] } },
{ "type": "Feature", "properties": { "id": "PG-OW1", "name": "Fields under sediment north-west", "kind": "outwash", "priority": 9, "split": 0, "description": "Grass fields and fish ponds at the valley mouth under fresh sand and gravel (ponds and paths excluded)." }, "geometry": { "type": "Polygon", "coordinates": [ [ [ 98.1515, 13.7133 ], [ 98.1524, 13.7133 ], [ 98.1528, 13.7146 ], [ 98.153, 13.7165 ], [ 98.1526, 13.7175 ], [ 98.1518, 13.7168 ], [ 98.1511, 13.7156 ], [ 98.1515, 13.7133 ] ] ] } },
{ "type": "Feature", "properties": { "id": "PGZ", "name": "Hills west of the road", "kind": "landslide", "priority": 6, "split": 1, "description": "Zone split into connected scars and scoured channels." }, "geometry": { "type": "Polygon", "coordinates": [ [ [ 98.155, 13.712 ], [ 98.1612, 13.712 ], [ 98.164, 13.71 ], [ 98.164, 13.707 ], [ 98.163, 13.7065 ], [ 98.16, 13.706 ], [ 98.157, 13.706 ], [ 98.156, 13.708 ], [ 98.155, 13.71 ], [ 98.155, 13.712 ] ] ] } },
{ "type": "Feature", "properties": { "id": "PX-1", "name": "Road through Za Lut and Pyin Gyi", "kind": "exclude", "priority": 0, "split": 0, "description": "Road bare on 10 Jan 2026 (debris was cleared from it by 7 Oct; the road itself is cut out)." }, "geometry": { "type": "Polygon", "coordinates": [ [ [ 98.160233233417017, 13.716615882502985 ], [ 98.160234828706507, 13.716612184920638 ], [ 98.160235995143623, 13.716608337303128 ], [ 98.160236718365852, 13.716604387026885 ], [ 98.160336200372413, 13.715808530009589 ], [ 98.16063372229074, 13.715015137919902 ], [ 98.161031180401551, 13.714319586065669 ], [ 98.161627433911974, 13.713524581267761 ], [ 98.162320932178176, 13.712930154140743 ], [ 98.163116843019338, 13.712532198704531 ], [ 98.16311866581475, 13.712531223208133 ], [ 98.163818665881962, 13.71213122315975 ], [ 98.163822071595945, 13.712129021890805 ], [ 98.163825208444464, 13.71212646709138 ], [ 98.163828038215996, 13.712123589882813 ], [ 98.163830526439611, 13.712120425313849 ], [ 98.16453052638127, 13.711120425225104 ], [ 98.164531408014483, 13.71111910487879 ], [ 98.16523140793548, 13.71001910478642 ], [ 98.165232292628147, 13.710017638714557 ], [ 98.165629051916241, 13.709323309822965 ], [ 98.166223995147362, 13.708827523747477 ], [ 98.166226793172058, 13.708824934295565 ], [ 98.166229300534766, 13.708822074347484 ], [ 98.166231490034718, 13.708818974928988 ], [ 98.166233337919437, 13.708815669663675 ], [ 98.166234824142407, 13.708812194408262 ], [ 98.166235932580562, 13.708808586863567 ], [ 98.166434984833032, 13.708012377392238 ], [ 98.166632231972727, 13.707617883003298 ], [ 98.167030432289039, 13.707020582415346 ], [ 98.167329829788031, 13.706621385686113 ], [ 98.167331755648547, 13.706618546508984 ], [ 98.167333399714465, 13.706615542753115 ], [ 98.167334747396623, 13.706612401073357 ], [ 98.167335786735919, 13.706609149348475 ], [ 98.167336508509408, 13.706605816433763 ], [ 98.167436508420963, 13.706005816414141 ], [ 98.167436869367194, 13.706002917718012 ], [ 98.167436989944477, 13.706 ], [ 98.167436989850586, 13.705399999994556 ], [ 98.167436989741049, 13.704699999994117 ], [ 98.167436829208043, 13.704696634297443 ], [ 98.167436349004007, 13.70469329781449 ], [ 98.167435553297082, 13.704690019505344 ], [ 98.167434448993887, 13.704686827825149 ], [ 98.167234838030112, 13.70418780060379 ], [ 98.167037953101556, 13.703597146104425 ], [ 98.167136507942828, 13.703005816488375 ], [ 98.167236050302222, 13.702408561792708 ], [ 98.167434367096249, 13.701813611150572 ], [ 98.167732614580629, 13.701217116017638 ], [ 98.168031904488942, 13.70071829939439 ], [ 98.168033585375142, 13.700715153743975 ], [ 98.168034942815737, 13.700711862154728 ], [ 98.168035963737879, 13.700708456326463 ], [ 98.168036638309516, 13.700704969059172 ], [ 98.168036960034186, 13.700701433937143 ], [ 98.16803692581351, 13.700697885005544 ], [ 98.168036535977052, 13.700694356442524 ], [ 98.168035794279206, 13.700690882230068 ], [ 98.168034707862915, 13.700687495826752 ], [ 98.168033287190966, 13.700684229845471 ], [ 98.16803154594524, 13.700681115739419 ], [ 98.168029500894889, 13.700678183499125 ], [ 98.168027171734877, 13.700675461363662 ], [ 98.168024580896272, 13.700672975548674 ], [ 98.168021753330294, 13.700670749993915 ], [ 98.168018716267909, 13.700668806132677 ], [ 98.168015498957729, 13.700667162685413 ], [ 98.168012132384163, 13.700665835479397 ], [ 98.168008648969177, 13.700664837296355 ], [ 98.168005082259924, 13.700664177749321 ], [ 98.168001466605759, 13.700663863190098 ], [ 98.167997836827382, 13.700663896648052 ], [ 98.167994227881536, 13.700664277800968 ], [ 98.167990674524333, 13.700665002978138 ], [ 98.16798721097652, 13.70066606519571 ], [ 98.167983870593929, 13.700667454223952 ], [ 98.167980685546297, 13.700669156685766 ], [ 98.167977686507342, 13.700671156185521 ], [ 98.167974902359418, 13.70067343346695 ], [ 98.167972359915439, 13.700675966598592 ], [ 98.167970083660478, 13.700678731185015 ], [ 98.167968095516159, 13.700681700601747 ], [ 98.167668095476529, 13.701181700561268 ], [ 98.16766676911854, 13.701184116593216 ], [ 98.167366769059171, 13.701784116550019 ], [ 98.167364831311346, 13.701788793640766 ], [ 98.16716483123497, 13.70238879360832 ], [ 98.16716405585376, 13.702391463413107 ], [ 98.167163492153506, 13.702394183491263 ], [ 98.167063492065083, 13.702994183471642 ], [ 98.166963491970876, 13.703594183486709 ], [ 98.166963091498715, 13.703597607007005 ], [ 98.166963026095104, 13.703601052251773 ], [ 98.166963296353799, 13.703604487943847 ], [ 98.166963899821312, 13.703607882892786 ], [ 98.166964831019158, 13.703611206278035 ], [ 98.167164830935988, 13.704211206301393 ], [ 98.167165551067541, 13.704213172146005 ], [ 98.167363010258796, 13.70470682032145 ], [ 98.167363010149742, 13.705399999994109 ], [ 98.167363010056519, 13.705997072734419 ], [ 98.167264919557667, 13.7065856152048 ], [ 98.166970170198454, 13.706978614273721 ], [ 98.166969011375315, 13.706980252095379 ], [ 98.166569011336037, 13.707580252043613 ], [ 98.166566768057422, 13.707584116946119 ], [ 98.166366768017809, 13.707984116917308 ], [ 98.166365217055727, 13.707987694028517 ], [ 98.166364067533237, 13.707991413166397 ], [ 98.166166906066991, 13.708780058603681 ], [ 98.165576004884244, 13.709272476194412 ], [ 98.165573601139414, 13.709274666815681 ], [ 98.165571405729466, 13.709277057361767 ], [ 98.16556943598016, 13.709279628966913 ], [ 98.165567707436409, 13.709282361336497 ], [ 98.165168132073617, 13.709981618065036 ], [ 98.164469018083736, 13.71108022554688 ], [ 98.163774164036042, 13.712072874048816 ], [ 98.163082231569291, 13.712468264004734 ], [ 98.162283157072125, 13.712867801245627 ], [ 98.16228050494027, 13.712869264977275 ], [ 98.162277984956148, 13.712870937047089 ], [ 98.162275614201562, 13.71287280612091 ], [ 98.161575614228482, 13.713472806054215 ], [ 98.161572729353182, 13.71347556501285 ], [ 98.161570169053547, 13.713478614797156 ], [ 98.160970169015528, 13.714278614723426 ], [ 98.160967706623339, 13.714282361653066 ], [ 98.160567706563796, 13.714982361598002 ], [ 98.160566382979283, 13.714984909329367 ], [ 98.160565269268446, 13.714987551273001 ], [ 98.160265269171703, 13.715787551225791 ], [ 98.160264038334333, 13.71579152623185 ], [ 98.160263281756571, 13.715795612989339 ], [ 98.160164035900735, 13.716589578881722 ], [ 98.159866766528253, 13.717184117449504 ], [ 98.15986533421669, 13.717187378597295 ], [ 98.159864235755521, 13.7171907612961 ], [ 98.159863481723519, 13.717194232968696 ], [ 98.159863079382461, 13.71719776018098 ], [ 98.15986303260712, 13.71720130896397 ], [ 98.159863341847981, 13.717204845140943 ], [ 98.159864004126888, 13.71720833465659 ], [ 98.159865013065783, 13.71721174390496 ], [ 98.159866358948022, 13.717215040053121 ], [ 98.159868028812028, 13.717218191357373 ], [ 98.159870006576142, 13.717221167468912 ], [ 98.159872273193386, 13.717223939726159 ], [ 98.159874806835006, 13.717226481430753 ], [ 98.159877583100666, 13.717228768104683 ], [ 98.15988057525341, 13.717230777726014 ], [ 98.15988375447715, 13.717232490940999 ], [ 98.159887090154214, 13.717233891250421 ], [ 98.159890550160227, 13.717234965168535 ], [ 98.159894101173393, 13.717235702352918 ], [ 98.15989770899553, 13.717236095704076 ], [ 98.159901338881284, 13.717236141433819 ], [ 98.159904955872889, 13.717235839101743 ], [ 98.159908525136714, 13.717235191619478 ], [ 98.159912012298776, 13.717234205222624 ], [ 98.159915383775783, 13.717232889410736 ], [ 98.159918607098575, 13.717231256855792 ], [ 98.159921651224764, 13.717229323280213 ], [ 98.159924486837738, 13.717227107305382 ], [ 98.159927086628997, 13.717224630272357 ], [ 98.159929425561145, 13.71722191603633 ], [ 98.15993148110897, 13.717218990736885 ], [ 98.159933233476423, 13.71721588254626 ], [ 98.160233233417017, 13.716615882502985 ] ] ] } },
{ "type": "Feature", "properties": { "id": "PX-2", "name": "Fish ponds and bunds", "kind": "exclude", "priority": 0, "split": 0, "description": "Fish ponds and their bunds, already there on 10 Jan 2026." }, "geometry": { "type": "Polygon", "coordinates": [ [ [ 98.151, 13.7145 ], [ 98.1524, 13.7145 ], [ 98.1524, 13.7152 ], [ 98.151, 13.7152 ], [ 98.151, 13.7145 ] ] ] } },
{ "type": "Feature", "properties": { "id": "PX-3", "name": "Rectangular cleared plot", "kind": "exclude", "priority": 0, "split": 0, "description": "Rejected on chip review: a rectangular plot with straight cut edges - cleared by people since January, not a slide." }, "geometry": { "type": "Polygon", "coordinates": [ [ [ 98.16595, 13.7043 ], [ 98.16675, 13.7043 ], [ 98.16675, 13.7048 ], [ 98.16595, 13.7048 ], [ 98.16595, 13.7043 ] ] ] } },
{ "type": "Feature", "properties": { "id": "PX-4", "name": "Rock slab bare in Jan 2026", "kind": "exclude", "priority": 0, "split": 0, "description": "Rejected on chip review: a dark striated rock slab, already a dark bare patch on 10 Jan 2026." }, "geometry": { "type": "Polygon", "coordinates": [ [ [ 98.1594, 13.70595 ], [ 98.16015, 13.70595 ], [ 98.16015, 13.70672 ], [ 98.1594, 13.70672 ], [ 98.1594, 13.70595 ] ] ] } },
{ "type": "Feature", "properties": { "id": "PX-5", "name": "Rock slab bare in Jan 2026", "kind": "exclude", "priority": 0, "split": 0, "description": "Rejected on chip review: a dark striated rock slab, already a dark bare patch on 10 Jan 2026." }, "geometry": { "type": "Polygon", "coordinates": [ [ [ 98.15958, 13.70738 ], [ 98.16006, 13.70738 ], [ 98.16006, 13.70769 ], [ 98.15958, 13.70769 ], [ 98.15958, 13.70738 ] ] ] } },
{ "type": "Feature", "properties": { "id": "PX-6", "name": "Rock slab bare in Jan 2026", "kind": "exclude", "priority": 0, "split": 0, "description": "Rejected on chip review: a dark rock slab, already bare on 10 Jan 2026." }, "geometry": { "type": "Polygon", "coordinates": [ [ [ 98.1591, 13.70619 ], [ 98.1593, 13.70619 ], [ 98.1593, 13.70654 ], [ 98.1591, 13.70654 ], [ 98.1591, 13.70619 ] ] ] } },
{ "type": "Feature", "properties": { "id": "PX-7", "name": "Standing roof at the flow edge", "kind": "exclude", "priority": 0, "split": 0, "description": "A roof still standing at the south edge of PG-01; cut out so it is not counted as debris." }, "geometry": { "type": "Polygon", "coordinates": [ [ [ 98.16745, 13.70448 ], [ 98.16785, 13.70448 ], [ 98.16785, 13.70482 ], [ 98.16745, 13.70482 ], [ 98.16745, 13.70448 ] ] ] } },
{ "type": "Feature", "properties": { "id": "PX-8", "name": "Standing roof at the flow edge", "kind": "exclude", "priority": 0, "split": 0, "description": "A roof still standing at the north edge of PG-01; cut out so it is not counted as debris." }, "geometry": { "type": "Polygon", "coordinates": [ [ [ 98.16745, 13.7056 ], [ 98.1677, 13.7056 ], [ 98.1677, 13.7059 ], [ 98.16745, 13.7059 ], [ 98.16745, 13.7056 ] ] ] } }
]
}
