{
"type": "FeatureCollection",
"name": "reach_zones",
"crs": { "type": "name", "properties": { "name": "urn:ogc:def:crs:OGC:1.3:CRS84" } },
"features": [
{ "type": "Feature", "properties": { "zone": "A", "alpha_deg": 14.8, "label": "Within reach of an open-slope debris flow (alpha 14.8 deg)" }, "geometry": { "type": "MultiPolygon", "coordinates": [ [ [ [ 98.12817712820042, 13.90651855169309 ], [ 98.128454785488344, 13.906519543511784 ], [ 98.128456815761652, 13.90597708264886 ], [ 98.127623845903045, 13.905974106365901 ], [ 98.127624861976926, 13.905702875985611 ], [ 98.127347205724263, 13.905701883279772 ], [ 98.127348222099627, 13.905430652913505 ], [ 98.127070566192046, 13.905429659911977 ], [ 98.127071582868894, 13.905158429559741 ], [ 98.126238616246866, 13.905155448720729 ], [ 98.12623963387172, 13.904884218422804 ], [ 98.125961978697958, 13.90488322419835 ], [ 98.125962996624239, 13.904611993914486 ], [ 98.126240651474731, 13.904612988118792 ], [ 98.126241669055929, 13.904341757808691 ], [ 98.126519323604981, 13.904342751677071 ], [ 98.126520340841097, 13.904071521340738 ], [ 98.126797995088722, 13.904072514873205 ], [ 98.126799011979784, 13.903801284510646 ], [ 98.127076665925983, 13.903802277707214 ], [ 98.127077682471977, 13.903531047318436 ], [ 98.127355336116764, 13.903532040179117 ], [ 98.127358384654244, 13.90271834891589 ], [ 98.127636037351152, 13.902719341400468 ], [ 98.127637053163497, 13.902448110947098 ], [ 98.127914705558993, 13.902449103095826 ], [ 98.127915721026355, 13.902177872616258 ], [ 98.128193373120425, 13.902178864429153 ], [ 98.128190327622619, 13.902992555909888 ], [ 98.129023286944388, 13.902995529634994 ], [ 98.129024301162445, 13.902724299087238 ], [ 98.129301953990009, 13.902725289677369 ], [ 98.129303981714457, 13.902182828523431 ], [ 98.129859286142008, 13.902184808676205 ], [ 98.129860299325202, 13.901913578049971 ], [ 98.130415603193299, 13.901915556899718 ], [ 98.1304145906565, 13.902186787566061 ], [ 98.130692242946324, 13.902187776537396 ], [ 98.13069325515994, 13.901916545851009 ], [ 98.131248559158365, 13.901918522806421 ], [ 98.1312515937298, 13.901104830590532 ], [ 98.131529244792034, 13.901105818534576 ], [ 98.131530255949272, 13.900834587763747 ], [ 98.131807906710009, 13.900835575372069 ], [ 98.131805885020185, 13.901378036947682 ], [ 98.13236118789942, 13.901380011297272 ], [ 98.132362198108822, 13.901108780472496 ], [ 98.133195151620697, 13.901111739569075 ], [ 98.133197170035487, 13.900569277781294 ], [ 98.133474820603112, 13.900570263475453 ], [ 98.133475829454866, 13.900299032552452 ], [ 98.134031130008694, 13.90030100295375 ], [ 98.134033146354696, 13.899758541009605 ], [ 98.133755496713263, 13.899757556006735 ], [ 98.133756505176947, 13.899486325045498 ], [ 98.13347885588027, 13.899485339746924 ], [ 98.133479864645452, 13.899214108799573 ], [ 98.133757513619003, 13.899215094078171 ], [ 98.133759530438169, 13.898672632125265 ], [ 98.134037178787125, 13.898673617048273 ], [ 98.134038186841138, 13.89840238604272 ], [ 98.134315834888611, 13.898403370630119 ], [ 98.134319865596041, 13.897318446467212 ], [ 98.133764572107452, 13.897316477136481 ], [ 98.133765580376405, 13.897045246120465 ], [ 98.134043226786801, 13.897046230923673 ], [ 98.134044234711041, 13.8967749998816 ], [ 98.13543246547205, 13.896779919063755 ], [ 98.135431459163144, 13.897051150205563 ], [ 98.135709105703228, 13.897052133115112 ], [ 98.13571011168905, 13.896780901953379 ], [ 98.135987757927666, 13.896781884527401 ], [ 98.135988763568861, 13.896510653339661 ], [ 98.135155825886997, 13.896507704730578 ], [ 98.135156832475758, 13.896236473596534 ], [ 98.135434478025061, 13.896237456761893 ], [ 98.135435484269181, 13.89596622560183 ], [ 98.135713129517043, 13.895967208431669 ], [ 98.135714135416535, 13.895695977245593 ], [ 98.135991780362929, 13.895696959739928 ], [ 98.135993791451085, 13.895154497309681 ], [ 98.136271435772997, 13.895155479448603 ], [ 98.136273446128797, 13.894613016954187 ], [ 98.13655108982627, 13.89461399873773 ], [ 98.136553099449756, 13.894071536179158 ], [ 98.13683074252279, 13.894072517607341 ], [ 98.136831746979198, 13.893801286299025 ], [ 98.137109389750805, 13.893802267391777 ], [ 98.13711039386267, 13.893531036057482 ], [ 98.137388036332837, 13.893532016814811 ], [ 98.13738904010016, 13.893260785454544 ], [ 98.137666682268915, 13.893261765876462 ], [ 98.137666768496345, 13.893238458298336 ], [ 98.137643522449395, 13.89323266180668 ], [ 98.137566436803979, 13.893149575966547 ], [ 98.137398198646707, 13.89300061660375 ], [ 98.137215825157298, 13.892868483877042 ], [ 98.137113069298493, 13.892808317170866 ], [ 98.137112402021714, 13.892988573370641 ], [ 98.136279476678368, 13.892985629324903 ], [ 98.136278471640708, 13.893256860611665 ], [ 98.136000829579757, 13.893255878612139 ], [ 98.136001834940387, 13.892984647345298 ], [ 98.135724193223993, 13.892983665050178 ], [ 98.135725198886007, 13.892712433797174 ], [ 98.135447557514155, 13.892711451206466 ], [ 98.135448563477539, 13.892440219967304 ], [ 98.135726204526435, 13.892441202538082 ], [ 98.135726513947262, 13.892357747478354 ], [ 98.135586593675114, 13.892337837244741 ], [ 98.135494530412828, 13.892333497687206 ], [ 98.135472800591074, 13.892330348840231 ], [ 98.135409247213886, 13.892308134303093 ], [ 98.135188996914522, 13.892254238813997 ], [ 98.13496439974567, 13.892221692565467 ], [ 98.13473761864168, 13.892210808983359 ], [ 98.134677979924092, 13.89221080901706 ], [ 98.134549869472451, 13.892218601096701 ], [ 98.134508549755381, 13.892208714317839 ], [ 98.134288636890275, 13.892177535998281 ], [ 98.134066676633509, 13.892167111269615 ], [ 98.134021947595315, 13.892167111294906 ], [ 98.133739243333793, 13.892184047497009 ], [ 98.133460775591629, 13.892234602031982 ], [ 98.133401136838444, 13.892249167956521 ], [ 98.133230630688772, 13.892297674646116 ], [ 98.133185901598949, 13.8923122405643 ], [ 98.133141172047416, 13.892326806632839 ], [ 98.133054571089559, 13.892361850835094 ], [ 98.132909500689735, 13.892369458190164 ], [ 98.132664670003408, 13.892408272686886 ], [ 98.132425499287663, 13.892472467612782 ], [ 98.132380770197884, 13.892487033530982 ], [ 98.132375658657025, 13.892488698092217 ], [ 98.132352047017008, 13.892487564921908 ], [ 98.132337137337601, 13.892487564930354 ], [ 98.132154490295463, 13.892496330678396 ], [ 98.132117572592009, 13.892487296880956 ], [ 98.131892975310663, 13.892454750719439 ], [ 98.131799801181657, 13.892450279206987 ], [ 98.131726519839845, 13.892424664378032 ], [ 98.131506269574217, 13.892370768985295 ], [ 98.131281672445269, 13.892338222823062 ], [ 98.131054891387805, 13.892327339316466 ], [ 98.130846155876227, 13.892327339434916 ], [ 98.130729006347408, 13.892332991974589 ], [ 98.130728668955953, 13.892423467992549 ], [ 98.130451028296832, 13.892422479742777 ], [ 98.130450016520257, 13.892693710622149 ], [ 98.129339452809162, 13.892689754387833 ], [ 98.129339606067873, 13.89264872250536 ], [ 98.129225751453319, 13.892652195116186 ], [ 98.12922465036479, 13.892652262348571 ], [ 98.129131524885622, 13.892647793090809 ], [ 98.129086795847428, 13.892647793116243 ], [ 98.129071885878957, 13.892647793124725 ], [ 98.129042066303029, 13.892647793141681 ], [ 98.128851224290415, 13.892655495265876 ], [ 98.128661682883973, 13.892678548953162 ], [ 98.128572224789153, 13.892693114893566 ], [ 98.128476981241874, 13.892713424280615 ], [ 98.128425253667686, 13.892715768993217 ], [ 98.128212847320071, 13.892744819818708 ], [ 98.128004107210486, 13.892792960335507 ], [ 98.127913330685232, 13.892822797865186 ], [ 98.127908919388744, 13.892822586158434 ], [ 98.127879100029944, 13.89282258617542 ], [ 98.127664852482752, 13.892832297680705 ], [ 98.127452445978108, 13.892861348525951 ], [ 98.127243705717476, 13.89290948907515 ], [ 98.127230267629827, 13.892913906071344 ], [ 98.127148518292216, 13.89290998277759 ], [ 98.127103789254036, 13.892909982803079 ], [ 98.126982177835231, 13.892913107247432 ], [ 98.126698893932769, 13.892927673298175 ], [ 98.126564987032722, 13.892938374612836 ], [ 98.126528886952485, 13.892942293271563 ], [ 98.126462666459872, 13.892939115230629 ], [ 98.126432847101086, 13.892939115247639 ], [ 98.12642483367523, 13.892939535469772 ], [ 98.126422020915996, 13.892938847184963 ], [ 98.126284504551251, 13.892918919840497 ], [ 98.126284387756442, 13.892950079286239 ], [ 98.126562028734966, 13.892951072308756 ], [ 98.126561012393424, 13.893222302894694 ], [ 98.126838653716746, 13.893223295621835 ], [ 98.126836621614174, 13.893765756815716 ], [ 98.126558979644912, 13.893764764048308 ], [ 98.126559996030082, 13.893493533474546 ], [ 98.126004712802967, 13.893491547033429 ], [ 98.126005729812263, 13.893220316493865 ], [ 98.125728088554425, 13.893219322820174 ], [ 98.125729105864849, 13.892948092294668 ], [ 98.125451464951809, 13.892947098325623 ], [ 98.125451601011491, 13.892910833805153 ], [ 98.125433888675772, 13.892909983755812 ], [ 98.125418978996393, 13.892909983764326 ], [ 98.125306017274355, 13.892915405123549 ], [ 98.125243193929478, 13.892906301452024 ], [ 98.125081386821734, 13.892898536168003 ], [ 98.125034457109251, 13.892891735611117 ], [ 98.124888026148412, 13.892884708200114 ], [ 98.12475212008269, 13.892851451898657 ], [ 98.124751841510246, 13.892851411531122 ], [ 98.124692480627402, 13.89283688587701 ], [ 98.124619081017528, 13.892826249636304 ], [ 98.124603021707074, 13.892822319908301 ], [ 98.124378424581096, 13.892789773754451 ], [ 98.124151643521259, 13.892778890209689 ], [ 98.124077095124292, 13.892778890252323 ], [ 98.123850314093659, 13.892789774055139 ], [ 98.123794910051117, 13.892797802685992 ], [ 98.123704348656261, 13.892793456496554 ], [ 98.123599980900522, 13.892793456556277 ], [ 98.123373199871807, 13.892804340345009 ], [ 98.123148602826788, 13.892836886732224 ], [ 98.122928352696704, 13.892890782283555 ], [ 98.122714570553711, 13.892965507966236 ], [ 98.122509315185908, 13.893060344147242 ], [ 98.12231456327217, 13.893174377523119 ], [ 98.122132190347187, 13.893306509914792 ], [ 98.12196395274043, 13.893455468842685 ], [ 98.121811470662436, 13.893619819780289 ], [ 98.121676212601841, 13.89379797996834 ], [ 98.121559481182786, 13.893988233656456 ], [ 98.121462400619464, 13.894188748625599 ], [ 98.121385905888275, 13.89439759383227 ], [ 98.121330733722047, 13.894612758004513 ], [ 98.121311322091898, 13.894740589826737 ], [ 98.12125333946922, 13.894769679240778 ], [ 98.12106767648298, 13.894885875016664 ], [ 98.120894178748074, 13.895018808318477 ], [ 98.120734421956868, 13.895167271869722 ], [ 98.120589857017052, 13.89532991734932 ], [ 98.120461796874707, 13.895505267636068 ], [ 98.120351404589925, 13.895691730222872 ], [ 98.120330223179025, 13.895736965358498 ], [ 98.120254689858001, 13.895892974415576 ], [ 98.120178194608087, 13.896101819506809 ], [ 98.120123022067503, 13.896316983558602 ], [ 98.120122943444414, 13.896317501313513 ], [ 98.12011319116705, 13.896333396428888 ], [ 98.120016115725548, 13.896533906169021 ], [ 98.119939625095213, 13.896742745349156 ], [ 98.119884455921863, 13.896957902885214 ], [ 98.119851139534731, 13.897177306843238 ], [ 98.119839996827707, 13.897398844391326 ], [ 98.119839994947213, 13.897588202648375 ], [ 98.119847875930205, 13.89777462117938 ], [ 98.11987146891569, 13.897959769609942 ], [ 98.119886377890026, 13.898047165867446 ], [ 98.119923973991305, 13.898223767512874 ], [ 98.119938883272013, 13.898282031729575 ], [ 98.119953792492637, 13.898340295711362 ], [ 98.119991024985424, 13.898465210105144 ], [ 98.119985315490027, 13.898502808313237 ], [ 98.119982840927634, 13.89855200535348 ], [ 98.119970404379814, 13.898633902563272 ], [ 98.119959260883505, 13.89885544719762 ], [ 98.119959259870811, 13.898957409336036 ], [ 98.119973407261298, 13.899206999760594 ], [ 98.119988315789769, 13.899338094077791 ], [ 98.1199920424243, 13.899361545217706 ], [ 98.119985306566448, 13.899405902057302 ], [ 98.119974163031031, 13.899627446677197 ], [ 98.119974162741684, 13.899656578716746 ], [ 98.119985419481424, 13.899879286813228 ], [ 98.120019084616644, 13.900099827680808 ], [ 98.120020437664692, 13.90010643724575 ], [ 98.120018887412911, 13.900137257698296 ], [ 98.120018886110756, 13.900268351876266 ], [ 98.120030025289751, 13.900489896652015 ], [ 98.12006334000165, 13.900709308039056 ], [ 98.120075753390424, 13.900757721190988 ], [ 98.12005984124373, 13.900862504915104 ], [ 98.120048697638595, 13.901084049513418 ], [ 98.120048697204496, 13.90112774757274 ], [ 98.120059836428723, 13.901349292350655 ], [ 98.120093151270993, 13.901568703739301 ], [ 98.120096272643167, 13.901580877280519 ], [ 98.120093421585764, 13.901637558585309 ], [ 98.120093421296374, 13.901666690624863 ], [ 98.120104560547702, 13.901888235404146 ], [ 98.120137875470348, 13.902107646793949 ], [ 98.120193045285205, 13.902322811737656 ], [ 98.120269538734533, 13.902531658068474 ], [ 98.120366619196162, 13.902732174465923 ], [ 98.120438351774538, 13.902849087091935 ], [ 98.120432566607278, 13.90288718288274 ], [ 98.120432282811763, 13.902892824944468 ], [ 98.120418299415306, 13.902984906722688 ], [ 98.120406243147201, 13.903031922810579 ], [ 98.120406199285043, 13.903032211646606 ], [ 98.12039133276626, 13.903090186916717 ], [ 98.120358013356608, 13.903309597691946 ], [ 98.120346869632328, 13.903531142262628 ], [ 98.120346869487619, 13.903545708282405 ], [ 98.120358008826102, 13.903767253006878 ], [ 98.120391324009177, 13.903986664343062 ], [ 98.120446494255319, 13.904201829235546 ], [ 98.120522988302881, 13.904410675518678 ], [ 98.120620069524108, 13.904611191873085 ], [ 98.120736803017394, 13.904801447196396 ], [ 98.120872064609131, 13.904979609201607 ], [ 98.121024551678914, 13.905143962063974 ], [ 98.12119279570355, 13.905292922946407 ], [ 98.121375176399454, 13.905425057244191 ], [ 98.121569937326839, 13.905539092402192 ], [ 98.121775202805821, 13.905633930171412 ], [ 98.121988995981241, 13.905708657186821 ], [ 98.122013530333504, 13.905714660586161 ], [ 98.122061960510749, 13.905743017058043 ], [ 98.122267226208464, 13.905837854833136 ], [ 98.122481019610973, 13.905912581850055 ], [ 98.122701281725057, 13.905966478424858 ], [ 98.122808956553428, 13.905982081081273 ], [ 98.122938167760864, 13.906041779711472 ], [ 98.123151961436648, 13.906116506711395 ], [ 98.123372223828554, 13.906170403257935 ], [ 98.123596833635261, 13.906202950280278 ], [ 98.123823627682043, 13.906213834320411 ], [ 98.123838537650769, 13.906213834328941 ], [ 98.123899408590731, 13.906213052068605 ], [ 98.123944965001868, 13.906211880934279 ], [ 98.124132623106547, 13.90625779954936 ], [ 98.124357232910924, 13.906290346711325 ], [ 98.124584026970098, 13.906301230909245 ], [ 98.12458800895817, 13.906301230914526 ], [ 98.124642942883568, 13.906320431855169 ], [ 98.124863205539853, 13.906374328430163 ], [ 98.125087815617221, 13.906406875475179 ], [ 98.125314609938471, 13.90641775953201 ], [ 98.125359339844664, 13.906417759557556 ], [ 98.125587574580436, 13.906401913630662 ], [ 98.125653426101948, 13.906418026962479 ], [ 98.125878036270706, 13.906450574007875 ], [ 98.126104830683559, 13.906461458060109 ], [ 98.12613465062104, 13.906461458077121 ], [ 98.126202336013264, 13.906457403302726 ], [ 98.126219999329109, 13.906461725369207 ], [ 98.126444609576808, 13.906494272413221 ], [ 98.12667140406873, 13.906505156460289 ], [ 98.126686314037457, 13.906505156468787 ], [ 98.126913108553964, 13.906494272679208 ], [ 98.126969600610408, 13.906486086809526 ], [ 98.127026092544469, 13.90649427273013 ], [ 98.127252887059939, 13.906505156791741 ], [ 98.127297616966118, 13.906505156817232 ], [ 98.127319599500709, 13.906504101891073 ], [ 98.127460898477096, 13.906553489808061 ], [ 98.127681161508903, 13.906607386419095 ], [ 98.127905771969054, 13.906639933485691 ], [ 98.128132566676683, 13.906650817549458 ], [ 98.128148738176137, 13.906650817559608 ], [ 98.128174148906425, 13.906654499676385 ], [ 98.1281766187671, 13.906654618208005 ], [ 98.12817712820042, 13.90651855169309 ] ], [ [ 98.125694505058604, 13.902169926746929 ], [ 98.125695523089732, 13.901898696422315 ], [ 98.125417871515182, 13.901897701788034 ], [ 98.125419908158293, 13.901355241160864 ], [ 98.125697559086476, 13.901356235754825 ], [ 98.125698577052077, 13.901085005411947 ], [ 98.125976227678947, 13.901085999670043 ], [ 98.125975210036501, 13.901357230033078 ], [ 98.126530512002077, 13.901359217642465 ], [ 98.126529494984169, 13.901630448039692 ], [ 98.126807146322861, 13.901631441390954 ], [ 98.126806129606322, 13.901902671802228 ], [ 98.126528477944447, 13.901901678430828 ], [ 98.126526443799534, 13.902444139194847 ], [ 98.125971139248435, 13.902442151424317 ], [ 98.125972156978207, 13.90217092108564 ], [ 98.125694505058604, 13.902169926746929 ] ], [ [ 98.127083781290025, 13.901903664857901 ], [ 98.127084797683366, 13.901632434426503 ], [ 98.127362449065686, 13.901633427146338 ], [ 98.127360416903571, 13.902175888043292 ], [ 98.126805112867984, 13.902173902207414 ], [ 98.126806129606322, 13.901902671802228 ], [ 98.127083781290025, 13.901903664857901 ] ], [ [ 98.127917751895708, 13.901635411638859 ], [ 98.128195403343412, 13.901636403411546 ], [ 98.128194388242804, 13.901907633923393 ], [ 98.127916736471917, 13.901906642130601 ], [ 98.127917751895708, 13.901635411638859 ] ], [ [ 98.129865364915162, 13.900557424827475 ], [ 98.130143015222458, 13.900558414309927 ], [ 98.130142002471104, 13.900829644986658 ], [ 98.129864351840624, 13.900828655484149 ], [ 98.129865364915162, 13.900557424827475 ] ], [ [ 98.126812229578363, 13.90027528924325 ], [ 98.127089879323023, 13.900276282178162 ], [ 98.127088863038708, 13.900547512640006 ], [ 98.126811212970878, 13.900546519684966 ], [ 98.126812229578363, 13.90027528924325 ] ], [ [ 98.129041539540609, 13.898113378843819 ], [ 98.129319186874554, 13.898114369092657 ], [ 98.129321213859484, 13.897571907731731 ], [ 98.12904356717172, 13.897570917523042 ], [ 98.129045594715805, 13.897028456177917 ], [ 98.129323240757429, 13.897029446346457 ], [ 98.129322227319321, 13.897300677042137 ], [ 98.130155166543858, 13.897303645714302 ], [ 98.130154154053244, 13.897574876464084 ], [ 98.130431800827964, 13.897575865410294 ], [ 98.130426739664486, 13.898932019168148 ], [ 98.130704388076438, 13.898933007898954 ], [ 98.130703376101692, 13.899204238652308 ], [ 98.130981024858471, 13.899205227087501 ], [ 98.130980013185138, 13.899476457854803 ], [ 98.129869416995845, 13.899472502139893 ], [ 98.129872455828163, 13.898658810060285 ], [ 98.129317159802625, 13.898656830429235 ], [ 98.129318173349461, 13.898385599763992 ], [ 98.129040525692417, 13.898384609495073 ], [ 98.129041539540609, 13.898113378843819 ] ], [ [ 98.127376671759066, 13.897836200185733 ], [ 98.127931965541279, 13.89783818411515 ], [ 98.127930950422481, 13.898109414692129 ], [ 98.127375655994086, 13.89810743072249 ], [ 98.127376671759066, 13.897836200185733 ] ], [ [ 98.126544747961688, 13.897561991441956 ], [ 98.126822394453399, 13.897562984491222 ], [ 98.126821378064051, 13.897834214993816 ], [ 98.126543731249257, 13.897833221924417 ], [ 98.126544747961688, 13.897561991441956 ] ], [ [ 98.13377868590365, 13.893519242358472 ], [ 98.13350104371419, 13.8935182574993 ], [ 98.13350205200318, 13.893247026418061 ], [ 98.13377969386967, 13.89324801125726 ], [ 98.13377868590365, 13.893519242358472 ] ], [ [ 98.133780701814047, 13.892976780149963 ], [ 98.134058343379195, 13.892977764653676 ], [ 98.13405733575776, 13.893248995780938 ], [ 98.13377969386967, 13.89324801125726 ], [ 98.133780701814047, 13.892976780149963 ] ] ], [ [ [ 98.128462906059042, 13.904349699913924 ], [ 98.128463921032392, 13.904078469436785 ], [ 98.129574538763734, 13.904082432830384 ], [ 98.129575552422338, 13.903811202266839 ], [ 98.127909627895434, 13.903805255402322 ], [ 98.127907596677488, 13.90434771628229 ], [ 98.127352287383076, 13.904345731387538 ], [ 98.127350254784957, 13.904888192162703 ], [ 98.128738531416971, 13.904893152232258 ], [ 98.128740560782489, 13.90435069125607 ], [ 98.128462906059042, 13.904349699913924 ] ], [ [ 98.12818525135738, 13.904348708255997 ], [ 98.12818423603899, 13.904619938706951 ], [ 98.127906581035845, 13.904618946713141 ], [ 98.127907596677488, 13.90434771628229 ], [ 98.12818525135738, 13.904348708255997 ] ] ], [ [ [ 98.127072599523927, 13.904887199201415 ], [ 98.127071582868894, 13.905158429559741 ], [ 98.127349238453192, 13.90515942254115 ], [ 98.127350254784957, 13.904888192162703 ], [ 98.127072599523927, 13.904887199201415 ] ] ], [ [ [ 98.132346032157301, 13.905448472938351 ], [ 98.132347042691833, 13.905177242204902 ], [ 98.131791730762203, 13.905175267295052 ], [ 98.131790719581105, 13.905446497988482 ], [ 98.132346032157301, 13.905448472938351 ] ] ] ] } },
{ "type": "Feature", "properties": { "zone": "B", "alpha_deg": 11.6, "label": "Within reach only of a channelised flow (alpha 11.6 deg)" }, "geometry": { "type": "MultiPolygon", "coordinates": [ [ [ [ 98.12956440098165, 13.9067947381309 ], [ 98.129842058701684, 13.906795728390504 ], [ 98.129843072254431, 13.906524497867798 ], [ 98.130120729672896, 13.906525487791507 ], [ 98.130122756066569, 13.905983026687698 ], [ 98.129567442544598, 13.905981046604692 ], [ 98.129568456355429, 13.905709816083778 ], [ 98.129013143567022, 13.905707834777646 ], [ 98.129010100129506, 13.906521526201683 ], [ 98.128454785488344, 13.906519543511784 ], [ 98.12817712820042, 13.90651855169309 ], [ 98.1281766187671, 13.906654618208005 ], [ 98.128174148906425, 13.906654499676385 ], [ 98.128400943653546, 13.906665383727873 ], [ 98.128415853622286, 13.90666538373636 ], [ 98.128584770884913, 13.906655109982802 ], [ 98.128681082677431, 13.906669065969698 ], [ 98.12874811507271, 13.906672282932778 ], [ 98.128901096667576, 13.906807740457436 ], [ 98.129083483872947, 13.906939888017128 ], [ 98.129278253299773, 13.907053934883344 ], [ 98.129302281415633, 13.907065037094334 ], [ 98.129563387083834, 13.907065968627457 ], [ 98.12956440098165, 13.9067947381309 ] ] ], [ [ [ 98.128733457622275, 13.906249304566142 ], [ 98.128734472424753, 13.905978074111543 ], [ 98.128456815761652, 13.90597708264886 ], [ 98.128455800635891, 13.906248313083371 ], [ 98.128733457622275, 13.906249304566142 ] ] ], [ [ [ 98.12735431989401, 13.903803270588014 ], [ 98.127631973883823, 13.903804263153052 ], [ 98.127630957962495, 13.904075493575972 ], [ 98.127908612297347, 13.90407648584535 ], [ 98.127909627895434, 13.903805255402322 ], [ 98.129575552422338, 13.903811202266839 ], [ 98.129574538763734, 13.904082432830384 ], [ 98.129296884298256, 13.904081442455643 ], [ 98.129295870294655, 13.904352672993031 ], [ 98.129573525083373, 13.904353663387841 ], [ 98.129572511381269, 13.904624893939205 ], [ 98.130127821670456, 13.904626873821607 ], [ 98.130130860772013, 13.903813182028872 ], [ 98.130686169208602, 13.903815160527841 ], [ 98.130687181552517, 13.903543929877989 ], [ 98.130964835480157, 13.903544918633784 ], [ 98.130965847479132, 13.903273687957805 ], [ 98.131521154753059, 13.903275664482054 ], [ 98.131523177392978, 13.902733203031715 ], [ 98.131245524391602, 13.90273221496752 ], [ 98.131246536002223, 13.90246098425324 ], [ 98.130968883345759, 13.902459995893334 ], [ 98.130969895257877, 13.902188765192999 ], [ 98.130692242946324, 13.902187776537396 ], [ 98.1304145906565, 13.902186787566061 ], [ 98.130415603193299, 13.901915556899718 ], [ 98.129860299325202, 13.901913578049971 ], [ 98.129859286142008, 13.902184808676205 ], [ 98.129303981714457, 13.902182828523431 ], [ 98.129301953990009, 13.902725289677369 ], [ 98.129024301162445, 13.902724299087238 ], [ 98.129023286944388, 13.902995529634994 ], [ 98.128190327622619, 13.902992555909888 ], [ 98.128189312413141, 13.903263786391289 ], [ 98.128466965821843, 13.903264777968834 ], [ 98.128465950913807, 13.90353600846424 ], [ 98.127910643471722, 13.903534024953199 ], [ 98.127911659026211, 13.903262794497987 ], [ 98.127634005661065, 13.903261802288938 ], [ 98.127636037351152, 13.902719341400468 ], [ 98.127358384654244, 13.90271834891589 ], [ 98.127355336116764, 13.903532040179117 ], [ 98.12735431989401, 13.903803270588014 ] ] ], [ [ [ 98.132081515318745, 13.901921485871618 ], [ 98.132914471674255, 13.901924446095302 ], [ 98.132913462046233, 13.902195676941814 ], [ 98.133191114531272, 13.90219666307158 ], [ 98.133190105204761, 13.902467893931986 ], [ 98.133745410886206, 13.902469865284287 ], [ 98.133746419566293, 13.902198634383929 ], [ 98.134301724687873, 13.90220060443335 ], [ 98.134300716654195, 13.902471835373641 ], [ 98.134578369570633, 13.902472819944707 ], [ 98.134577361838552, 13.902744050898864 ], [ 98.134855015099816, 13.902745035174146 ], [ 98.13485300021722, 13.903287497104088 ], [ 98.135130654146565, 13.903288481103511 ], [ 98.13513266838271, 13.902746019133682 ], [ 98.135687975013283, 13.902747986105531 ], [ 98.13568998787018, 13.902205524031624 ], [ 98.135412335190509, 13.90220454074343 ], [ 98.135413341909754, 13.901933309717272 ], [ 98.135135689574881, 13.901932326133286 ], [ 98.135134682532424, 13.902203557139506 ], [ 98.134857029895969, 13.902202573219855 ], [ 98.134858037261608, 13.901931342233572 ], [ 98.133469776019595, 13.901926417999142 ], [ 98.133471793917934, 13.901383956207933 ], [ 98.13319414238083, 13.901382970453835 ], [ 98.133195151620697, 13.901111739569075 ], [ 98.132362198108822, 13.901108780472496 ], [ 98.13236118789942, 13.901380011297272 ], [ 98.13208353644896, 13.901379024280335 ], [ 98.132081515318745, 13.901921485871618 ] ] ], [ [ [ 98.136264398848141, 13.897054097987384 ], [ 98.136266409505993, 13.896511635578163 ], [ 98.135988763568861, 13.896510653339661 ], [ 98.135987757927666, 13.896781884527401 ], [ 98.13571011168905, 13.896780901953379 ], [ 98.135709105703228, 13.897052133115112 ], [ 98.136264398848141, 13.897054097987384 ] ] ], [ [ [ 98.137384021048078, 13.894616942195043 ], [ 98.137382013276422, 13.895159404848652 ], [ 98.137659657706152, 13.895160385409747 ], [ 98.137660661279739, 13.894889154066107 ], [ 98.137938305407999, 13.894890134291764 ], [ 98.137940311844531, 13.894347671546466 ], [ 98.13849559887359, 13.894349630971631 ], [ 98.138496601413564, 13.894078399550125 ], [ 98.138774244637389, 13.894079378769529 ], [ 98.138774905532458, 13.893900516581969 ], [ 98.138722865095914, 13.89384267976828 ], [ 98.138553660301739, 13.893688769986726 ], [ 98.138369577228616, 13.893552125122815 ], [ 98.138172453917434, 13.89343410953283 ], [ 98.137964258602068, 13.893335901562816 ], [ 98.137747070057884, 13.893258481784111 ], [ 98.137666768496345, 13.893238458298336 ], [ 98.137666682268915, 13.893261765876462 ], [ 98.13738904010016, 13.893260785454544 ], [ 98.137388036332837, 13.893532016814811 ], [ 98.137665678824575, 13.893532997256616 ], [ 98.137664675358678, 13.89380422863068 ], [ 98.13738703254397, 13.893803248168993 ], [ 98.137386028733545, 13.894074479517098 ], [ 98.137108385617395, 13.89407349871999 ], [ 98.137109389750805, 13.893802267391777 ], [ 98.136831746979198, 13.893801286299025 ], [ 98.13683074252279, 13.894072517607341 ], [ 98.136553099449756, 13.894071536179158 ], [ 98.13655108982627, 13.89461399873773 ], [ 98.137384021048078, 13.894616942195043 ] ] ], [ [ [ 98.137021072677669, 13.892754450266933 ], [ 98.136815816754492, 13.892659613951128 ], [ 98.136602034077569, 13.892584888229566 ], [ 98.136381783444804, 13.892530992729823 ], [ 98.136287000507025, 13.892517257833266 ], [ 98.136234300436001, 13.892493401182632 ], [ 98.136023859895715, 13.892421256930092 ], [ 98.135807286896892, 13.892369241188252 ], [ 98.135586593675114, 13.892337837244741 ], [ 98.135726513947262, 13.892357747478354 ], [ 98.135726204526435, 13.892441202538082 ], [ 98.135448563477539, 13.892440219967304 ], [ 98.135447557514155, 13.892711451206466 ], [ 98.135725198886007, 13.892712433797174 ], [ 98.135724193223993, 13.892983665050178 ], [ 98.136001834940387, 13.892984647345298 ], [ 98.136000829579757, 13.893255878612139 ], [ 98.136278471640708, 13.893256860611665 ], [ 98.136279476678368, 13.892985629324903 ], [ 98.137112402021714, 13.892988573370641 ], [ 98.137113069298493, 13.892808317170866 ], [ 98.137215825157298, 13.892868483877042 ], [ 98.137021072677669, 13.892754450266933 ] ] ], [ [ [ 98.129617460258217, 13.89259257509967 ], [ 98.129413714338611, 13.892647261768369 ], [ 98.12941051858175, 13.892648302459081 ], [ 98.129399901790137, 13.892647792938217 ], [ 98.12937008243135, 13.892647792955168 ], [ 98.129339606067873, 13.89264872250536 ], [ 98.129339452809162, 13.892689754387833 ], [ 98.12961709370434, 13.892690743919669 ], [ 98.129617460258217, 13.89259257509967 ] ] ], [ [ [ 98.130425727366642, 13.899203249901458 ], [ 98.130703376101692, 13.899204238652308 ], [ 98.130704388076438, 13.898933007898954 ], [ 98.130426739664486, 13.898932019168148 ], [ 98.130425727366642, 13.899203249901458 ] ] ], [ [ [ 98.130702364105233, 13.899475469399572 ], [ 98.130980013185138, 13.899476457854803 ], [ 98.130981024858471, 13.899205227087501 ], [ 98.130703376101692, 13.899204238652308 ], [ 98.130702364105233, 13.899475469399572 ] ] ], [ [ [ 98.13738703254397, 13.893803248168993 ], [ 98.137388036332837, 13.893532016814811 ], [ 98.13711039386267, 13.893531036057482 ], [ 98.137109389750805, 13.893802267391777 ], [ 98.13738703254397, 13.893803248168993 ] ] ], [ [ [ 98.13350205200318, 13.893247026418061 ], [ 98.13350104371419, 13.8935182574993 ], [ 98.13377868590365, 13.893519242358472 ], [ 98.13377969386967, 13.89324801125726 ], [ 98.13350205200318, 13.893247026418061 ] ] ], [ [ [ 98.13405733575776, 13.893248995780938 ], [ 98.134058343379195, 13.892977764653676 ], [ 98.133780701814047, 13.892976780149963 ], [ 98.13377969386967, 13.89324801125726 ], [ 98.13405733575776, 13.893248995780938 ] ] ] ] } }
]
}
