{"type":"FeatureCollection","totalFeatures":6,"features":[{"type":"Feature","id":"health_facilities_myanmar2020_v20241016.282","geometry":{"type":"Point","coordinates":[98.20310700000005,14.079225000000065]},"geometry_name":"the_geom","properties":{"id_healthF":"hsp_0283","nmHsp_mya":"ထားဝယ်ပြည်သူ့ဆေးရုံကြီး","nmHsp_eng":"Dawei General Hospital","lvlHsp_mya":"မြို့နယ်","lvlHsp_eng":"General","bedClass":"200","SR_PCODE":"MMR006","SR_mya":"တနင်္သာရီတိုင်းဒေသကြီး","SR":"Tanintharyi","DT_PCODE":"MMR006D001","DT":"Dawei","TS_PCODE":"MMR006001","TS_mya":"ထားဝယ်","TS_en":"Dawei","SELF_ADMIN":"","comment":"","accuraConf":"high confidence"}},{"type":"Feature","id":"health_facilities_myanmar2020_v20241016.284","geometry":{"type":"Point","coordinates":[98.12450600000005,13.985018000000025]},"geometry_name":"the_geom","properties":{"id_healthF":"hsp_0285","nmHsp_mya":"လောင်းလုံမြို့နယ်ဆေးရုံ","nmHsp_eng":"Launglon Township Hospital","lvlHsp_mya":"မြို့နယ်","lvlHsp_eng":"Township","bedClass":"25","SR_PCODE":"MMR006","SR_mya":"တနင်္သာရီတိုင်းဒေသကြီး","SR":"Tanintharyi","DT_PCODE":"MMR006D001","DT":"Dawei","TS_PCODE":"MMR006002","TS_mya":"လောင်းလုံး","TS_en":"Launglon","SELF_ADMIN":"","comment":"","accuraConf":"high confidence"}},{"type":"Feature","id":"health_facilities_myanmar2020_v20241016.285","geometry":{"type":"Point","coordinates":[98.09928700000006,14.144622000000027]},"geometry_name":"the_geom","properties":{"id_healthF":"hsp_0286","nmHsp_mya":"မောင်းမကန်တိုက်နယ်ဆေးရုံ","nmHsp_eng":"Maung Ma Kan Station Hospital","lvlHsp_mya":"တိုက်နယ်","lvlHsp_eng":"Station","bedClass":"16","SR_PCODE":"MMR006","SR_mya":"တနင်္သာရီတိုင်းဒေသကြီး","SR":"Tanintharyi","DT_PCODE":"MMR006D001","DT":"Dawei","TS_PCODE":"MMR006002","TS_mya":"လောင်းလုံး","TS_en":"Launglon","SELF_ADMIN":"","comment":"","accuraConf":"high confidence"}},{"type":"Feature","id":"health_facilities_myanmar2020_v20241016.286","geometry":{"type":"Point","coordinates":[98.15112300000004,13.755571000000032]},"geometry_name":"the_geom","properties":{"id_healthF":"hsp_0287","nmHsp_mya":"သကြက်တောတိုက်နယ်ဆေးရုံ","nmHsp_eng":"Tha Kyet Taw Station Hospital","lvlHsp_mya":"တိုက်နယ်","lvlHsp_eng":"Station","bedClass":"16","SR_PCODE":"MMR006","SR_mya":"တနင်္သာရီတိုင်းဒေသကြီး","SR":"Tanintharyi","DT_PCODE":"MMR006D001","DT":"Dawei","TS_PCODE":"MMR006002","TS_mya":"လောင်းလုံး","TS_en":"Launglon","SELF_ADMIN":"","comment":"","accuraConf":"high confidence"}},{"type":"Feature","id":"health_facilities_myanmar2020_v20241016.287","geometry":{"type":"Point","coordinates":[98.26410100000004,13.866637000000026]},"geometry_name":"the_geom","properties":{"id_healthF":"hsp_0288","nmHsp_mya":"သရက်ချောင်းမြို့နယ်ဆေးရုံ","nmHsp_eng":"Thayetchaung Township Hospital","lvlHsp_mya":"မြို့နယ်","lvlHsp_eng":"Township","bedClass":"25","SR_PCODE":"MMR006","SR_mya":"တနင်္သာရီတိုင်းဒေသကြီး","SR":"Tanintharyi","DT_PCODE":"MMR006D001","DT":"Dawei","TS_PCODE":"MMR006003","TS_mya":"သရက်ချောင်း","TS_en":"Thayetchaung","SELF_ADMIN":"","comment":"","accuraConf":"high confidence"}},{"type":"Feature","id":"health_facilities_myanmar2020_v20241016.288","geometry":{"type":"Point","coordinates":[98.38328800000005,13.641743000000076]},"geometry_name":"the_geom","properties":{"id_healthF":"hsp_0289","nmHsp_mya":"ရငဲတိုက်နယ်ဆေးရုံ","nmHsp_eng":"Yae Nge (Ya Nge) Station Hospital","lvlHsp_mya":"တိုက်နယ်","lvlHsp_eng":"Station","bedClass":"16","SR_PCODE":"MMR006","SR_mya":"တနင်္သာရီတိုင်းဒေသကြီး","SR":"Tanintharyi","DT_PCODE":"MMR006D001","DT":"Dawei","TS_PCODE":"MMR006003","TS_mya":"သရက်ချောင်း","TS_en":"Thayetchaung","SELF_ADMIN":"","comment":"","accuraConf":"high confidence"}}],"crs":{"type":"name","properties":{"name":"urn:ogc:def:crs:EPSG::4326"}}}