{"type":"FeatureCollection","totalFeatures":4,"features":[{"type":"Feature","id":"myanmar_river_network.426","geometry":{"type":"MultiPolygon","coordinates":[[[[98.26103618159928,13.704856871467335],[98.26161613278,13.703383986326914],[98.2595033769601,13.703995913640467],[98.25667270431599,13.704801817269374],[98.25039423245626,13.720772571650558],[98.24756444606304,13.729715883085404],[98.25989185550152,13.737993445445221],[98.2633933211506,13.746242891926949],[98.26445310295759,13.752769431100216],[98.2697243181411,13.763769701005621],[98.26831344330537,13.766880455650702],[98.2637279821867,13.767574343683375],[98.26197314890514,13.7706570957246],[98.2672524884092,13.77271301680944],[98.27395079304021,13.765157656616275],[98.26725278708307,13.751408567626658],[98.26550612127875,13.742465195114837],[98.26234060102226,13.735243678282144],[98.25320176657459,13.730076932116559],[98.25178297512251,13.727300115226974],[98.2526449003556,13.725271274367499],[98.25420076776885,13.721438574013614],[98.26103618159928,13.704856871467335]]]]},"geometry_name":"the_geom","properties":{"ISO":"MMR","COUNTRY":"Myanmar","F_CODE_DES":"Inland Water","HYC_DESCRI":"Perennial/Permanent","NAME":"UNK"}},{"type":"Feature","id":"myanmar_river_network.437","geometry":{"type":"MultiPolygon","coordinates":[[[[98.28522580558378,13.739382683267435],[98.28981032959919,13.734216120457495],[98.29228213506026,13.726994678765777],[98.30142105612686,13.72599487373115],[98.30916427946141,13.71532875281685],[98.31232989627283,13.715662770871166],[98.31408459471213,13.722218317768611],[98.31830302770777,13.726689049201168],[98.32008082019692,13.726328099244592],[98.31691430926428,13.71843963033447],[98.31760929380056,13.713606990921232],[98.3133908704441,13.708440310063018],[98.31022522952657,13.70982916679062],[98.30699757039002,13.713051889367904],[98.29861445472845,13.721495163392195],[98.2905044195612,13.721856028703963],[98.28380702351726,13.735937914880076],[98.27852766470058,13.735243894738142],[98.27292143632354,13.728022345131388],[98.27644614443939,13.7187450670677],[98.27833807571552,13.707467912473932],[98.2690309211176,13.726633394175423],[98.26903084888428,13.73179901836194],[98.28030539918818,13.73902064375691],[98.28522580558378,13.739382683267435]]]]},"geometry_name":"the_geom","properties":{"ISO":"MMR","COUNTRY":"Myanmar","F_CODE_DES":"Inland Water","HYC_DESCRI":"Perennial/Permanent","NAME":"UNK"}},{"type":"Feature","id":"myanmar_river_network.442","geometry":{"type":"MultiPolygon","coordinates":[[[[98.37219146184543,13.66411131540743],[98.36830099376984,13.659306612174158],[98.36127483836302,13.658944544681782],[98.35527159871671,13.655861688354108],[98.34929828386777,13.65791645953131],[98.34788739475023,13.662055140262797],[98.33805349832838,13.667194635912807],[98.33346904163834,13.667526550654586],[98.31130874320054,13.663749529531934],[98.30372553635823,13.67188783727583],[98.30030776798779,13.68458086941224],[98.2975010617273,13.687580613969052],[98.29306056671187,13.689442419415062],[98.28742324043797,13.689469342261766],[98.28461655011135,13.691330169561295],[98.28508942612966,13.696162824555875],[98.28666824158172,13.6958578677919],[98.29213760071812,13.694914009388906],[98.29589116118763,13.69424710795862],[98.30152852278287,13.691692368880284],[98.3058610547872,13.688108687139916],[98.30953065870087,13.685052958156156],[98.31011061494186,13.683220099071628],[98.3126964239822,13.674748749034357],[98.31975361404214,13.672332018708051],[98.32502498352544,13.672360086979745],[98.33274397946175,13.67819276634341],[98.33524667449608,13.67860976946608],[98.33685651968536,13.675915986599493],[98.34016719766451,13.67063741411918],[98.34788732304733,13.667194767117829],[98.3528308090143,13.661695232344035],[98.35599644506385,13.660667349198013],[98.35880308061532,13.662750235457903],[98.36582923134222,13.66344527879682],[98.36724102930887,13.665833124329154],[98.36769089409,13.671665706965245],[98.3679348164199,13.675138458128162],[98.3754408511955,13.680026203641196],[98.3784924589907,13.6819981013042],[98.38416077394571,13.682554136761473],[98.39293271423846,13.68338819359326],[98.40101869532582,13.687166027646457],[98.42073928624504,13.690972015641325],[98.42529262667867,13.69922047814357],[98.43973384878153,13.702998397790637],[98.44006884231295,13.700609575612743],[98.43973390648793,13.698887696047617],[98.42703947102339,13.695442775700684],[98.4249578111982,13.68891522142382],[98.41826764883076,13.686166331224783],[98.40712999172561,13.685276246628929],[98.4048792629214,13.685110228537864],[98.39504651923036,13.679277520218507],[98.38554866095649,13.678777429457854],[98.3813221686611,13.678582387091094],[98.37766063410093,13.676583483226777],[98.37182537561128,13.673415635180195],[98.37041361646948,13.668249991274301],[98.37251939357482,13.666194168616528],[98.37219146184543,13.66411131540743]]]]},"geometry_name":"the_geom","properties":{"ISO":"MMR","COUNTRY":"Myanmar","F_CODE_DES":"Inland Water","HYC_DESCRI":"Perennial/Permanent","NAME":"UNK"}},{"type":"Feature","id":"myanmar_river_network.453","geometry":{"type":"MultiPolygon","coordinates":[[[[98.18887395664308,14.049247768522454],[98.19329054602927,14.040942436660568],[98.19539630992509,14.039803548710323],[98.19828697180836,14.039220630762475],[98.20217759844716,14.032720159475275],[98.20915083223333,14.027860610029732],[98.211950524532,14.02591579044717],[98.21375812646222,14.038608886411096],[98.21580990163092,14.037138022005525],[98.21550515018086,14.022305102995118],[98.21394939491294,14.018222380450405],[98.20792201163171,14.02561075789408],[98.2069842037603,14.020027153606435],[98.20917300849035,14.01533352674141],[98.21303358713614,14.012444790573243],[98.21355952767132,14.012195815940714],[98.21764906859914,14.010029030064649],[98.21903694512577,14.007029268323738],[98.21572640716897,14.002445558478515],[98.20795336108604,14.000862568540724],[98.20783838278967,14.000306607635254],[98.20761742748347,13.999028698084787],[98.20698455596347,13.995334959595755],[98.21372794507162,13.981503062507942],[98.21806151092522,13.975531557848582],[98.22109020741048,13.971364903493846],[98.22308800762391,13.968587133612392],[98.22420195834763,13.962671581003713],[98.22608687751838,13.952477351394112],[98.22439315893277,13.946949732250255],[98.22703294691377,13.939616303695756],[98.23053466472683,13.929951057001892],[98.23814797126471,13.914563283545936],[98.23994787856455,13.90589694048297],[98.23969710169874,13.892259932328743],[98.23791939550264,13.88653832582714],[98.23745474557307,13.86570583940124],[98.23917097850985,13.834625129050707],[98.24500947899631,13.81258713263702],[98.23195050345402,13.814544506328762],[98.22723525951399,13.813761299276154],[98.22455830659236,13.814828635219179],[98.22156681098198,13.815894943526663],[98.22080792231024,13.824475535289592],[98.22650743187782,13.83906863471209],[98.22867400728767,13.850790808989414],[98.22728607944627,13.857456304127117],[98.22417337138675,13.863178844748504],[98.21926116950738,13.848289864709756],[98.2100074742051,13.834319759203293],[98.20498030539622,13.818014880731043],[98.19478883168159,13.796210333862506],[98.19167736224706,13.784934114207251],[98.19040380745416,13.764018621500828],[98.19662018814257,13.74372805171363],[98.17462855047778,13.742271611685585],[98.17212597831178,13.765268286275418],[98.17168277731137,13.783433956109203],[98.1790974678418,13.813513861847335],[98.19859548711308,13.859427774045338],[98.20054010185868,13.870233011675003],[98.1998690163979,13.881982145051776],[98.19703829855145,13.88600981286655],[98.183314942718,13.885981629967157],[98.1817891113768,13.886981536394364],[98.18254399624534,13.88873141878682],[98.19578738560674,13.890453471574062],[98.19523040915624,13.89350824102108],[98.1766773944933,13.9102847654563],[98.17387763170697,13.917229220313072],[98.17512136751805,13.925367642443154],[98.17606718772002,13.930062312156828],[98.18573199947826,13.93220028655423],[98.19048535557408,13.937450967156993],[98.19265097439089,13.946033369286996],[98.19542747259047,13.95794853604977],[98.19390155439558,13.965058995617431],[98.18429057139375,13.974530172866672],[98.18209274668345,13.980724690075203],[98.17862198953421,13.9928897532231],[98.17812588998137,14.004055929611734],[98.18045249434725,14.012250361666084],[98.16900955015791,14.03438658590951],[98.16976438391171,14.039692207757028],[98.17567652116924,14.050469499203489],[98.18042880048428,14.061024791087814],[98.1799857876102,14.06563444747431],[98.17648514802706,14.06977309660357],[98.17626309230099,14.075522672440922],[98.17298344213236,14.078550405879913],[98.17131940274167,14.095215162179546],[98.17103739469574,14.09813294451233],[98.17095339202737,14.09902087829495],[98.17712547405927,14.111410054755417],[98.18445554286231,14.115047888479276],[98.1863402705587,14.11826967816657],[98.18687404792594,14.129296877224219],[98.1867290489066,14.130436791676726],[98.18617904569311,14.13524143192024],[98.18495103973558,14.145878635183127],[98.18370003078671,14.156906809298794],[98.18386799863053,14.15773975051822],[98.18511876248532,14.163711329728674],[98.18633953188295,14.1695449186211],[98.18592736507588,14.18451481475962],[98.18725399788224,14.198902777275583],[98.18792580954546,14.206347240188657],[98.18848273269573,14.20704119693202],[98.19217422353853,14.211623911472335],[98.19500486991966,14.212596879093377],[98.19808648501485,14.213651844166254],[98.1982844053156,14.217512563541243],[98.19886417503072,14.22859575800458],[98.19483596949661,14.27598122234793],[98.19264619379868,14.278619998141854],[98.18872559503355,14.283369594833854],[98.18414771466568,14.31283836529465],[98.17925812990217,14.324588433395359],[98.18722931807893,14.314672273237482],[98.18997623729493,14.297618564988328],[98.19228012849007,14.286118442090954],[98.19567478754871,14.281563823802411],[98.19931342259854,14.276648235364387],[98.20350276895246,14.218234582552572],[98.20395280838838,14.211791061641744],[98.20356386509351,14.211097107202047],[98.20158815196501,14.207652332742832],[98.19403607062668,14.206763293868475],[98.19142746634878,14.201041677804854],[98.19161748214135,14.198375876043986],[98.19197650942431,14.193514237722008],[98.19253355026726,14.186070791512375],[98.19170174157709,14.179737244704182],[98.1915337789731,14.17854332997611],[98.18961921515839,14.164238352911887],[98.1911223377257,14.14323991333677],[98.19139735995317,14.1394081980246],[98.19195432078016,14.137491346187746],[98.19314423691355,14.133407661861805],[98.19717295255406,14.119603728803114],[98.19669906570682,14.11568700932568],[98.19078783352707,14.111576229596869],[98.18770529210744,14.105382641242656],[98.18703437774664,14.105020658585563],[98.17826149660218,14.10035488046224],[98.17814754974681,14.097604080469642],[98.1777357341956,14.088188764684624],[98.18170240435416,14.078023563519265],[98.18473113997241,14.07113410946568],[98.18603627017119,14.05110859360985],[98.18887395664308,14.049247768522454]],[[98.18031518898111,14.034803709256721],[98.18315280321373,14.037998514041648],[98.18434261456049,14.041220294413886],[98.18084095846275,14.046525858309632],[98.17609664823688,14.038053413940812],[98.17606570786725,14.03413770016083],[98.18031518898111,14.034803709256721]],[[98.19331365876617,14.032860028506182],[98.18959109421617,14.03360992293104],[98.18495271720603,14.028915203373804],[98.18417484057616,14.026804347270259],[98.19023218157952,14.022110773165162],[98.19303884955971,14.021805833669434],[98.19331365876617,14.032860028506182]],[[98.20867820253396,14.005890210707785],[98.21125588377342,14.006584195013634],[98.21381154347078,14.008973055072797],[98.20295675576658,14.015166454370592],[98.20101098893535,14.015166427898174],[98.19859327866453,14.015166395007554],[98.19670054470339,14.012417570354103],[98.20137010675091,14.003890257606905],[98.20867820253396,14.005890210707785]],[[98.20609200103173,13.971586683753367],[98.20609191963659,13.97730826549615],[98.20514600213,13.979475094247698],[98.20150732066023,13.987724441695585],[98.19412307850176,13.996639689426553],[98.19284114741487,14.002584237205678],[98.18850860288815,14.007055851215783],[98.18498410325368,14.001584203603128],[98.18598302588985,13.998611434634164],[98.1905065803084,13.99183499171489],[98.1977008724338,13.981002881496737],[98.19831882408836,13.979197021919914],[98.19898277141034,13.9773081690291],[98.20456619767332,13.970613734175252],[98.20609200103173,13.971586683753367]],[[98.19878386202213,13.972613509552177],[98.1971519698189,13.978781036500623],[98.19698398047196,13.979446985530076],[98.19667900198992,13.980502904186043],[98.1939852710016,13.984280591398857],[98.18217645042097,14.000834220329155],[98.17936879047352,14.00058420048633],[98.1799038323529,13.993139752335507],[98.184038487046,13.9825855803787],[98.19492433354513,13.971974503922285],[98.19878386202213,13.972613509552177]],[[98.21242457203677,13.948394464525583],[98.21431628348846,13.952755171537909],[98.21433925114228,13.954838019656968],[98.2143392021918,13.958282767939888],[98.21131746269434,13.965421205284203],[98.20995263332357,13.96492022338811],[98.20753393532654,13.964059253513202],[98.20381147168307,13.957698667919137],[98.20536737760794,13.951199163980371],[98.20981489412125,13.947727477906387],[98.21242457203677,13.948394464525583]],[[98.21570496481564,13.892953557757597],[98.21433995262925,13.905369632901795],[98.20439960788715,13.943144739414189],[98.20256782851729,13.943060720753932],[98.20181296820515,13.93958896420377],[98.19067544343373,13.929645540053986],[98.18593116128928,13.919090247106302],[98.18942483748685,13.912396783242476],[98.2032324350185,13.894619267846032],[98.2102357725084,13.882148272681002],[98.21303546312235,13.8803154442018],[98.21570496481564,13.892953557757597]],[[98.23728624408251,13.902592145710521],[98.23469939405929,13.913869287559416],[98.22861998504231,13.923535499567775],[98.22731505701258,13.92947904788379],[98.22475934970605,13.930422944354454],[98.22445454140468,13.919479739362533],[98.23312076923033,13.900730225313799],[98.23342582588019,13.894147709858155],[98.23150412239268,13.889454026447655],[98.23150420172992,13.883843435874281],[98.23344900421229,13.8813436445243],[98.23728624408251,13.902592145710521]],[[98.1843972695409,13.924423836717114],[98.18123160632888,13.927423574763079],[98.17718110933671,13.92617261144605],[98.17618135569695,13.91722925141061],[98.18048394513112,13.90981285129876],[98.18354359272873,13.90881296562984],[98.1843972695409,13.924423836717114]],[[98.21553749788558,13.85662320670202],[98.2177581219044,13.86442766721508],[98.21167790716147,13.860372881173722],[98.20720763661653,13.846595826135099],[98.21553749788558,13.85662320670202]]]]},"geometry_name":"the_geom","properties":{"ISO":"MMR","COUNTRY":"Myanmar","F_CODE_DES":"Inland Water","HYC_DESCRI":"Perennial/Permanent","NAME":"TAVOY"}}],"crs":{"type":"name","properties":{"name":"urn:ogc:def:crs:EPSG::4326"}}}