{"type":"FeatureCollection","totalFeatures":190,"features":[{"type":"Feature","id":"formal_sector_school_location_lowermyanmar_2019.1798","geometry":{"type":"MultiPoint","coordinates":[[98.30182999955491,14.110750000012558]]},"geometry_name":"the_geom","properties":{"OBJECTID":1861,"schoolname":"အထက(ပကာရီ)","urbanrural":"Rural","longx":98.30183,"laty":14.11075,"mm_srcode":"MMR006","mm_srname":"Tanintharyi","mm_dtcode":"MMR006D001","mm_dtname":"Dawei","mm_tscode":"MMR006001","mm_tsname":"Dawei"}},{"type":"Feature","id":"formal_sector_school_location_lowermyanmar_2019.2065","geometry":{"type":"MultiPoint","coordinates":[[98.19681808968318,14.09132129024539]]},"geometry_name":"the_geom","properties":{"OBJECTID":2193,"schoolname":"အထက(၄)","urbanrural":"Urban","longx":98.19681809,"laty":14.09132129,"mm_srcode":"MMR006","mm_srname":"Tanintharyi","mm_dtcode":"MMR006D001","mm_dtname":"Dawei","mm_tscode":"MMR006001","mm_tsname":"Dawei"}},{"type":"Feature","id":"formal_sector_school_location_lowermyanmar_2019.2067","geometry":{"type":"MultiPoint","coordinates":[[98.1928664398344,14.064726230231372]]},"geometry_name":"the_geom","properties":{"OBJECTID":2195,"schoolname":"အထက(ခွဲ)အလက(၃)","urbanrural":"Urban","longx":98.19286644,"laty":14.06472623,"mm_srcode":"MMR006","mm_srname":"Tanintharyi","mm_dtcode":"MMR006D001","mm_dtname":"Dawei","mm_tscode":"MMR006001","mm_tsname":"Dawei"}},{"type":"Feature","id":"formal_sector_school_location_lowermyanmar_2019.2069","geometry":{"type":"MultiPoint","coordinates":[[98.19702755977414,14.073617050286714]]},"geometry_name":"the_geom","properties":{"OBJECTID":2197,"schoolname":"အထက(၃)","urbanrural":"Urban","longx":98.19702756,"laty":14.07361705,"mm_srcode":"MMR006","mm_srname":"Tanintharyi","mm_dtcode":"MMR006D001","mm_dtname":"Dawei","mm_tscode":"MMR006001","mm_tsname":"Dawei"}},{"type":"Feature","id":"formal_sector_school_location_lowermyanmar_2019.2074","geometry":{"type":"MultiPoint","coordinates":[[98.2417600002239,14.012109999976587]]},"geometry_name":"the_geom","properties":{"OBJECTID":2203,"schoolname":"အလက(‌ရောင်းမော်)","urbanrural":"Rural","longx":98.24176,"laty":14.01211,"mm_srcode":"MMR006","mm_srname":"Tanintharyi","mm_dtcode":"MMR006D001","mm_dtname":"Dawei","mm_tscode":"MMR006001","mm_tsname":"Dawei"}},{"type":"Feature","id":"formal_sector_school_location_lowermyanmar_2019.2076","geometry":{"type":"MultiPoint","coordinates":[[98.32878000039676,14.062270000060494]]},"geometry_name":"the_geom","properties":{"OBJECTID":2205,"schoolname":"အလက(ခွဲ)အညာဖျား","urbanrural":"Rural","longx":98.32878,"laty":14.06227,"mm_srcode":"MMR006","mm_srname":"Tanintharyi","mm_dtcode":"MMR006D001","mm_dtname":"Dawei","mm_tscode":"MMR006001","mm_tsname":"Dawei"}},{"type":"Feature","id":"formal_sector_school_location_lowermyanmar_2019.2080","geometry":{"type":"MultiPoint","coordinates":[[98.19003322015703,14.070690859595516]]},"geometry_name":"the_geom","properties":{"OBJECTID":2209,"schoolname":"မူလွန်(ဇရစ်)","urbanrural":"Urban","longx":98.19003322,"laty":14.07069086,"mm_srcode":"MMR006","mm_srname":"Tanintharyi","mm_dtcode":"MMR006D001","mm_dtname":"Dawei","mm_tscode":"MMR006001","mm_tsname":"Dawei"}},{"type":"Feature","id":"formal_sector_school_location_lowermyanmar_2019.2081","geometry":{"type":"MultiPoint","coordinates":[[98.18833273976418,14.080458329788144]]},"geometry_name":"the_geom","properties":{"OBJECTID":2210,"schoolname":"မူလွန်(ဥဿရံ)","urbanrural":"Urban","longx":98.18833274,"laty":14.08045833,"mm_srcode":"MMR006","mm_srname":"Tanintharyi","mm_dtcode":"MMR006D001","mm_dtname":"Dawei","mm_tscode":"MMR006001","mm_tsname":"Dawei"}},{"type":"Feature","id":"formal_sector_school_location_lowermyanmar_2019.2082","geometry":{"type":"MultiPoint","coordinates":[[98.19291471993841,14.084338550084055]]},"geometry_name":"the_geom","properties":{"OBJECTID":2211,"schoolname":"မူလွန်(ဆန်းချီ)","urbanrural":"Urban","longx":98.19291472,"laty":14.08433855,"mm_srcode":"MMR006","mm_srname":"Tanintharyi","mm_dtcode":"MMR006D001","mm_dtname":"Dawei","mm_tscode":"MMR006001","mm_tsname":"Dawei"}},{"type":"Feature","id":"formal_sector_school_location_lowermyanmar_2019.2083","geometry":{"type":"MultiPoint","coordinates":[[98.190484640254,14.058009979876715]]},"geometry_name":"the_geom","properties":{"OBJECTID":2212,"schoolname":"မူလွန်(စောမိညို)","urbanrural":"Urban","longx":98.19048464,"laty":14.05800998,"mm_srcode":"MMR006","mm_srname":"Tanintharyi","mm_dtcode":"MMR006D001","mm_dtname":"Dawei","mm_tscode":"MMR006001","mm_tsname":"Dawei"}},{"type":"Feature","id":"formal_sector_school_location_lowermyanmar_2019.2084","geometry":{"type":"MultiPoint","coordinates":[[98.22046999959088,14.046420000282808]]},"geometry_name":"the_geom","properties":{"OBJECTID":2213,"schoolname":"မူလွန်(ကူးတို့)","urbanrural":"Rural","longx":98.22047,"laty":14.04642,"mm_srcode":"MMR006","mm_srname":"Tanintharyi","mm_dtcode":"MMR006D001","mm_dtname":"Dawei","mm_tscode":"MMR006001","mm_tsname":"Dawei"}},{"type":"Feature","id":"formal_sector_school_location_lowermyanmar_2019.2085","geometry":{"type":"MultiPoint","coordinates":[[98.23369999995509,14.08971000011644]]},"geometry_name":"the_geom","properties":{"OBJECTID":2214,"schoolname":"မူလွန်(ဇလွန်း)","urbanrural":"Rural","longx":98.2337,"laty":14.08971,"mm_srcode":"MMR006","mm_srname":"Tanintharyi","mm_dtcode":"MMR006D001","mm_dtname":"Dawei","mm_tscode":"MMR006001","mm_tsname":"Dawei"}},{"type":"Feature","id":"formal_sector_school_location_lowermyanmar_2019.2086","geometry":{"type":"MultiPoint","coordinates":[[98.2184000003598,14.131879999562386]]},"geometry_name":"the_geom","properties":{"OBJECTID":2215,"schoolname":"မူလွန်(ဇဟာ)","urbanrural":"Rural","longx":98.2184,"laty":14.13188,"mm_srcode":"MMR006","mm_srname":"Tanintharyi","mm_dtcode":"MMR006D001","mm_dtname":"Dawei","mm_tscode":"MMR006001","mm_tsname":"Dawei"}},{"type":"Feature","id":"formal_sector_school_location_lowermyanmar_2019.2087","geometry":{"type":"MultiPoint","coordinates":[[98.25672000032779,14.044180000406755]]},"geometry_name":"the_geom","properties":{"OBJECTID":2216,"schoolname":"အလက(ခွဲ)(ရှမ္မတွင်း)","urbanrural":"Rural","longx":98.25672,"laty":14.04418,"mm_srcode":"MMR006","mm_srname":"Tanintharyi","mm_dtcode":"MMR006D001","mm_dtname":"Dawei","mm_tscode":"MMR006001","mm_tsname":"Dawei"}},{"type":"Feature","id":"formal_sector_school_location_lowermyanmar_2019.2089","geometry":{"type":"MultiPoint","coordinates":[[98.22310999992663,14.034040000445714]]},"geometry_name":"the_geom","properties":{"OBJECTID":2218,"schoolname":"မူလွန်(ကနိုင်းဒါ)","urbanrural":"Rural","longx":98.22311,"laty":14.03404,"mm_srcode":"MMR006","mm_srname":"Tanintharyi","mm_dtcode":"MMR006D001","mm_dtname":"Dawei","mm_tscode":"MMR006001","mm_tsname":"Dawei"}},{"type":"Feature","id":"formal_sector_school_location_lowermyanmar_2019.2090","geometry":{"type":"MultiPoint","coordinates":[[98.21879987041774,14.131759250289235]]},"geometry_name":"the_geom","properties":{"OBJECTID":2219,"schoolname":"မူလွန်(ကဒွန်းရှောင်)","urbanrural":"Rural","longx":98.21879987,"laty":14.13175925,"mm_srcode":"MMR006","mm_srname":"Tanintharyi","mm_dtcode":"MMR006D001","mm_dtname":"Dawei","mm_tscode":"MMR006001","mm_tsname":"Dawei"}},{"type":"Feature","id":"formal_sector_school_location_lowermyanmar_2019.2094","geometry":{"type":"MultiPoint","coordinates":[[98.19726628031464,14.070747249785825]]},"geometry_name":"the_geom","properties":{"OBJECTID":2226,"schoolname":"အမက(ကညုံ)","urbanrural":"Urban","longx":98.19726628,"laty":14.07074725,"mm_srcode":"MMR006","mm_srname":"Tanintharyi","mm_dtcode":"MMR006D001","mm_dtname":"Dawei","mm_tscode":"MMR006001","mm_tsname":"Dawei"}},{"type":"Feature","id":"formal_sector_school_location_lowermyanmar_2019.2095","geometry":{"type":"MultiPoint","coordinates":[[98.18925273002952,14.07464362999957]]},"geometry_name":"the_geom","properties":{"OBJECTID":2227,"schoolname":"အမက(အနောက်)","urbanrural":"Urban","longx":98.18925273,"laty":14.07464363,"mm_srcode":"MMR006","mm_srname":"Tanintharyi","mm_dtcode":"MMR006D001","mm_dtname":"Dawei","mm_tscode":"MMR006001","mm_tsname":"Dawei"}},{"type":"Feature","id":"formal_sector_school_location_lowermyanmar_2019.2096","geometry":{"type":"MultiPoint","coordinates":[[98.19138651007944,14.0773931102039]]},"geometry_name":"the_geom","properties":{"OBJECTID":2228,"schoolname":"အမက(အိုးလုပ်)","urbanrural":"Urban","longx":98.19138651,"laty":14.07739311,"mm_srcode":"MMR006","mm_srname":"Tanintharyi","mm_dtcode":"MMR006D001","mm_dtname":"Dawei","mm_tscode":"MMR006001","mm_tsname":"Dawei"}},{"type":"Feature","id":"formal_sector_school_location_lowermyanmar_2019.2097","geometry":{"type":"MultiPoint","coordinates":[[98.19463829042485,14.078257679748162]]},"geometry_name":"the_geom","properties":{"OBJECTID":2229,"schoolname":"အမက(ပိန္နဲတော)","urbanrural":"Urban","longx":98.19463829,"laty":14.07825768,"mm_srcode":"MMR006","mm_srname":"Tanintharyi","mm_dtcode":"MMR006D001","mm_dtname":"Dawei","mm_tscode":"MMR006001","mm_tsname":"Dawei"}},{"type":"Feature","id":"formal_sector_school_location_lowermyanmar_2019.2098","geometry":{"type":"MultiPoint","coordinates":[[98.20106545011049,14.071297720313567]]},"geometry_name":"the_geom","properties":{"OBJECTID":2230,"schoolname":"အမက(ကရပ်ပြင်)(တောင်)","urbanrural":"Urban","longx":98.20106545,"laty":14.07129772,"mm_srcode":"MMR006","mm_srname":"Tanintharyi","mm_dtcode":"MMR006D001","mm_dtname":"Dawei","mm_tscode":"MMR006001","mm_tsname":"Dawei"}},{"type":"Feature","id":"formal_sector_school_location_lowermyanmar_2019.2099","geometry":{"type":"MultiPoint","coordinates":[[98.20039750024449,14.075604620357012]]},"geometry_name":"the_geom","properties":{"OBJECTID":2231,"schoolname":"အမက(ကရပ်ပြင်)(မြောက်)","urbanrural":"Urban","longx":98.2003975,"laty":14.07560462,"mm_srcode":"MMR006","mm_srname":"Tanintharyi","mm_dtcode":"MMR006D001","mm_dtname":"Dawei","mm_tscode":"MMR006001","mm_tsname":"Dawei"}},{"type":"Feature","id":"formal_sector_school_location_lowermyanmar_2019.2100","geometry":{"type":"MultiPoint","coordinates":[[98.1875157497521,14.079252769699622]]},"geometry_name":"the_geom","properties":{"OBJECTID":2232,"schoolname":"အမက(မြောင်းပုလဲ)","urbanrural":"Urban","longx":98.18751575,"laty":14.07925277,"mm_srcode":"MMR006","mm_srname":"Tanintharyi","mm_dtcode":"MMR006D001","mm_dtname":"Dawei","mm_tscode":"MMR006001","mm_tsname":"Dawei"}},{"type":"Feature","id":"formal_sector_school_location_lowermyanmar_2019.2101","geometry":{"type":"MultiPoint","coordinates":[[98.18641697965995,14.071217579927406]]},"geometry_name":"the_geom","properties":{"OBJECTID":2233,"schoolname":"အမက(သင်္ဘောဆိပ်(၁))","urbanrural":"Urban","longx":98.18641698,"laty":14.07121758,"mm_srcode":"MMR006","mm_srname":"Tanintharyi","mm_dtcode":"MMR006D001","mm_dtname":"Dawei","mm_tscode":"MMR006001","mm_tsname":"Dawei"}},{"type":"Feature","id":"formal_sector_school_location_lowermyanmar_2019.2102","geometry":{"type":"MultiPoint","coordinates":[[98.18620032038854,14.075044570250782]]},"geometry_name":"the_geom","properties":{"OBJECTID":2234,"schoolname":"အမက(တလိုင်းမ)","urbanrural":"Urban","longx":98.18620032,"laty":14.07504457,"mm_srcode":"MMR006","mm_srname":"Tanintharyi","mm_dtcode":"MMR006D001","mm_dtname":"Dawei","mm_tscode":"MMR006001","mm_tsname":"Dawei"}},{"type":"Feature","id":"formal_sector_school_location_lowermyanmar_2019.2103","geometry":{"type":"MultiPoint","coordinates":[[98.19193464956447,14.080325179763292]]},"geometry_name":"the_geom","properties":{"OBJECTID":2235,"schoolname":"အမက(ပုံကျွန်း)","urbanrural":"Urban","longx":98.19193465,"laty":14.08032518,"mm_srcode":"MMR006","mm_srname":"Tanintharyi","mm_dtcode":"MMR006D001","mm_dtname":"Dawei","mm_tscode":"MMR006001","mm_tsname":"Dawei"}},{"type":"Feature","id":"formal_sector_school_location_lowermyanmar_2019.2104","geometry":{"type":"MultiPoint","coordinates":[[98.20208438019006,14.082444530190969]]},"geometry_name":"the_geom","properties":{"OBJECTID":2236,"schoolname":"အမက(ညောင်ရမ်း)","urbanrural":"Urban","longx":98.20208438,"laty":14.08244453,"mm_srcode":"MMR006","mm_srname":"Tanintharyi","mm_dtcode":"MMR006D001","mm_dtname":"Dawei","mm_tscode":"MMR006001","mm_tsname":"Dawei"}},{"type":"Feature","id":"formal_sector_school_location_lowermyanmar_2019.2105","geometry":{"type":"MultiPoint","coordinates":[[98.20639916998579,14.074717860041233]]},"geometry_name":"the_geom","properties":{"OBJECTID":2237,"schoolname":"အမက(ရှမ္မလည်ဆွဲ)","urbanrural":"Urban","longx":98.20639917,"laty":14.07471786,"mm_srcode":"MMR006","mm_srname":"Tanintharyi","mm_dtcode":"MMR006D001","mm_dtname":"Dawei","mm_tscode":"MMR006001","mm_tsname":"Dawei"}},{"type":"Feature","id":"formal_sector_school_location_lowermyanmar_2019.2106","geometry":{"type":"MultiPoint","coordinates":[[98.19642828034091,14.095679650395596]]},"geometry_name":"the_geom","properties":{"OBJECTID":2238,"schoolname":"အမက(ဝဲကျွန်းဘီ)","urbanrural":"Urban","longx":98.19642828,"laty":14.09567965,"mm_srcode":"MMR006","mm_srname":"Tanintharyi","mm_dtcode":"MMR006D001","mm_dtname":"Dawei","mm_tscode":"MMR006001","mm_tsname":"Dawei"}},{"type":"Feature","id":"formal_sector_school_location_lowermyanmar_2019.2107","geometry":{"type":"MultiPoint","coordinates":[[98.19140789955497,14.092211340281153]]},"geometry_name":"the_geom","properties":{"OBJECTID":2239,"schoolname":"အမက(ကျွန်းမွှေး)","urbanrural":"Urban","longx":98.1914079,"laty":14.09221134,"mm_srcode":"MMR006","mm_srname":"Tanintharyi","mm_dtcode":"MMR006D001","mm_dtname":"Dawei","mm_tscode":"MMR006001","mm_tsname":"Dawei"}},{"type":"Feature","id":"formal_sector_school_location_lowermyanmar_2019.2108","geometry":{"type":"MultiPoint","coordinates":[[98.20204379018884,14.090217959691131]]},"geometry_name":"the_geom","properties":{"OBJECTID":2240,"schoolname":"အမက(ဝဲကျွန်းညောင်ရမ်း)","urbanrural":"Urban","longx":98.20204379,"laty":14.09021796,"mm_srcode":"MMR006","mm_srname":"Tanintharyi","mm_dtcode":"MMR006D001","mm_dtname":"Dawei","mm_tscode":"MMR006001","mm_tsname":"Dawei"}},{"type":"Feature","id":"formal_sector_school_location_lowermyanmar_2019.2109","geometry":{"type":"MultiPoint","coordinates":[[98.19173166988071,14.103260160028412]]},"geometry_name":"the_geom","properties":{"OBJECTID":2241,"schoolname":"အမက(ထိန်ဟောင်း)","urbanrural":"Urban","longx":98.19173167,"laty":14.10326016,"mm_srcode":"MMR006","mm_srname":"Tanintharyi","mm_dtcode":"MMR006D001","mm_dtname":"Dawei","mm_tscode":"MMR006001","mm_tsname":"Dawei"}},{"type":"Feature","id":"formal_sector_school_location_lowermyanmar_2019.2110","geometry":{"type":"MultiPoint","coordinates":[[98.19592841016805,14.11088569961538]]},"geometry_name":"the_geom","properties":{"OBJECTID":2242,"schoolname":"အမက(ဆင်ဆိပ်)","urbanrural":"Urban","longx":98.19592841,"laty":14.1108857,"mm_srcode":"MMR006","mm_srname":"Tanintharyi","mm_dtcode":"MMR006D001","mm_dtname":"Dawei","mm_tscode":"MMR006001","mm_tsname":"Dawei"}},{"type":"Feature","id":"formal_sector_school_location_lowermyanmar_2019.2111","geometry":{"type":"MultiPoint","coordinates":[[98.20765614971162,14.108982680206566]]},"geometry_name":"the_geom","properties":{"OBJECTID":2243,"schoolname":"အမက(အိမ်ရှေ့ပြင်)","urbanrural":"Urban","longx":98.20765615,"laty":14.10898268,"mm_srcode":"MMR006","mm_srname":"Tanintharyi","mm_dtcode":"MMR006D001","mm_dtname":"Dawei","mm_tscode":"MMR006001","mm_tsname":"Dawei"}},{"type":"Feature","id":"formal_sector_school_location_lowermyanmar_2019.2112","geometry":{"type":"MultiPoint","coordinates":[[98.23205999986914,14.065490000163436]]},"geometry_name":"the_geom","properties":{"OBJECTID":2244,"schoolname":"အမက(ဝမော်)","urbanrural":"Rural","longx":98.23206,"laty":14.06549,"mm_srcode":"MMR006","mm_srname":"Tanintharyi","mm_dtcode":"MMR006D001","mm_dtname":"Dawei","mm_tscode":"MMR006001","mm_tsname":"Dawei"}},{"type":"Feature","id":"formal_sector_school_location_lowermyanmar_2019.2113","geometry":{"type":"MultiPoint","coordinates":[[98.22356999955588,14.041119999588375]]},"geometry_name":"the_geom","properties":{"OBJECTID":2245,"schoolname":"အမက(အလယ်ကုန်း)","urbanrural":"Rural","longx":98.22357,"laty":14.04112,"mm_srcode":"MMR006","mm_srname":"Tanintharyi","mm_dtcode":"MMR006D001","mm_dtname":"Dawei","mm_tscode":"MMR006001","mm_tsname":"Dawei"}},{"type":"Feature","id":"formal_sector_school_location_lowermyanmar_2019.2115","geometry":{"type":"MultiPoint","coordinates":[[98.25399925975807,14.052121829758676]]},"geometry_name":"the_geom","properties":{"OBJECTID":2250,"schoolname":"အမက(ကရင်မကုန်း)","urbanrural":"Rural","longx":98.25399926,"laty":14.05212183,"mm_srcode":"MMR006","mm_srname":"Tanintharyi","mm_dtcode":"MMR006D001","mm_dtname":"Dawei","mm_tscode":"MMR006001","mm_tsname":"Dawei"}},{"type":"Feature","id":"formal_sector_school_location_lowermyanmar_2019.2116","geometry":{"type":"MultiPoint","coordinates":[[98.2461900003683,14.064770000235399]]},"geometry_name":"the_geom","properties":{"OBJECTID":2251,"schoolname":"အမက(ပုလွေရှောင်)","urbanrural":"Rural","longx":98.24619,"laty":14.06477,"mm_srcode":"MMR006","mm_srname":"Tanintharyi","mm_dtcode":"MMR006D001","mm_dtname":"Dawei","mm_tscode":"MMR006001","mm_tsname":"Dawei"}},{"type":"Feature","id":"formal_sector_school_location_lowermyanmar_2019.2117","geometry":{"type":"MultiPoint","coordinates":[[98.25699999975024,14.066339999791182]]},"geometry_name":"the_geom","properties":{"OBJECTID":2252,"schoolname":"အမက(တောင်ပို့)","urbanrural":"Rural","longx":98.257,"laty":14.06634,"mm_srcode":"MMR006","mm_srname":"Tanintharyi","mm_dtcode":"MMR006D001","mm_dtname":"Dawei","mm_tscode":"MMR006001","mm_tsname":"Dawei"}},{"type":"Feature","id":"formal_sector_school_location_lowermyanmar_2019.2118","geometry":{"type":"MultiPoint","coordinates":[[98.26772000037778,14.068980000126942]]},"geometry_name":"the_geom","properties":{"OBJECTID":2253,"schoolname":"အမက(သဗျာ)","urbanrural":"Rural","longx":98.26772,"laty":14.06898,"mm_srcode":"MMR006","mm_srname":"Tanintharyi","mm_dtcode":"MMR006D001","mm_dtname":"Dawei","mm_tscode":"MMR006001","mm_tsname":"Dawei"}},{"type":"Feature","id":"formal_sector_school_location_lowermyanmar_2019.2120","geometry":{"type":"MultiPoint","coordinates":[[98.29381999979324,14.086460000428701]]},"geometry_name":"the_geom","properties":{"OBJECTID":2255,"schoolname":"အမက(မဲချောင်း)","urbanrural":"Rural","longx":98.29382,"laty":14.08646,"mm_srcode":"MMR006","mm_srname":"Tanintharyi","mm_dtcode":"MMR006D001","mm_dtname":"Dawei","mm_tscode":"MMR006001","mm_tsname":"Dawei"}},{"type":"Feature","id":"formal_sector_school_location_lowermyanmar_2019.2123","geometry":{"type":"MultiPoint","coordinates":[[98.30151999964835,14.067669999970576]]},"geometry_name":"the_geom","properties":{"OBJECTID":2258,"schoolname":"အမက(ဥယျာဉ်ကြီး)","urbanrural":"Rural","longx":98.30152,"laty":14.06767,"mm_srcode":"MMR006","mm_srname":"Tanintharyi","mm_dtcode":"MMR006D001","mm_dtname":"Dawei","mm_tscode":"MMR006001","mm_tsname":"Dawei"}},{"type":"Feature","id":"formal_sector_school_location_lowermyanmar_2019.2124","geometry":{"type":"MultiPoint","coordinates":[[98.33320000008001,14.081930000169393]]},"geometry_name":"the_geom","properties":{"OBJECTID":2259,"schoolname":"အမက(ဓါးသွေးကျောက်)","urbanrural":"Rural","longx":98.3332,"laty":14.08193,"mm_srcode":"MMR006","mm_srname":"Tanintharyi","mm_dtcode":"MMR006D001","mm_dtname":"Dawei","mm_tscode":"MMR006001","mm_tsname":"Dawei"}},{"type":"Feature","id":"formal_sector_school_location_lowermyanmar_2019.2125","geometry":{"type":"MultiPoint","coordinates":[[98.32207999989214,14.123370000125476]]},"geometry_name":"the_geom","properties":{"OBJECTID":2260,"schoolname":"အမက(ပခပ်)","urbanrural":"Rural","longx":98.32208,"laty":14.12337,"mm_srcode":"MMR006","mm_srname":"Tanintharyi","mm_dtcode":"MMR006D001","mm_dtname":"Dawei","mm_tscode":"MMR006001","mm_tsname":"Dawei"}},{"type":"Feature","id":"formal_sector_school_location_lowermyanmar_2019.2126","geometry":{"type":"MultiPoint","coordinates":[[98.32616000008397,14.142419999983076]]},"geometry_name":"the_geom","properties":{"OBJECTID":2261,"schoolname":"အမက(ရမ္မဇူ)","urbanrural":"Rural","longx":98.32616,"laty":14.14242,"mm_srcode":"MMR006","mm_srname":"Tanintharyi","mm_dtcode":"MMR006D001","mm_dtname":"Dawei","mm_tscode":"MMR006001","mm_tsname":"Dawei"}},{"type":"Feature","id":"formal_sector_school_location_lowermyanmar_2019.2131","geometry":{"type":"MultiPoint","coordinates":[[98.35711999968828,14.046090000353274]]},"geometry_name":"the_geom","properties":{"OBJECTID":2266,"schoolname":"အမက(ဆိပ်ချောင်း)","urbanrural":"Rural","longx":98.35712,"laty":14.04609,"mm_srcode":"MMR006","mm_srname":"Tanintharyi","mm_dtcode":"MMR006D001","mm_dtname":"Dawei","mm_tscode":"MMR006001","mm_tsname":"Dawei"}},{"type":"Feature","id":"formal_sector_school_location_lowermyanmar_2019.2531","geometry":{"type":"MultiPoint","coordinates":[[98.15287564969157,13.881075120320588]]},"geometry_name":"the_geom","properties":{"OBJECTID":2731,"schoolname":"အထက(ခွဲ)(ကဒက်ကြီး)","urbanrural":"Rural","longx":98.15287565,"laty":13.88107512,"mm_srcode":"MMR006","mm_srname":"Tanintharyi","mm_dtcode":"MMR006D001","mm_dtname":"Dawei","mm_tscode":"MMR006002","mm_tsname":"Launglon"}},{"type":"Feature","id":"formal_sector_school_location_lowermyanmar_2019.2532","geometry":{"type":"MultiPoint","coordinates":[[98.16514999987265,13.828250000037542]]},"geometry_name":"the_geom","properties":{"OBJECTID":2732,"schoolname":"အထက(ခွဲ)(သပြေရှောင်)","urbanrural":"Rural","longx":98.16515,"laty":13.82825,"mm_srcode":"MMR006","mm_srname":"Tanintharyi","mm_dtcode":"MMR006D001","mm_dtname":"Dawei","mm_tscode":"MMR006002","mm_tsname":"Launglon"}},{"type":"Feature","id":"formal_sector_school_location_lowermyanmar_2019.2533","geometry":{"type":"MultiPoint","coordinates":[[98.15650999983666,14.140160000083995]]},"geometry_name":"the_geom","properties":{"OBJECTID":2733,"schoolname":"အလက(စခန်းကြီး)","urbanrural":"Rural","longx":98.15651,"laty":14.14016,"mm_srcode":"MMR006","mm_srname":"Tanintharyi","mm_dtcode":"MMR006D001","mm_dtname":"Dawei","mm_tscode":"MMR006002","mm_tsname":"Launglon"}},{"type":"Feature","id":"formal_sector_school_location_lowermyanmar_2019.2534","geometry":{"type":"MultiPoint","coordinates":[[98.14023000001453,14.010249999637836]]},"geometry_name":"the_geom","properties":{"OBJECTID":2734,"schoolname":"မူလွန်(ပဉ္စသီမော်)","urbanrural":"Rural","longx":98.14023,"laty":14.01025,"mm_srcode":"MMR006","mm_srname":"Tanintharyi","mm_dtcode":"MMR006D001","mm_dtname":"Dawei","mm_tscode":"MMR006002","mm_tsname":"Launglon"}},{"type":"Feature","id":"formal_sector_school_location_lowermyanmar_2019.2536","geometry":{"type":"MultiPoint","coordinates":[[98.15246363968527,14.049119020426474]]},"geometry_name":"the_geom","properties":{"OBJECTID":2736,"schoolname":"မူလွန်(ထိန်လယ်)","urbanrural":"Rural","longx":98.15246364,"laty":14.04911902,"mm_srcode":"MMR006","mm_srname":"Tanintharyi","mm_dtcode":"MMR006D001","mm_dtname":"Dawei","mm_tscode":"MMR006002","mm_tsname":"Launglon"}},{"type":"Feature","id":"formal_sector_school_location_lowermyanmar_2019.2537","geometry":{"type":"MultiPoint","coordinates":[[98.16968999969379,14.08825999979922]]},"geometry_name":"the_geom","properties":{"OBJECTID":2737,"schoolname":"မူလွန်(ကမြောကြီး)","urbanrural":"Rural","longx":98.16969,"laty":14.08826,"mm_srcode":"MMR006","mm_srname":"Tanintharyi","mm_dtcode":"MMR006D001","mm_dtname":"Dawei","mm_tscode":"MMR006002","mm_tsname":"Launglon"}},{"type":"Feature","id":"formal_sector_school_location_lowermyanmar_2019.2538","geometry":{"type":"MultiPoint","coordinates":[[98.18097999962737,13.655749999662817]]},"geometry_name":"the_geom","properties":{"OBJECTID":2738,"schoolname":"အထက(ခွဲ)(ကျောက်နီမော််)","urbanrural":"Rural","longx":98.18098,"laty":13.65575,"mm_srcode":"MMR006","mm_srname":"Tanintharyi","mm_dtcode":"MMR006D001","mm_dtname":"Dawei","mm_tscode":"MMR006002","mm_tsname":"Launglon"}},{"type":"Feature","id":"formal_sector_school_location_lowermyanmar_2019.2543","geometry":{"type":"MultiPoint","coordinates":[[98.10045999972925,13.903820000092992]]},"geometry_name":"the_geom","properties":{"OBJECTID":2752,"schoolname":"အလက(ခွဲ)(တီဇစ်)","urbanrural":"Rural","longx":98.10046,"laty":13.90382,"mm_srcode":"MMR006","mm_srname":"Tanintharyi","mm_dtcode":"MMR006D001","mm_dtname":"Dawei","mm_tscode":"MMR006002","mm_tsname":"Launglon"}},{"type":"Feature","id":"formal_sector_school_location_lowermyanmar_2019.2544","geometry":{"type":"MultiPoint","coordinates":[[98.18784000031582,14.131769999885648]]},"geometry_name":"the_geom","properties":{"OBJECTID":2753,"schoolname":"မူလွန်(ထိန်တွင်း)","urbanrural":"Rural","longx":98.18784,"laty":14.13177,"mm_srcode":"MMR006","mm_srname":"Tanintharyi","mm_dtcode":"MMR006D001","mm_dtname":"Dawei","mm_tscode":"MMR006002","mm_tsname":"Launglon"}},{"type":"Feature","id":"formal_sector_school_location_lowermyanmar_2019.2545","geometry":{"type":"MultiPoint","coordinates":[[98.09907999994209,14.071110000326314]]},"geometry_name":"the_geom","properties":{"OBJECTID":2754,"schoolname":"မူလွန်(ကရင်ကြီး)","urbanrural":"Rural","longx":98.09908,"laty":14.07111,"mm_srcode":"MMR006","mm_srname":"Tanintharyi","mm_dtcode":"MMR006D001","mm_dtname":"Dawei","mm_tscode":"MMR006002","mm_tsname":"Launglon"}},{"type":"Feature","id":"formal_sector_school_location_lowermyanmar_2019.2546","geometry":{"type":"MultiPoint","coordinates":[[98.09798874008834,14.058183520253294]]},"geometry_name":"the_geom","properties":{"OBJECTID":2755,"schoolname":"မူလွန်(ကမ်းပနီ)","urbanrural":"Rural","longx":98.09798874,"laty":14.05818352,"mm_srcode":"MMR006","mm_srname":"Tanintharyi","mm_dtcode":"MMR006D001","mm_dtname":"Dawei","mm_tscode":"MMR006002","mm_tsname":"Launglon"}},{"type":"Feature","id":"formal_sector_school_location_lowermyanmar_2019.2547","geometry":{"type":"MultiPoint","coordinates":[[98.16691999965832,13.642179999807183]]},"geometry_name":"the_geom","properties":{"OBJECTID":2756,"schoolname":"မူလွန်(ကျောက်ဝပ်ပြင်)","urbanrural":"Rural","longx":98.16692,"laty":13.64218,"mm_srcode":"MMR006","mm_srname":"Tanintharyi","mm_dtcode":"MMR006D001","mm_dtname":"Dawei","mm_tscode":"MMR006002","mm_tsname":"Launglon"}},{"type":"Feature","id":"formal_sector_school_location_lowermyanmar_2019.2548","geometry":{"type":"MultiPoint","coordinates":[[98.15836080011087,13.633678909953801]]},"geometry_name":"the_geom","properties":{"OBJECTID":2757,"schoolname":"မူလွန်(သရက်ပင်ကုန်း)","urbanrural":"Rural","longx":98.1583608,"laty":13.63367891,"mm_srcode":"MMR006","mm_srname":"Tanintharyi","mm_dtcode":"MMR006D001","mm_dtname":"Dawei","mm_tscode":"MMR006002","mm_tsname":"Launglon"}},{"type":"Feature","id":"formal_sector_school_location_lowermyanmar_2019.2549","geometry":{"type":"MultiPoint","coordinates":[[98.14829000028334,13.632739999751209]]},"geometry_name":"the_geom","properties":{"OBJECTID":2758,"schoolname":"အလက(ခွဲ)(ညောပြင်)","urbanrural":"Rural","longx":98.14829,"laty":13.63274,"mm_srcode":"MMR006","mm_srname":"Tanintharyi","mm_dtcode":"MMR006D001","mm_dtname":"Dawei","mm_tscode":"MMR006002","mm_tsname":"Launglon"}},{"type":"Feature","id":"formal_sector_school_location_lowermyanmar_2019.2550","geometry":{"type":"MultiPoint","coordinates":[[98.06927000031033,14.007349999902601]]},"geometry_name":"the_geom","properties":{"OBJECTID":2759,"schoolname":"အလက(ခွဲ)(ပညစ်)","urbanrural":"Rural","longx":98.06927,"laty":14.00735,"mm_srcode":"MMR006","mm_srname":"Tanintharyi","mm_dtcode":"MMR006D001","mm_dtname":"Dawei","mm_tscode":"MMR006002","mm_tsname":"Launglon"}},{"type":"Feature","id":"formal_sector_school_location_lowermyanmar_2019.2551","geometry":{"type":"MultiPoint","coordinates":[[98.15915999973424,13.561780000047008]]},"geometry_name":"the_geom","properties":{"OBJECTID":2760,"schoolname":"မူလွန်(ကြက်လွှတ်)","urbanrural":"Rural","longx":98.15916,"laty":13.56178,"mm_srcode":"MMR006","mm_srname":"Tanintharyi","mm_dtcode":"MMR006D001","mm_dtname":"Dawei","mm_tscode":"MMR006002","mm_tsname":"Launglon"}},{"type":"Feature","id":"formal_sector_school_location_lowermyanmar_2019.2553","geometry":{"type":"MultiPoint","coordinates":[[98.07877347991223,13.9122059398523]]},"geometry_name":"the_geom","properties":{"OBJECTID":2762,"schoolname":"မူလွန်(ဖိုးလမော်)","urbanrural":"Rural","longx":98.07877348,"laty":13.91220594,"mm_srcode":"MMR006","mm_srname":"Tanintharyi","mm_dtcode":"MMR006D001","mm_dtname":"Dawei","mm_tscode":"MMR006002","mm_tsname":"Launglon"}},{"type":"Feature","id":"formal_sector_school_location_lowermyanmar_2019.2554","geometry":{"type":"MultiPoint","coordinates":[[98.12001334024353,13.97783456960974]]},"geometry_name":"the_geom","properties":{"OBJECTID":2763,"schoolname":"အမက((က)ရပ်ကွက်)","urbanrural":"Urban","longx":98.12001334,"laty":13.97783457,"mm_srcode":"MMR006","mm_srname":"Tanintharyi","mm_dtcode":"MMR006D001","mm_dtname":"Dawei","mm_tscode":"MMR006002","mm_tsname":"Launglon"}},{"type":"Feature","id":"formal_sector_school_location_lowermyanmar_2019.2555","geometry":{"type":"MultiPoint","coordinates":[[98.11325028017637,13.968383860426854]]},"geometry_name":"the_geom","properties":{"OBJECTID":2764,"schoolname":"အမက((ဂ)ရပ်ကွက်)","urbanrural":"Urban","longx":98.11325028,"laty":13.96838386,"mm_srcode":"MMR006","mm_srname":"Tanintharyi","mm_dtcode":"MMR006D001","mm_dtname":"Dawei","mm_tscode":"MMR006002","mm_tsname":"Launglon"}},{"type":"Feature","id":"formal_sector_school_location_lowermyanmar_2019.2557","geometry":{"type":"MultiPoint","coordinates":[[98.12384919968088,13.935994349759483]]},"geometry_name":"the_geom","properties":{"OBJECTID":2773,"schoolname":"အမက(ရင်းဘုတ်)","urbanrural":"Rural","longx":98.1238492,"laty":13.93599435,"mm_srcode":"MMR006","mm_srname":"Tanintharyi","mm_dtcode":"MMR006D001","mm_dtname":"Dawei","mm_tscode":"MMR006002","mm_tsname":"Launglon"}},{"type":"Feature","id":"formal_sector_school_location_lowermyanmar_2019.2558","geometry":{"type":"MultiPoint","coordinates":[[98.14484000036578,13.99724999998756]]},"geometry_name":"the_geom","properties":{"OBJECTID":2774,"schoolname":"အမက(မဲမော်)","urbanrural":"Rural","longx":98.14484,"laty":13.99725,"mm_srcode":"MMR006","mm_srname":"Tanintharyi","mm_dtcode":"MMR006D001","mm_dtname":"Dawei","mm_tscode":"MMR006002","mm_tsname":"Launglon"}},{"type":"Feature","id":"formal_sector_school_location_lowermyanmar_2019.2559","geometry":{"type":"MultiPoint","coordinates":[[98.15628999958386,14.010170000445214]]},"geometry_name":"the_geom","properties":{"OBJECTID":2775,"schoolname":"အမက(ရဗျော)","urbanrural":"Rural","longx":98.15629,"laty":14.01017,"mm_srcode":"MMR006","mm_srname":"Tanintharyi","mm_dtcode":"MMR006D001","mm_dtname":"Dawei","mm_tscode":"MMR006002","mm_tsname":"Launglon"}},{"type":"Feature","id":"formal_sector_school_location_lowermyanmar_2019.2560","geometry":{"type":"MultiPoint","coordinates":[[98.13384999987767,13.910479999652296]]},"geometry_name":"the_geom","properties":{"OBJECTID":2776,"schoolname":"အမက(ပိန္နဲတော)","urbanrural":"Rural","longx":98.13385,"laty":13.91048,"mm_srcode":"MMR006","mm_srname":"Tanintharyi","mm_dtcode":"MMR006D001","mm_dtname":"Dawei","mm_tscode":"MMR006002","mm_tsname":"Launglon"}},{"type":"Feature","id":"formal_sector_school_location_lowermyanmar_2019.2561","geometry":{"type":"MultiPoint","coordinates":[[98.13528999973374,13.905139999811183]]},"geometry_name":"the_geom","properties":{"OBJECTID":2777,"schoolname":"အမက(ကထိန်ကြီး)","urbanrural":"Rural","longx":98.13529,"laty":13.90514,"mm_srcode":"MMR006","mm_srname":"Tanintharyi","mm_dtcode":"MMR006D001","mm_dtname":"Dawei","mm_tscode":"MMR006002","mm_tsname":"Launglon"}},{"type":"Feature","id":"formal_sector_school_location_lowermyanmar_2019.2562","geometry":{"type":"MultiPoint","coordinates":[[98.15921000024139,14.078239999976063]]},"geometry_name":"the_geom","properties":{"OBJECTID":2778,"schoolname":"အမက(သာယာကုန်း)","urbanrural":"Rural","longx":98.15921,"laty":14.07824,"mm_srcode":"MMR006","mm_srname":"Tanintharyi","mm_dtcode":"MMR006D001","mm_dtname":"Dawei","mm_tscode":"MMR006002","mm_tsname":"Launglon"}},{"type":"Feature","id":"formal_sector_school_location_lowermyanmar_2019.2563","geometry":{"type":"MultiPoint","coordinates":[[98.15776434994484,14.088660129761251]]},"geometry_name":"the_geom","properties":{"OBJECTID":2779,"schoolname":"အမက(ဆင်ကူး)","urbanrural":"Rural","longx":98.15776435,"laty":14.08866013,"mm_srcode":"MMR006","mm_srname":"Tanintharyi","mm_dtcode":"MMR006D001","mm_dtname":"Dawei","mm_tscode":"MMR006002","mm_tsname":"Launglon"}},{"type":"Feature","id":"formal_sector_school_location_lowermyanmar_2019.2564","geometry":{"type":"MultiPoint","coordinates":[[98.14768999959387,14.115030000434217]]},"geometry_name":"the_geom","properties":{"OBJECTID":2780,"schoolname":"အမက(သောကြာပြင်)","urbanrural":"Rural","longx":98.14769,"laty":14.11503,"mm_srcode":"MMR006","mm_srname":"Tanintharyi","mm_dtcode":"MMR006D001","mm_dtname":"Dawei","mm_tscode":"MMR006002","mm_tsname":"Launglon"}},{"type":"Feature","id":"formal_sector_school_location_lowermyanmar_2019.2565","geometry":{"type":"MultiPoint","coordinates":[[98.17142000033283,14.104079999992052]]},"geometry_name":"the_geom","properties":{"OBJECTID":2781,"schoolname":"အမက(ထိန်သစ်)","urbanrural":"Rural","longx":98.17142,"laty":14.10408,"mm_srcode":"MMR006","mm_srname":"Tanintharyi","mm_dtcode":"MMR006D001","mm_dtname":"Dawei","mm_tscode":"MMR006002","mm_tsname":"Launglon"}},{"type":"Feature","id":"formal_sector_school_location_lowermyanmar_2019.2566","geometry":{"type":"MultiPoint","coordinates":[[98.17473000008948,14.108719999928098]]},"geometry_name":"the_geom","properties":{"OBJECTID":2782,"schoolname":"အမက(နခံတော)","urbanrural":"Rural","longx":98.17473,"laty":14.10872,"mm_srcode":"MMR006","mm_srname":"Tanintharyi","mm_dtcode":"MMR006D001","mm_dtname":"Dawei","mm_tscode":"MMR006002","mm_tsname":"Launglon"}},{"type":"Feature","id":"formal_sector_school_location_lowermyanmar_2019.2567","geometry":{"type":"MultiPoint","coordinates":[[98.15478999965882,13.87654000022087]]},"geometry_name":"the_geom","properties":{"OBJECTID":2783,"schoolname":"အမက(၀တ်သားကင်)","urbanrural":"Rural","longx":98.15479,"laty":13.87654,"mm_srcode":"MMR006","mm_srname":"Tanintharyi","mm_dtcode":"MMR006D001","mm_dtname":"Dawei","mm_tscode":"MMR006002","mm_tsname":"Launglon"}},{"type":"Feature","id":"formal_sector_school_location_lowermyanmar_2019.2568","geometry":{"type":"MultiPoint","coordinates":[[98.14891000009646,13.866989999588839]]},"geometry_name":"the_geom","properties":{"OBJECTID":2784,"schoolname":"အမက(မြခါးပတ်)","urbanrural":"Rural","longx":98.14891,"laty":13.86699,"mm_srcode":"MMR006","mm_srname":"Tanintharyi","mm_dtcode":"MMR006D001","mm_dtname":"Dawei","mm_tscode":"MMR006002","mm_tsname":"Launglon"}},{"type":"Feature","id":"formal_sector_school_location_lowermyanmar_2019.2569","geometry":{"type":"MultiPoint","coordinates":[[98.16543999975625,13.862569999905645]]},"geometry_name":"the_geom","properties":{"OBJECTID":2785,"schoolname":"အမက(မိန်းမချော)","urbanrural":"Rural","longx":98.16544,"laty":13.86257,"mm_srcode":"MMR006","mm_srname":"Tanintharyi","mm_dtcode":"MMR006D001","mm_dtname":"Dawei","mm_tscode":"MMR006002","mm_tsname":"Launglon"}},{"type":"Feature","id":"formal_sector_school_location_lowermyanmar_2019.2570","geometry":{"type":"MultiPoint","coordinates":[[98.15183051966284,14.109956690049273]]},"geometry_name":"the_geom","properties":{"OBJECTID":2786,"schoolname":"အမက(အင်းကြီး)","urbanrural":"Rural","longx":98.15183052,"laty":14.10995669,"mm_srcode":"MMR006","mm_srname":"Tanintharyi","mm_dtcode":"MMR006D001","mm_dtname":"Dawei","mm_tscode":"MMR006002","mm_tsname":"Launglon"}},{"type":"Feature","id":"formal_sector_school_location_lowermyanmar_2019.2571","geometry":{"type":"MultiPoint","coordinates":[[98.14004187982897,14.119539589680357]]},"geometry_name":"the_geom","properties":{"OBJECTID":2787,"schoolname":"အမက((ခလရ(၁၀4))","urbanrural":"Rural","longx":98.14004188,"laty":14.11953959,"mm_srcode":"MMR006","mm_srname":"Tanintharyi","mm_dtcode":"MMR006D001","mm_dtname":"Dawei","mm_tscode":"MMR006002","mm_tsname":"Launglon"}},{"type":"Feature","id":"formal_sector_school_location_lowermyanmar_2019.2572","geometry":{"type":"MultiPoint","coordinates":[[98.17737999998707,14.126860000088982]]},"geometry_name":"the_geom","properties":{"OBJECTID":2798,"schoolname":"အမက(ခမောင်းတောင်)","urbanrural":"Rural","longx":98.17738,"laty":14.12686,"mm_srcode":"MMR006","mm_srname":"Tanintharyi","mm_dtcode":"MMR006D001","mm_dtname":"Dawei","mm_tscode":"MMR006002","mm_tsname":"Launglon"}},{"type":"Feature","id":"formal_sector_school_location_lowermyanmar_2019.2573","geometry":{"type":"MultiPoint","coordinates":[[98.17658177972544,14.137423470117085]]},"geometry_name":"the_geom","properties":{"OBJECTID":2799,"schoolname":"အမက(မဲအုံနောက်)","urbanrural":"Rural","longx":98.17658178,"laty":14.13742347,"mm_srcode":"MMR006","mm_srname":"Tanintharyi","mm_dtcode":"MMR006D001","mm_dtname":"Dawei","mm_tscode":"MMR006002","mm_tsname":"Launglon"}},{"type":"Feature","id":"formal_sector_school_location_lowermyanmar_2019.2576","geometry":{"type":"MultiPoint","coordinates":[[98.15745999957937,13.777869999700783]]},"geometry_name":"the_geom","properties":{"OBJECTID":2802,"schoolname":"အမက(သ၀င်)","urbanrural":"Rural","longx":98.15746,"laty":13.77787,"mm_srcode":"MMR006","mm_srname":"Tanintharyi","mm_dtcode":"MMR006D001","mm_dtname":"Dawei","mm_tscode":"MMR006002","mm_tsname":"Launglon"}},{"type":"Feature","id":"formal_sector_school_location_lowermyanmar_2019.2577","geometry":{"type":"MultiPoint","coordinates":[[98.15318999961886,13.724319999768227]]},"geometry_name":"the_geom","properties":{"OBJECTID":2803,"schoolname":"အမက(ရဘဲ)","urbanrural":"Rural","longx":98.15319,"laty":13.72432,"mm_srcode":"MMR006","mm_srname":"Tanintharyi","mm_dtcode":"MMR006D001","mm_dtname":"Dawei","mm_tscode":"MMR006002","mm_tsname":"Launglon"}},{"type":"Feature","id":"formal_sector_school_location_lowermyanmar_2019.2579","geometry":{"type":"MultiPoint","coordinates":[[98.1534200003328,13.75647999985216]]},"geometry_name":"the_geom","properties":{"OBJECTID":2805,"schoolname":"အမက(ရွာသစ်ကုန်း)","urbanrural":"Rural","longx":98.15342,"laty":13.75648,"mm_srcode":"MMR006","mm_srname":"Tanintharyi","mm_dtcode":"MMR006D001","mm_dtname":"Dawei","mm_tscode":"MMR006002","mm_tsname":"Launglon"}},{"type":"Feature","id":"formal_sector_school_location_lowermyanmar_2019.2582","geometry":{"type":"MultiPoint","coordinates":[[98.18187840976088,13.663538589934035]]},"geometry_name":"the_geom","properties":{"OBJECTID":2808,"schoolname":"အမက(အင်းနီတွင်း)","urbanrural":"Rural","longx":98.18187841,"laty":13.66353859,"mm_srcode":"MMR006","mm_srname":"Tanintharyi","mm_dtcode":"MMR006D001","mm_dtname":"Dawei","mm_tscode":"MMR006002","mm_tsname":"Launglon"}},{"type":"Feature","id":"formal_sector_school_location_lowermyanmar_2019.2583","geometry":{"type":"MultiPoint","coordinates":[[98.06972257963338,13.969734480262105]]},"geometry_name":"the_geom","properties":{"OBJECTID":2809,"schoolname":"အမက(ရှမ်းမော်)","urbanrural":"Rural","longx":98.06972258,"laty":13.96973448,"mm_srcode":"MMR006","mm_srname":"Tanintharyi","mm_dtcode":"MMR006D001","mm_dtname":"Dawei","mm_tscode":"MMR006002","mm_tsname":"Launglon"}},{"type":"Feature","id":"formal_sector_school_location_lowermyanmar_2019.2584","geometry":{"type":"MultiPoint","coordinates":[[98.35834999975276,13.680709999566886]]},"geometry_name":"the_geom","properties":{"OBJECTID":2819,"schoolname":"အထက(ချောင်း၀ပြင်)","urbanrural":"Rural","longx":98.35835,"laty":13.68071,"mm_srcode":"MMR006","mm_srname":"Tanintharyi","mm_dtcode":"MMR006D001","mm_dtname":"Dawei","mm_tscode":"MMR006003","mm_tsname":"Thayetchaung"}},{"type":"Feature","id":"formal_sector_school_location_lowermyanmar_2019.2586","geometry":{"type":"MultiPoint","coordinates":[[98.37890000043473,13.678839999666309]]},"geometry_name":"the_geom","properties":{"OBJECTID":2821,"schoolname":"အလက(မင်းဒပ်)","urbanrural":"Rural","longx":98.3789,"laty":13.67884,"mm_srcode":"MMR006","mm_srname":"Tanintharyi","mm_dtcode":"MMR006D001","mm_dtname":"Dawei","mm_tscode":"MMR006003","mm_tsname":"Thayetchaung"}},{"type":"Feature","id":"formal_sector_school_location_lowermyanmar_2019.2587","geometry":{"type":"MultiPoint","coordinates":[[98.27585999983916,13.935320000317802]]},"geometry_name":"the_geom","properties":{"OBJECTID":2822,"schoolname":"အလက(ဂုံညှင်းဆိပ်)","urbanrural":"Rural","longx":98.27586,"laty":13.93532,"mm_srcode":"MMR006","mm_srname":"Tanintharyi","mm_dtcode":"MMR006D001","mm_dtname":"Dawei","mm_tscode":"MMR006003","mm_tsname":"Thayetchaung"}},{"type":"Feature","id":"formal_sector_school_location_lowermyanmar_2019.2589","geometry":{"type":"MultiPoint","coordinates":[[98.41010999987662,13.766349999952581]]},"geometry_name":"the_geom","properties":{"OBJECTID":2824,"schoolname":"အလက(ကျောက်ဆည်)","urbanrural":"Rural","longx":98.41011,"laty":13.76635,"mm_srcode":"MMR006","mm_srname":"Tanintharyi","mm_dtcode":"MMR006D001","mm_dtname":"Dawei","mm_tscode":"MMR006003","mm_tsname":"Thayetchaung"}},{"type":"Feature","id":"formal_sector_school_location_lowermyanmar_2019.2590","geometry":{"type":"MultiPoint","coordinates":[[98.32646000042871,13.690940000081014]]},"geometry_name":"the_geom","properties":{"OBJECTID":2825,"schoolname":"အလက(ကြာအင်း)","urbanrural":"Rural","longx":98.32646,"laty":13.69094,"mm_srcode":"MMR006","mm_srname":"Tanintharyi","mm_dtcode":"MMR006D001","mm_dtname":"Dawei","mm_tscode":"MMR006003","mm_tsname":"Thayetchaung"}},{"type":"Feature","id":"formal_sector_school_location_lowermyanmar_2019.2591","geometry":{"type":"MultiPoint","coordinates":[[98.32542999969479,13.697119999988047]]},"geometry_name":"the_geom","properties":{"OBJECTID":2826,"schoolname":"အလက(ပြင်းဖြူကြီး)","urbanrural":"Rural","longx":98.32543,"laty":13.69712,"mm_srcode":"MMR006","mm_srname":"Tanintharyi","mm_dtcode":"MMR006D001","mm_dtname":"Dawei","mm_tscode":"MMR006003","mm_tsname":"Thayetchaung"}},{"type":"Feature","id":"formal_sector_school_location_lowermyanmar_2019.2592","geometry":{"type":"MultiPoint","coordinates":[[98.42804999980768,13.526310000206422]]},"geometry_name":"the_geom","properties":{"OBJECTID":2827,"schoolname":"အလက(ခွဲ)(ကျွဲခြံ)","urbanrural":"Rural","longx":98.42805,"laty":13.52631,"mm_srcode":"MMR006","mm_srname":"Tanintharyi","mm_dtcode":"MMR006D001","mm_dtname":"Dawei","mm_tscode":"MMR006003","mm_tsname":"Thayetchaung"}},{"type":"Feature","id":"formal_sector_school_location_lowermyanmar_2019.2629","geometry":{"type":"MultiPoint","coordinates":[[98.42028999988366,13.518709999566852]]},"geometry_name":"the_geom","properties":{"OBJECTID":2886,"schoolname":"အမက(ဘဲစားပြင်)","urbanrural":"Rural","longx":98.42029,"laty":13.51871,"mm_srcode":"MMR006","mm_srname":"Tanintharyi","mm_dtcode":"MMR006D001","mm_dtname":"Dawei","mm_tscode":"MMR006003","mm_tsname":"Thayetchaung"}},{"type":"Feature","id":"formal_sector_school_location_lowermyanmar_2019.2594","geometry":{"type":"MultiPoint","coordinates":[[98.2794000003098,14.023450000417256]]},"geometry_name":"the_geom","properties":{"OBJECTID":2829,"schoolname":"အလက(ခွဲ)(ပအော့အနောက်)","urbanrural":"Rural","longx":98.2794,"laty":14.02345,"mm_srcode":"MMR006","mm_srname":"Tanintharyi","mm_dtcode":"MMR006D001","mm_dtname":"Dawei","mm_tscode":"MMR006003","mm_tsname":"Thayetchaung"}},{"type":"Feature","id":"formal_sector_school_location_lowermyanmar_2019.2595","geometry":{"type":"MultiPoint","coordinates":[[98.29822034029655,13.972552960051132]]},"geometry_name":"the_geom","properties":{"OBJECTID":2830,"schoolname":"အလက(ခွဲ)(ကင်းရှေ့)","urbanrural":"Rural","longx":98.29822034,"laty":13.97255296,"mm_srcode":"MMR006","mm_srname":"Tanintharyi","mm_dtcode":"MMR006D001","mm_dtname":"Dawei","mm_tscode":"MMR006003","mm_tsname":"Thayetchaung"}},{"type":"Feature","id":"formal_sector_school_location_lowermyanmar_2019.2596","geometry":{"type":"MultiPoint","coordinates":[[98.37166999977075,13.64708999960385]]},"geometry_name":"the_geom","properties":{"OBJECTID":2831,"schoolname":"အထက(ကမြိုင်)","urbanrural":"Rural","longx":98.37167,"laty":13.64709,"mm_srcode":"MMR006","mm_srname":"Tanintharyi","mm_dtcode":"MMR006D001","mm_dtname":"Dawei","mm_tscode":"MMR006003","mm_tsname":"Thayetchaung"}},{"type":"Feature","id":"formal_sector_school_location_lowermyanmar_2019.2598","geometry":{"type":"MultiPoint","coordinates":[[98.30200000019988,13.746540000120945]]},"geometry_name":"the_geom","properties":{"OBJECTID":2842,"schoolname":"အလက(ခွဲ)(၀င်းကဖော်)","urbanrural":"Rural","longx":98.302,"laty":13.74654,"mm_srcode":"MMR006","mm_srname":"Tanintharyi","mm_dtcode":"MMR006D001","mm_dtname":"Dawei","mm_tscode":"MMR006003","mm_tsname":"Thayetchaung"}},{"type":"Feature","id":"formal_sector_school_location_lowermyanmar_2019.2600","geometry":{"type":"MultiPoint","coordinates":[[98.43424999973774,13.838160000183905]]},"geometry_name":"the_geom","properties":{"OBJECTID":2844,"schoolname":"မူလွန်(မာလကာချောင်း)","urbanrural":"Rural","longx":98.43425,"laty":13.83816,"mm_srcode":"MMR006","mm_srname":"Tanintharyi","mm_dtcode":"MMR006D001","mm_dtname":"Dawei","mm_tscode":"MMR006003","mm_tsname":"Thayetchaung"}},{"type":"Feature","id":"formal_sector_school_location_lowermyanmar_2019.2601","geometry":{"type":"MultiPoint","coordinates":[[98.36581000023136,13.876050000107455]]},"geometry_name":"the_geom","properties":{"OBJECTID":2845,"schoolname":"မူလွန်(မယ်ကဲ)","urbanrural":"Rural","longx":98.36581,"laty":13.87605,"mm_srcode":"MMR006","mm_srname":"Tanintharyi","mm_dtcode":"MMR006D001","mm_dtname":"Dawei","mm_tscode":"MMR006003","mm_tsname":"Thayetchaung"}},{"type":"Feature","id":"formal_sector_school_location_lowermyanmar_2019.2602","geometry":{"type":"MultiPoint","coordinates":[[98.27961999966334,13.788909999796715]]},"geometry_name":"the_geom","properties":{"OBJECTID":2846,"schoolname":"မူလွန်(ဆင်ကျန်း)","urbanrural":"Rural","longx":98.27962,"laty":13.78891,"mm_srcode":"MMR006","mm_srname":"Tanintharyi","mm_dtcode":"MMR006D001","mm_dtname":"Dawei","mm_tscode":"MMR006003","mm_tsname":"Thayetchaung"}},{"type":"Feature","id":"formal_sector_school_location_lowermyanmar_2019.2603","geometry":{"type":"MultiPoint","coordinates":[[98.33722999976476,13.730550000182404]]},"geometry_name":"the_geom","properties":{"OBJECTID":2847,"schoolname":"မူလွန်(ပြင်းဖြူသား)","urbanrural":"Rural","longx":98.33723,"laty":13.73055,"mm_srcode":"MMR006","mm_srname":"Tanintharyi","mm_dtcode":"MMR006D001","mm_dtname":"Dawei","mm_tscode":"MMR006003","mm_tsname":"Thayetchaung"}},{"type":"Feature","id":"formal_sector_school_location_lowermyanmar_2019.2604","geometry":{"type":"MultiPoint","coordinates":[[98.26696559958282,13.86244513983138]]},"geometry_name":"the_geom","properties":{"OBJECTID":2848,"schoolname":"မူလွန်(ပေတခပ်)","urbanrural":"Rural","longx":98.2669656,"laty":13.86244514,"mm_srcode":"MMR006","mm_srname":"Tanintharyi","mm_dtcode":"MMR006D001","mm_dtname":"Dawei","mm_tscode":"MMR006003","mm_tsname":"Thayetchaung"}},{"type":"Feature","id":"formal_sector_school_location_lowermyanmar_2019.2605","geometry":{"type":"MultiPoint","coordinates":[[98.26135441997059,13.868232510122311]]},"geometry_name":"the_geom","properties":{"OBJECTID":2849,"schoolname":"မူလွန်(ဆီတောကြီး)","urbanrural":"Rural","longx":98.26135442,"laty":13.86823251,"mm_srcode":"MMR006","mm_srname":"Tanintharyi","mm_dtcode":"MMR006D001","mm_dtname":"Dawei","mm_tscode":"MMR006003","mm_tsname":"Thayetchaung"}},{"type":"Feature","id":"formal_sector_school_location_lowermyanmar_2019.2606","geometry":{"type":"MultiPoint","coordinates":[[98.26219316997884,13.873822240004415]]},"geometry_name":"the_geom","properties":{"OBJECTID":2850,"schoolname":"မူလွန်(ဆင်မတန်း)","urbanrural":"Rural","longx":98.26219317,"laty":13.87382224,"mm_srcode":"MMR006","mm_srname":"Tanintharyi","mm_dtcode":"MMR006D001","mm_dtname":"Dawei","mm_tscode":"MMR006003","mm_tsname":"Thayetchaung"}},{"type":"Feature","id":"formal_sector_school_location_lowermyanmar_2019.2607","geometry":{"type":"MultiPoint","coordinates":[[98.2611227096454,13.875157080335043]]},"geometry_name":"the_geom","properties":{"OBJECTID":2851,"schoolname":"အမက(၁)(မြို့မ)","urbanrural":"Urban","longx":98.26112271,"laty":13.87515708,"mm_srcode":"MMR006","mm_srname":"Tanintharyi","mm_dtcode":"MMR006D001","mm_dtname":"Dawei","mm_tscode":"MMR006003","mm_tsname":"Thayetchaung"}},{"type":"Feature","id":"formal_sector_school_location_lowermyanmar_2019.2608","geometry":{"type":"MultiPoint","coordinates":[[98.24538584008451,13.850806790201261]]},"geometry_name":"the_geom","properties":{"OBJECTID":2852,"schoolname":"အမက(၁)(ကျောက်မြောင်း)","urbanrural":"Urban","longx":98.24538584,"laty":13.85080679,"mm_srcode":"MMR006","mm_srname":"Tanintharyi","mm_dtcode":"MMR006D001","mm_dtname":"Dawei","mm_tscode":"MMR006003","mm_tsname":"Thayetchaung"}},{"type":"Feature","id":"formal_sector_school_location_lowermyanmar_2019.2609","geometry":{"type":"MultiPoint","coordinates":[[98.27911999998804,13.829540000170937]]},"geometry_name":"the_geom","properties":{"OBJECTID":2853,"schoolname":"အမက(၂)(ကျောက်မြောင်း)","urbanrural":"Urban","longx":98.27912,"laty":13.82954,"mm_srcode":"MMR006","mm_srname":"Tanintharyi","mm_dtcode":"MMR006D001","mm_dtname":"Dawei","mm_tscode":"MMR006003","mm_tsname":"Thayetchaung"}},{"type":"Feature","id":"formal_sector_school_location_lowermyanmar_2019.2611","geometry":{"type":"MultiPoint","coordinates":[[98.24260999985165,13.909019999773193]]},"geometry_name":"the_geom","properties":{"OBJECTID":2866,"schoolname":"အမက(ပန်းပြင်)","urbanrural":"Rural","longx":98.24261,"laty":13.90902,"mm_srcode":"MMR006","mm_srname":"Tanintharyi","mm_dtcode":"MMR006D001","mm_dtname":"Dawei","mm_tscode":"MMR006003","mm_tsname":"Thayetchaung"}},{"type":"Feature","id":"formal_sector_school_location_lowermyanmar_2019.2612","geometry":{"type":"MultiPoint","coordinates":[[98.32043000024436,13.758130000399262]]},"geometry_name":"the_geom","properties":{"OBJECTID":2867,"schoolname":"အမက(မဲနယ်အိုး)","urbanrural":"Rural","longx":98.32043,"laty":13.75813,"mm_srcode":"MMR006","mm_srname":"Tanintharyi","mm_dtcode":"MMR006D001","mm_dtname":"Dawei","mm_tscode":"MMR006003","mm_tsname":"Thayetchaung"}},{"type":"Feature","id":"formal_sector_school_location_lowermyanmar_2019.2613","geometry":{"type":"MultiPoint","coordinates":[[98.43117883023888,13.867056120443635]]},"geometry_name":"the_geom","properties":{"OBJECTID":2903,"schoolname":"အမက(ရေဗျတ်)","urbanrural":"Rural","longx":98.43117883,"laty":13.86705612,"mm_srcode":"MMR006","mm_srname":"Tanintharyi","mm_dtcode":"MMR006D001","mm_dtname":"Dawei","mm_tscode":"MMR006003","mm_tsname":"Thayetchaung"}},{"type":"Feature","id":"formal_sector_school_location_lowermyanmar_2019.2614","geometry":{"type":"MultiPoint","coordinates":[[98.36329132023832,13.713445590042]]},"geometry_name":"the_geom","properties":{"OBJECTID":2868,"schoolname":"အမက(ပန်းချီရှောင်)","urbanrural":"Rural","longx":98.36329132,"laty":13.71344559,"mm_srcode":"MMR006","mm_srname":"Tanintharyi","mm_dtcode":"MMR006D001","mm_dtname":"Dawei","mm_tscode":"MMR006003","mm_tsname":"Thayetchaung"}},{"type":"Feature","id":"formal_sector_school_location_lowermyanmar_2019.2615","geometry":{"type":"MultiPoint","coordinates":[[98.38678576964759,13.685825310090024]]},"geometry_name":"the_geom","properties":{"OBJECTID":2869,"schoolname":"အမက(၂)(သရက်နှစ်ခွ)","urbanrural":"Rural","longx":98.38678577,"laty":13.68582531,"mm_srcode":"MMR006","mm_srname":"Tanintharyi","mm_dtcode":"MMR006D001","mm_dtname":"Dawei","mm_tscode":"MMR006003","mm_tsname":"Thayetchaung"}},{"type":"Feature","id":"formal_sector_school_location_lowermyanmar_2019.2616","geometry":{"type":"MultiPoint","coordinates":[[98.38376444956975,13.66828272956434]]},"geometry_name":"the_geom","properties":{"OBJECTID":2870,"schoolname":"အမက(သဲချောင်းသား)","urbanrural":"Rural","longx":98.38376445,"laty":13.66828273,"mm_srcode":"MMR006","mm_srname":"Tanintharyi","mm_dtcode":"MMR006D001","mm_dtname":"Dawei","mm_tscode":"MMR006003","mm_tsname":"Thayetchaung"}},{"type":"Feature","id":"formal_sector_school_location_lowermyanmar_2019.2617","geometry":{"type":"MultiPoint","coordinates":[[98.25844602956067,13.89341568038941]]},"geometry_name":"the_geom","properties":{"OBJECTID":2871,"schoolname":"အမက(၀ဲရစ်)","urbanrural":"Rural","longx":98.25844603,"laty":13.89341568,"mm_srcode":"MMR006","mm_srname":"Tanintharyi","mm_dtcode":"MMR006D001","mm_dtname":"Dawei","mm_tscode":"MMR006003","mm_tsname":"Thayetchaung"}},{"type":"Feature","id":"formal_sector_school_location_lowermyanmar_2019.2618","geometry":{"type":"MultiPoint","coordinates":[[98.25097763031346,14.014892940356958]]},"geometry_name":"the_geom","properties":{"OBJECTID":2872,"schoolname":"အမက(၂)(ရငဲ)","urbanrural":"Rural","longx":98.25097763,"laty":14.01489294,"mm_srcode":"MMR006","mm_srname":"Tanintharyi","mm_dtcode":"MMR006D001","mm_dtname":"Dawei","mm_tscode":"MMR006003","mm_tsname":"Thayetchaung"}},{"type":"Feature","id":"formal_sector_school_location_lowermyanmar_2019.2619","geometry":{"type":"MultiPoint","coordinates":[[98.29462291001931,14.000344639993216]]},"geometry_name":"the_geom","properties":{"OBJECTID":2873,"schoolname":"အမက(ရာဘာခြံ)","urbanrural":"Rural","longx":98.29462291,"laty":14.00034464,"mm_srcode":"MMR006","mm_srname":"Tanintharyi","mm_dtcode":"MMR006D001","mm_dtname":"Dawei","mm_tscode":"MMR006003","mm_tsname":"Thayetchaung"}},{"type":"Feature","id":"formal_sector_school_location_lowermyanmar_2019.2620","geometry":{"type":"MultiPoint","coordinates":[[98.25237000027533,13.99788000026183]]},"geometry_name":"the_geom","properties":{"OBJECTID":2874,"schoolname":"အမက(ဆေးဖြတ်ကုန်း)","urbanrural":"Rural","longx":98.25237,"laty":13.99788,"mm_srcode":"MMR006","mm_srname":"Tanintharyi","mm_dtcode":"MMR006D001","mm_dtname":"Dawei","mm_tscode":"MMR006003","mm_tsname":"Thayetchaung"}},{"type":"Feature","id":"formal_sector_school_location_lowermyanmar_2019.2621","geometry":{"type":"MultiPoint","coordinates":[[98.28092000025788,13.99527999997207]]},"geometry_name":"the_geom","properties":{"OBJECTID":2875,"schoolname":"အမက(မိုးရွှေကူး)","urbanrural":"Rural","longx":98.28092,"laty":13.99528,"mm_srcode":"MMR006","mm_srname":"Tanintharyi","mm_dtcode":"MMR006D001","mm_dtname":"Dawei","mm_tscode":"MMR006003","mm_tsname":"Thayetchaung"}},{"type":"Feature","id":"formal_sector_school_location_lowermyanmar_2019.2622","geometry":{"type":"MultiPoint","coordinates":[[98.26854000042073,14.00073000038924]]},"geometry_name":"the_geom","properties":{"OBJECTID":2876,"schoolname":"အမက(ဟင်းဘုတ်ချောင်း)","urbanrural":"Rural","longx":98.26854,"laty":14.00073,"mm_srcode":"MMR006","mm_srname":"Tanintharyi","mm_dtcode":"MMR006D001","mm_dtname":"Dawei","mm_tscode":"MMR006003","mm_tsname":"Thayetchaung"}},{"type":"Feature","id":"formal_sector_school_location_lowermyanmar_2019.2625","geometry":{"type":"MultiPoint","coordinates":[[98.34073000018941,13.668289999683793]]},"geometry_name":"the_geom","properties":{"OBJECTID":2882,"schoolname":"အမက(ဗျတ်၀ိသား)","urbanrural":"Rural","longx":98.34073,"laty":13.66829,"mm_srcode":"MMR006","mm_srname":"Tanintharyi","mm_dtcode":"MMR006D001","mm_dtname":"Dawei","mm_tscode":"MMR006003","mm_tsname":"Thayetchaung"}},{"type":"Feature","id":"formal_sector_school_location_lowermyanmar_2019.2626","geometry":{"type":"MultiPoint","coordinates":[[98.35250285961934,13.718371640039209]]},"geometry_name":"the_geom","properties":{"OBJECTID":2883,"schoolname":"အမက(ရေချိုချောင်း)","urbanrural":"Rural","longx":98.35250286,"laty":13.71837164,"mm_srcode":"MMR006","mm_srname":"Tanintharyi","mm_dtcode":"MMR006D001","mm_dtname":"Dawei","mm_tscode":"MMR006003","mm_tsname":"Thayetchaung"}},{"type":"Feature","id":"formal_sector_school_location_lowermyanmar_2019.2627","geometry":{"type":"MultiPoint","coordinates":[[98.35520000017993,13.630069999830653]]},"geometry_name":"the_geom","properties":{"OBJECTID":2884,"schoolname":"အမက(ဆီဒတ်)","urbanrural":"Rural","longx":98.3552,"laty":13.63007,"mm_srcode":"MMR006","mm_srname":"Tanintharyi","mm_dtcode":"MMR006D001","mm_dtname":"Dawei","mm_tscode":"MMR006003","mm_tsname":"Thayetchaung"}},{"type":"Feature","id":"formal_sector_school_location_lowermyanmar_2019.2628","geometry":{"type":"MultiPoint","coordinates":[[98.3258328995687,13.651557370176533]]},"geometry_name":"the_geom","properties":{"OBJECTID":2885,"schoolname":"အမက(မြလေးပြင်)","urbanrural":"Rural","longx":98.3258329,"laty":13.65155737,"mm_srcode":"MMR006","mm_srname":"Tanintharyi","mm_dtcode":"MMR006D001","mm_dtname":"Dawei","mm_tscode":"MMR006003","mm_tsname":"Thayetchaung"}},{"type":"Feature","id":"formal_sector_school_location_lowermyanmar_2019.2630","geometry":{"type":"MultiPoint","coordinates":[[98.42679110992185,13.537062579674341]]},"geometry_name":"the_geom","properties":{"OBJECTID":2887,"schoolname":"အမက(ကမ်းပြင်)","urbanrural":"Rural","longx":98.42679111,"laty":13.53706258,"mm_srcode":"MMR006","mm_srname":"Tanintharyi","mm_dtcode":"MMR006D001","mm_dtname":"Dawei","mm_tscode":"MMR006003","mm_tsname":"Thayetchaung"}},{"type":"Feature","id":"formal_sector_school_location_lowermyanmar_2019.2631","geometry":{"type":"MultiPoint","coordinates":[[98.42020361010856,13.518620249924652]]},"geometry_name":"the_geom","properties":{"OBJECTID":2888,"schoolname":"အမက(၂)(ကတွဲ)","urbanrural":"Rural","longx":98.42020361,"laty":13.51862025,"mm_srcode":"MMR006","mm_srname":"Tanintharyi","mm_dtcode":"MMR006D001","mm_dtname":"Dawei","mm_tscode":"MMR006003","mm_tsname":"Thayetchaung"}},{"type":"Feature","id":"formal_sector_school_location_lowermyanmar_2019.2642","geometry":{"type":"MultiPoint","coordinates":[[98.34264999969781,13.933370000325283]]},"geometry_name":"the_geom","properties":{"OBJECTID":2899,"schoolname":"အမက(ပဒပ်ချောင်း)","urbanrural":"Rural","longx":98.34265,"laty":13.93337,"mm_srcode":"MMR006","mm_srname":"Tanintharyi","mm_dtcode":"MMR006D001","mm_dtname":"Dawei","mm_tscode":"MMR006003","mm_tsname":"Thayetchaung"}},{"type":"Feature","id":"formal_sector_school_location_lowermyanmar_2019.2647","geometry":{"type":"MultiPoint","coordinates":[[98.35778991007635,13.895591019909716]]},"geometry_name":"the_geom","properties":{"OBJECTID":2904,"schoolname":"အမက(ကျောက်ဖြူ)","urbanrural":"Rural","longx":98.35778991,"laty":13.89559102,"mm_srcode":"MMR006","mm_srname":"Tanintharyi","mm_dtcode":"MMR006D001","mm_dtname":"Dawei","mm_tscode":"MMR006003","mm_tsname":"Thayetchaung"}},{"type":"Feature","id":"formal_sector_school_location_lowermyanmar_2019.2648","geometry":{"type":"MultiPoint","coordinates":[[98.35235783044959,13.915985290388903]]},"geometry_name":"the_geom","properties":{"OBJECTID":2905,"schoolname":"အမက(လောင်းမင်းဘ)","urbanrural":"Rural","longx":98.35235783,"laty":13.91598529,"mm_srcode":"MMR006","mm_srname":"Tanintharyi","mm_dtcode":"MMR006D001","mm_dtname":"Dawei","mm_tscode":"MMR006003","mm_tsname":"Thayetchaung"}},{"type":"Feature","id":"formal_sector_school_location_lowermyanmar_2019.2649","geometry":{"type":"MultiPoint","coordinates":[[98.29817282011959,13.972443699617088]]},"geometry_name":"the_geom","properties":{"OBJECTID":2906,"schoolname":"အမက-ပဲရေပူစမ်း","urbanrural":"Rural","longx":98.29817282,"laty":13.9724437,"mm_srcode":"MMR006","mm_srname":"Tanintharyi","mm_dtcode":"MMR006D001","mm_dtname":"Dawei","mm_tscode":"MMR006003","mm_tsname":"Thayetchaung"}},{"type":"Feature","id":"formal_sector_school_location_lowermyanmar_2019.2650","geometry":{"type":"MultiPoint","coordinates":[[98.43161630005227,13.868270840127195]]},"geometry_name":"the_geom","properties":{"OBJECTID":2907,"schoolname":"အမက(ကထီး၀)","urbanrural":"Rural","longx":98.4316163,"laty":13.86827084,"mm_srcode":"MMR006","mm_srname":"Tanintharyi","mm_dtcode":"MMR006D001","mm_dtname":"Dawei","mm_tscode":"MMR006003","mm_tsname":"Thayetchaung"}},{"type":"Feature","id":"formal_sector_school_location_lowermyanmar_2019.14285","geometry":{"type":"MultiPoint","coordinates":[[98.22945000001755,14.029149999772699]]},"geometry_name":"the_geom","properties":{"OBJECTID":14566,"schoolname":"အမက(ကဒင်ဝ)","urbanrural":"Rural","longx":98.22945,"laty":14.02915,"mm_srcode":"MMR006","mm_srname":"Tanintharyi","mm_dtcode":"MMR006D001","mm_dtname":"Dawei","mm_tscode":"MMR006001","mm_tsname":"Dawei"}},{"type":"Feature","id":"formal_sector_school_location_lowermyanmar_2019.14286","geometry":{"type":"MultiPoint","coordinates":[[98.23261602011331,14.106213469775867]]},"geometry_name":"the_geom","properties":{"OBJECTID":14567,"schoolname":"အထက(၅)","urbanrural":"Rural","longx":98.23261602,"laty":14.10621347,"mm_srcode":"MMR006","mm_srname":"Tanintharyi","mm_dtcode":"MMR006D001","mm_dtname":"Dawei","mm_tscode":"MMR006001","mm_tsname":"Dawei"}},{"type":"Feature","id":"formal_sector_school_location_lowermyanmar_2019.14289","geometry":{"type":"MultiPoint","coordinates":[[98.24162999962482,14.083390000048496]]},"geometry_name":"the_geom","properties":{"OBJECTID":14570,"schoolname":"မူလွန်(တလိုင်းတောင်)","urbanrural":"Rural","longx":98.24163,"laty":14.08339,"mm_srcode":"MMR006","mm_srname":"Tanintharyi","mm_dtcode":"MMR006D001","mm_dtname":"Dawei","mm_tscode":"MMR006001","mm_tsname":"Dawei"}},{"type":"Feature","id":"formal_sector_school_location_lowermyanmar_2019.14291","geometry":{"type":"MultiPoint","coordinates":[[98.19187098026157,14.075650189904366]]},"geometry_name":"the_geom","properties":{"OBJECTID":14572,"schoolname":"အမက(မြို့တွင်း)","urbanrural":"Urban","longx":98.19187098,"laty":14.07565019,"mm_srcode":"MMR006","mm_srname":"Tanintharyi","mm_dtcode":"MMR006D001","mm_dtname":"Dawei","mm_tscode":"MMR006001","mm_tsname":"Dawei"}},{"type":"Feature","id":"formal_sector_school_location_lowermyanmar_2019.14292","geometry":{"type":"MultiPoint","coordinates":[[98.18726903963454,14.070086159948346]]},"geometry_name":"the_geom","properties":{"OBJECTID":14573,"schoolname":"အမက(ဒေါင်းငူ)","urbanrural":"Urban","longx":98.18726904,"laty":14.07008616,"mm_srcode":"MMR006","mm_srname":"Tanintharyi","mm_dtcode":"MMR006D001","mm_dtname":"Dawei","mm_tscode":"MMR006001","mm_tsname":"Dawei"}},{"type":"Feature","id":"formal_sector_school_location_lowermyanmar_2019.14293","geometry":{"type":"MultiPoint","coordinates":[[98.2077787003268,14.07271512020668]]},"geometry_name":"the_geom","properties":{"OBJECTID":14574,"schoolname":"အမက(ကျောက်မော်)","urbanrural":"Urban","longx":98.2077787,"laty":14.07271512,"mm_srcode":"MMR006","mm_srname":"Tanintharyi","mm_dtcode":"MMR006D001","mm_dtname":"Dawei","mm_tscode":"MMR006001","mm_tsname":"Dawei"}},{"type":"Feature","id":"formal_sector_school_location_lowermyanmar_2019.14294","geometry":{"type":"MultiPoint","coordinates":[[98.22397999957735,14.067830000154459]]},"geometry_name":"the_geom","properties":{"OBJECTID":14575,"schoolname":"မူလွန်(ကျောက်ရပ်)","urbanrural":"Rural","longx":98.22398,"laty":14.06783,"mm_srcode":"MMR006","mm_srname":"Tanintharyi","mm_dtcode":"MMR006D001","mm_dtname":"Dawei","mm_tscode":"MMR006001","mm_tsname":"Dawei"}},{"type":"Feature","id":"formal_sector_school_location_lowermyanmar_2019.14295","geometry":{"type":"MultiPoint","coordinates":[[98.21758999987867,14.119710000416262]]},"geometry_name":"the_geom","properties":{"OBJECTID":14576,"schoolname":"အမက(ပုလုကုန်း)","urbanrural":"Rural","longx":98.21759,"laty":14.11971,"mm_srcode":"MMR006","mm_srname":"Tanintharyi","mm_dtcode":"MMR006D001","mm_dtname":"Dawei","mm_tscode":"MMR006001","mm_tsname":"Dawei"}},{"type":"Feature","id":"formal_sector_school_location_lowermyanmar_2019.14296","geometry":{"type":"MultiPoint","coordinates":[[98.14396999981568,13.897239999726253]]},"geometry_name":"the_geom","properties":{"OBJECTID":14577,"schoolname":"အထက(အောက်ရေဖြူ)","urbanrural":"Rural","longx":98.14397,"laty":13.89724,"mm_srcode":"MMR006","mm_srname":"Tanintharyi","mm_dtcode":"MMR006D001","mm_dtname":"Dawei","mm_tscode":"MMR006002","mm_tsname":"Launglon"}},{"type":"Feature","id":"formal_sector_school_location_lowermyanmar_2019.14298","geometry":{"type":"MultiPoint","coordinates":[[98.13618999986863,13.976849999927595]]},"geometry_name":"the_geom","properties":{"OBJECTID":14579,"schoolname":"မူလွန်(ပြင်းထိန်)","urbanrural":"Rural","longx":98.13619,"laty":13.97685,"mm_srcode":"MMR006","mm_srname":"Tanintharyi","mm_dtcode":"MMR006D001","mm_dtname":"Dawei","mm_tscode":"MMR006002","mm_tsname":"Launglon"}},{"type":"Feature","id":"formal_sector_school_location_lowermyanmar_2019.14299","geometry":{"type":"MultiPoint","coordinates":[[98.17676000017394,14.145290000133457]]},"geometry_name":"the_geom","properties":{"OBJECTID":14580,"schoolname":"မူလွန်(တောင်မင်းပြောင်)","urbanrural":"Rural","longx":98.17676,"laty":14.14529,"mm_srcode":"MMR006","mm_srname":"Tanintharyi","mm_dtcode":"MMR006D001","mm_dtname":"Dawei","mm_tscode":"MMR006002","mm_tsname":"Launglon"}},{"type":"Feature","id":"formal_sector_school_location_lowermyanmar_2019.14300","geometry":{"type":"MultiPoint","coordinates":[[98.15102000027287,13.582109999576858]]},"geometry_name":"the_geom","properties":{"OBJECTID":14581,"schoolname":"မူလွန်(ကျောက်မတ္တပ်)","urbanrural":"Rural","longx":98.15102,"laty":13.58211,"mm_srcode":"MMR006","mm_srname":"Tanintharyi","mm_dtcode":"MMR006D001","mm_dtname":"Dawei","mm_tscode":"MMR006002","mm_tsname":"Launglon"}},{"type":"Feature","id":"formal_sector_school_location_lowermyanmar_2019.14301","geometry":{"type":"MultiPoint","coordinates":[[98.12275992013429,13.975877259927643]]},"geometry_name":"the_geom","properties":{"OBJECTID":14582,"schoolname":"အမက((ခ)ရပ်ကွက်)","urbanrural":"Urban","longx":98.12275992,"laty":13.97587726,"mm_srcode":"MMR006","mm_srname":"Tanintharyi","mm_dtcode":"MMR006D001","mm_dtname":"Dawei","mm_tscode":"MMR006002","mm_tsname":"Launglon"}},{"type":"Feature","id":"formal_sector_school_location_lowermyanmar_2019.14302","geometry":{"type":"MultiPoint","coordinates":[[98.1556314701163,14.013931809705298]]},"geometry_name":"the_geom","properties":{"OBJECTID":14583,"schoolname":"အမက(မြောင်းပေါက်)","urbanrural":"Rural","longx":98.15563147,"laty":14.01393181,"mm_srcode":"MMR006","mm_srname":"Tanintharyi","mm_dtcode":"MMR006D001","mm_dtname":"Dawei","mm_tscode":"MMR006002","mm_tsname":"Launglon"}},{"type":"Feature","id":"formal_sector_school_location_lowermyanmar_2019.14303","geometry":{"type":"MultiPoint","coordinates":[[98.14533974013693,13.896432690016695]]},"geometry_name":"the_geom","properties":{"OBJECTID":14584,"schoolname":"အမက(ကျောက်ဖြူ)","urbanrural":"Rural","longx":98.14533974,"laty":13.89643269,"mm_srcode":"MMR006","mm_srname":"Tanintharyi","mm_dtcode":"MMR006D001","mm_dtname":"Dawei","mm_tscode":"MMR006002","mm_tsname":"Launglon"}},{"type":"Feature","id":"formal_sector_school_location_lowermyanmar_2019.14304","geometry":{"type":"MultiPoint","coordinates":[[98.17107423978439,14.093106289823481]]},"geometry_name":"the_geom","properties":{"OBJECTID":14585,"schoolname":"အမက(အဘူ)","urbanrural":"Rural","longx":98.17107424,"laty":14.09310629,"mm_srcode":"MMR006","mm_srname":"Tanintharyi","mm_dtcode":"MMR006D001","mm_dtname":"Dawei","mm_tscode":"MMR006002","mm_tsname":"Launglon"}},{"type":"Feature","id":"formal_sector_school_location_lowermyanmar_2019.14305","geometry":{"type":"MultiPoint","coordinates":[[98.15770614042611,13.86532663961276]]},"geometry_name":"the_geom","properties":{"OBJECTID":14586,"schoolname":"အမက(နတ်စင်ရှောင်)","urbanrural":"Rural","longx":98.15770614,"laty":13.86532664,"mm_srcode":"MMR006","mm_srname":"Tanintharyi","mm_dtcode":"MMR006D001","mm_dtname":"Dawei","mm_tscode":"MMR006002","mm_tsname":"Launglon"}},{"type":"Feature","id":"formal_sector_school_location_lowermyanmar_2019.14306","geometry":{"type":"MultiPoint","coordinates":[[98.24079553038945,14.013258130258578]]},"geometry_name":"the_geom","properties":{"OBJECTID":14587,"schoolname":"အမက(သဲတော)","urbanrural":"Rural","longx":98.24079553,"laty":14.01325813,"mm_srcode":"MMR006","mm_srname":"Tanintharyi","mm_dtcode":"MMR006D001","mm_dtname":"Dawei","mm_tscode":"MMR006001","mm_tsname":"Dawei"}},{"type":"Feature","id":"formal_sector_school_location_lowermyanmar_2019.14307","geometry":{"type":"MultiPoint","coordinates":[[98.3016414099232,14.112245329758196]]},"geometry_name":"the_geom","properties":{"OBJECTID":14588,"schoolname":"အမက(ရေဝိုင်း)","urbanrural":"Rural","longx":98.30164141,"laty":14.11224533,"mm_srcode":"MMR006","mm_srname":"Tanintharyi","mm_dtcode":"MMR006D001","mm_dtname":"Dawei","mm_tscode":"MMR006001","mm_tsname":"Dawei"}},{"type":"Feature","id":"formal_sector_school_location_lowermyanmar_2019.14310","geometry":{"type":"MultiPoint","coordinates":[[98.36758000001703,14.041580000116937]]},"geometry_name":"the_geom","properties":{"OBJECTID":14591,"schoolname":"အမက(ညောင်ချောင်း)","urbanrural":"Rural","longx":98.36758,"laty":14.04158,"mm_srcode":"MMR006","mm_srname":"Tanintharyi","mm_dtcode":"MMR006D001","mm_dtname":"Dawei","mm_tscode":"MMR006001","mm_tsname":"Dawei"}},{"type":"Feature","id":"formal_sector_school_location_lowermyanmar_2019.14316","geometry":{"type":"MultiPoint","coordinates":[[98.11656000024385,13.703290000333311]]},"geometry_name":"the_geom","properties":{"OBJECTID":14597,"schoolname":"အမက(ဆင်ထောက်)","urbanrural":"Rural","longx":98.11656,"laty":13.70329,"mm_srcode":"MMR006","mm_srname":"Tanintharyi","mm_dtcode":"MMR006D001","mm_dtname":"Dawei","mm_tscode":"MMR006002","mm_tsname":"Launglon"}},{"type":"Feature","id":"formal_sector_school_location_lowermyanmar_2019.14318","geometry":{"type":"MultiPoint","coordinates":[[98.40889000027335,13.754259999999078]]},"geometry_name":"the_geom","properties":{"OBJECTID":14599,"schoolname":"အထက(ခွဲ)(သဲချောင်းကြီး)","urbanrural":"Rural","longx":98.40889,"laty":13.75426,"mm_srcode":"MMR006","mm_srname":"Tanintharyi","mm_dtcode":"MMR006D001","mm_dtname":"Dawei","mm_tscode":"MMR006003","mm_tsname":"Thayetchaung"}},{"type":"Feature","id":"formal_sector_school_location_lowermyanmar_2019.14320","geometry":{"type":"MultiPoint","coordinates":[[98.43096999956589,13.547060000218892]]},"geometry_name":"the_geom","properties":{"OBJECTID":14601,"schoolname":"မူလွန်(မော်ဖျား)","urbanrural":"Rural","longx":98.43097,"laty":13.54706,"mm_srcode":"MMR006","mm_srname":"Tanintharyi","mm_dtcode":"MMR006D001","mm_dtname":"Dawei","mm_tscode":"MMR006003","mm_tsname":"Thayetchaung"}},{"type":"Feature","id":"formal_sector_school_location_lowermyanmar_2019.14322","geometry":{"type":"MultiPoint","coordinates":[[98.2666121201533,13.852509220324293]]},"geometry_name":"the_geom","properties":{"OBJECTID":14603,"schoolname":"မူလွန်(ပန်းတော)","urbanrural":"Urban","longx":98.26661212,"laty":13.85250922,"mm_srcode":"MMR006","mm_srname":"Tanintharyi","mm_dtcode":"MMR006D001","mm_dtname":"Dawei","mm_tscode":"MMR006003","mm_tsname":"Thayetchaung"}},{"type":"Feature","id":"formal_sector_school_location_lowermyanmar_2019.14323","geometry":{"type":"MultiPoint","coordinates":[[98.2638499999776,13.816650000197399]]},"geometry_name":"the_geom","properties":{"OBJECTID":14604,"schoolname":"အမက(ဆင်ဖြူပြင်)","urbanrural":"Urban","longx":98.26385,"laty":13.81665,"mm_srcode":"MMR006","mm_srname":"Tanintharyi","mm_dtcode":"MMR006D001","mm_dtname":"Dawei","mm_tscode":"MMR006003","mm_tsname":"Thayetchaung"}},{"type":"Feature","id":"formal_sector_school_location_lowermyanmar_2019.14324","geometry":{"type":"MultiPoint","coordinates":[[98.27202330043502,13.897164169790642]]},"geometry_name":"the_geom","properties":{"OBJECTID":14605,"schoolname":"အမက(၂)တီတွတ်ပြင်)","urbanrural":"Rural","longx":98.2720233,"laty":13.89716417,"mm_srcode":"MMR006","mm_srname":"Tanintharyi","mm_dtcode":"MMR006D001","mm_dtname":"Dawei","mm_tscode":"MMR006003","mm_tsname":"Thayetchaung"}},{"type":"Feature","id":"formal_sector_school_location_lowermyanmar_2019.14325","geometry":{"type":"MultiPoint","coordinates":[[98.3821300000995,13.670009999861634]]},"geometry_name":"the_geom","properties":{"OBJECTID":14606,"schoolname":"အမက(ချောက်ချောင်း)","urbanrural":"Rural","longx":98.38213,"laty":13.67001,"mm_srcode":"MMR006","mm_srname":"Tanintharyi","mm_dtcode":"MMR006D001","mm_dtname":"Dawei","mm_tscode":"MMR006003","mm_tsname":"Thayetchaung"}},{"type":"Feature","id":"formal_sector_school_location_lowermyanmar_2019.14327","geometry":{"type":"MultiPoint","coordinates":[[98.33874999971277,13.712889999673791]]},"geometry_name":"the_geom","properties":{"OBJECTID":14608,"schoolname":"အမက(သရက်ပင်အိုင်)","urbanrural":"Rural","longx":98.33875,"laty":13.71289,"mm_srcode":"MMR006","mm_srname":"Tanintharyi","mm_dtcode":"MMR006D001","mm_dtname":"Dawei","mm_tscode":"MMR006003","mm_tsname":"Thayetchaung"}},{"type":"Feature","id":"formal_sector_school_location_lowermyanmar_2019.14331","geometry":{"type":"MultiPoint","coordinates":[[98.33542230039893,13.947837840144246]]},"geometry_name":"the_geom","properties":{"OBJECTID":14612,"schoolname":"အမက(အင်းပြား)","urbanrural":"Rural","longx":98.3354223,"laty":13.94783784,"mm_srcode":"MMR006","mm_srname":"Tanintharyi","mm_dtcode":"MMR006D001","mm_dtname":"Dawei","mm_tscode":"MMR006003","mm_tsname":"Thayetchaung"}},{"type":"Feature","id":"formal_sector_school_location_lowermyanmar_2019.15968","geometry":{"type":"MultiPoint","coordinates":[[98.12912999984968,14.009680000331798]]},"geometry_name":"the_geom","properties":{"OBJECTID":16252,"schoolname":"အမက(သဗျာ)","urbanrural":"Rural","longx":98.12913,"laty":14.00968,"mm_srcode":"MMR006","mm_srname":"Tanintharyi","mm_dtcode":"MMR006D001","mm_dtname":"Dawei","mm_tscode":"MMR006002","mm_tsname":"Launglon"}},{"type":"Feature","id":"formal_sector_school_location_lowermyanmar_2019.15969","geometry":{"type":"MultiPoint","coordinates":[[98.16966999967082,14.09498999988864]]},"geometry_name":"the_geom","properties":{"OBJECTID":16253,"schoolname":"အထက(ကမြောကင်း)","urbanrural":"Rural","longx":98.16967,"laty":14.09499,"mm_srcode":"MMR006","mm_srname":"Tanintharyi","mm_dtcode":"MMR006D001","mm_dtname":"Dawei","mm_tscode":"MMR006002","mm_tsname":"Launglon"}},{"type":"Feature","id":"formal_sector_school_location_lowermyanmar_2019.15970","geometry":{"type":"MultiPoint","coordinates":[[98.28041396972895,13.825257549995968]]},"geometry_name":"the_geom","properties":{"OBJECTID":16254,"schoolname":"အမက(ဆင်ကူး)","urbanrural":"Rural","longx":98.28041397,"laty":13.82525755,"mm_srcode":"MMR006","mm_srname":"Tanintharyi","mm_dtcode":"MMR006D001","mm_dtname":"Dawei","mm_tscode":"MMR006003","mm_tsname":"Thayetchaung"}},{"type":"Feature","id":"formal_sector_school_location_lowermyanmar_2019.15971","geometry":{"type":"MultiPoint","coordinates":[[98.26319978024571,13.865054420225363]]},"geometry_name":"the_geom","properties":{"OBJECTID":16255,"schoolname":"အထက(သရက်ချောင်း)","urbanrural":"Urban","longx":98.26319978,"laty":13.86505442,"mm_srcode":"MMR006","mm_srname":"Tanintharyi","mm_dtcode":"MMR006D001","mm_dtname":"Dawei","mm_tscode":"MMR006003","mm_tsname":"Thayetchaung"}},{"type":"Feature","id":"formal_sector_school_location_lowermyanmar_2019.15972","geometry":{"type":"MultiPoint","coordinates":[[98.19502523003041,14.066564629753884]]},"geometry_name":"the_geom","properties":{"OBJECTID":16256,"schoolname":"အထက(၂)","urbanrural":"Urban","longx":98.19502523,"laty":14.06656463,"mm_srcode":"MMR006","mm_srname":"Tanintharyi","mm_dtcode":"MMR006D001","mm_dtname":"Dawei","mm_tscode":"MMR006001","mm_tsname":"Dawei"}},{"type":"Feature","id":"formal_sector_school_location_lowermyanmar_2019.15983","geometry":{"type":"MultiPoint","coordinates":[[98.14692999961983,13.749149999972587]]},"geometry_name":"the_geom","properties":{"OBJECTID":16267,"schoolname":"အထက(သကျက်တော)","urbanrural":"Rural","longx":98.14693,"laty":13.74915,"mm_srcode":"MMR006","mm_srname":"Tanintharyi","mm_dtcode":"MMR006D001","mm_dtname":"Dawei","mm_tscode":"MMR006002","mm_tsname":"Launglon"}},{"type":"Feature","id":"formal_sector_school_location_lowermyanmar_2019.16680","geometry":{"type":"MultiPoint","coordinates":[[98.15823999957638,14.022989999888637]]},"geometry_name":"the_geom","properties":{"OBJECTID":16964,"schoolname":"မူလွန်(အင်းဇောက်)","urbanrural":"Rural","longx":98.15824,"laty":14.02299,"mm_srcode":"MMR006","mm_srname":"Tanintharyi","mm_dtcode":"MMR006D001","mm_dtname":"Dawei","mm_tscode":"MMR006002","mm_tsname":"Launglon"}},{"type":"Feature","id":"formal_sector_school_location_lowermyanmar_2019.16681","geometry":{"type":"MultiPoint","coordinates":[[98.25015999998408,13.987780000346788]]},"geometry_name":"the_geom","properties":{"OBJECTID":16965,"schoolname":"အလက(အောက်သရက်ချောင်း)","urbanrural":"Rural","longx":98.25016,"laty":13.98778,"mm_srcode":"MMR006","mm_srname":"Tanintharyi","mm_dtcode":"MMR006D001","mm_dtname":"Dawei","mm_tscode":"MMR006003","mm_tsname":"Thayetchaung"}},{"type":"Feature","id":"formal_sector_school_location_lowermyanmar_2019.16682","geometry":{"type":"MultiPoint","coordinates":[[98.080420000083,13.939439999656315]]},"geometry_name":"the_geom","properties":{"OBJECTID":16966,"schoolname":"အလက(ခွဲ)(စမ်းလှမ်း)","urbanrural":"Rural","longx":98.08042,"laty":13.93944,"mm_srcode":"MMR006","mm_srname":"Tanintharyi","mm_dtcode":"MMR006D001","mm_dtname":"Dawei","mm_tscode":"MMR006002","mm_tsname":"Launglon"}},{"type":"Feature","id":"formal_sector_school_location_lowermyanmar_2019.16683","geometry":{"type":"MultiPoint","coordinates":[[98.25396717014883,14.05226468976366]]},"geometry_name":"the_geom","properties":{"OBJECTID":16967,"schoolname":"အမက(တောနား)","urbanrural":"Rural","longx":98.25396717,"laty":14.05226469,"mm_srcode":"MMR006","mm_srname":"Tanintharyi","mm_dtcode":"MMR006D001","mm_dtname":"Dawei","mm_tscode":"MMR006001","mm_tsname":"Dawei"}},{"type":"Feature","id":"formal_sector_school_location_lowermyanmar_2019.16684","geometry":{"type":"MultiPoint","coordinates":[[98.09626999986068,14.094040000145924]]},"geometry_name":"the_geom","properties":{"OBJECTID":16968,"schoolname":"မူလွန်(ပြင်ကြီး)(သဘော့ဆိပ်)","urbanrural":"Rural","longx":98.09627,"laty":14.09404,"mm_srcode":"MMR006","mm_srname":"Tanintharyi","mm_dtcode":"MMR006D001","mm_dtname":"Dawei","mm_tscode":"MMR006002","mm_tsname":"Launglon"}},{"type":"Feature","id":"formal_sector_school_location_lowermyanmar_2019.16685","geometry":{"type":"MultiPoint","coordinates":[[98.24014000016092,13.970329999629826]]},"geometry_name":"the_geom","properties":{"OBJECTID":16969,"schoolname":"အလက(ခွဲ)(ကျောက်လှေကား)","urbanrural":"Rural","longx":98.24014,"laty":13.97033,"mm_srcode":"MMR006","mm_srname":"Tanintharyi","mm_dtcode":"MMR006D001","mm_dtname":"Dawei","mm_tscode":"MMR006003","mm_tsname":"Thayetchaung"}},{"type":"Feature","id":"formal_sector_school_location_lowermyanmar_2019.16686","geometry":{"type":"MultiPoint","coordinates":[[98.19278164995325,14.068604749909355]]},"geometry_name":"the_geom","properties":{"OBJECTID":16970,"schoolname":"အမက(ဘုမ္မော်)","urbanrural":"Urban","longx":98.19278165,"laty":14.06860475,"mm_srcode":"MMR006","mm_srname":"Tanintharyi","mm_dtcode":"MMR006D001","mm_dtname":"Dawei","mm_tscode":"MMR006001","mm_tsname":"Dawei"}},{"type":"Feature","id":"formal_sector_school_location_lowermyanmar_2019.16687","geometry":{"type":"MultiPoint","coordinates":[[98.11843000014443,13.719420000432706]]},"geometry_name":"the_geom","properties":{"OBJECTID":16971,"schoolname":"မူလွန်(ကျောက်တွင်း)","urbanrural":"Rural","longx":98.11843,"laty":13.71942,"mm_srcode":"MMR006","mm_srname":"Tanintharyi","mm_dtcode":"MMR006D001","mm_dtname":"Dawei","mm_tscode":"MMR006002","mm_tsname":"Launglon"}},{"type":"Feature","id":"formal_sector_school_location_lowermyanmar_2019.16690","geometry":{"type":"MultiPoint","coordinates":[[98.16032999972975,13.999730000139436]]},"geometry_name":"the_geom","properties":{"OBJECTID":16974,"schoolname":"အမက(ညင်း၀)","urbanrural":"Rural","longx":98.16033,"laty":13.99973,"mm_srcode":"MMR006","mm_srname":"Tanintharyi","mm_dtcode":"MMR006D001","mm_dtname":"Dawei","mm_tscode":"MMR006002","mm_tsname":"Launglon"}},{"type":"Feature","id":"formal_sector_school_location_lowermyanmar_2019.16692","geometry":{"type":"MultiPoint","coordinates":[[98.15905999961933,14.038859999689294]]},"geometry_name":"the_geom","properties":{"OBJECTID":16976,"schoolname":"အမက(ရာဟောင်း၀)","urbanrural":"Rural","longx":98.15906,"laty":14.03886,"mm_srcode":"MMR006","mm_srname":"Tanintharyi","mm_dtcode":"MMR006D001","mm_dtname":"Dawei","mm_tscode":"MMR006002","mm_tsname":"Launglon"}},{"type":"Feature","id":"formal_sector_school_location_lowermyanmar_2019.16694","geometry":{"type":"MultiPoint","coordinates":[[98.25804546972273,13.885498350368607]]},"geometry_name":"the_geom","properties":{"OBJECTID":16978,"schoolname":"အမက(၂)(မြို့မ)","urbanrural":"Urban","longx":98.25804547,"laty":13.88549835,"mm_srcode":"MMR006","mm_srname":"Tanintharyi","mm_dtcode":"MMR006D001","mm_dtname":"Dawei","mm_tscode":"MMR006003","mm_tsname":"Thayetchaung"}},{"type":"Feature","id":"formal_sector_school_location_lowermyanmar_2019.16697","geometry":{"type":"MultiPoint","coordinates":[[98.28942834044562,13.780698979973977]]},"geometry_name":"the_geom","properties":{"OBJECTID":16981,"schoolname":"အမက(ဘုတ်ကိုင်း)","urbanrural":"Rural","longx":98.28942834,"laty":13.78069898,"mm_srcode":"MMR006","mm_srname":"Tanintharyi","mm_dtcode":"MMR006D001","mm_dtname":"Dawei","mm_tscode":"MMR006003","mm_tsname":"Thayetchaung"}},{"type":"Feature","id":"formal_sector_school_location_lowermyanmar_2019.16698","geometry":{"type":"MultiPoint","coordinates":[[98.25724000002606,13.926070000030506]]},"geometry_name":"the_geom","properties":{"OBJECTID":16982,"schoolname":"အမက(ပိတိုင်)","urbanrural":"Rural","longx":98.25724,"laty":13.92607,"mm_srcode":"MMR006","mm_srname":"Tanintharyi","mm_dtcode":"MMR006D001","mm_dtname":"Dawei","mm_tscode":"MMR006003","mm_tsname":"Thayetchaung"}},{"type":"Feature","id":"formal_sector_school_location_lowermyanmar_2019.16699","geometry":{"type":"MultiPoint","coordinates":[[98.16258999962884,13.868419999883145]]},"geometry_name":"the_geom","properties":{"OBJECTID":16983,"schoolname":"အမက(ပြင်ချောင်း)","urbanrural":"Rural","longx":98.16259,"laty":13.86842,"mm_srcode":"MMR006","mm_srname":"Tanintharyi","mm_dtcode":"MMR006D001","mm_dtname":"Dawei","mm_tscode":"MMR006002","mm_tsname":"Launglon"}},{"type":"Feature","id":"formal_sector_school_location_lowermyanmar_2019.16700","geometry":{"type":"MultiPoint","coordinates":[[98.12532000041773,14.127990000038494]]},"geometry_name":"the_geom","properties":{"OBJECTID":16984,"schoolname":"အမက(တောရှည်)","urbanrural":"Rural","longx":98.12532,"laty":14.12799,"mm_srcode":"MMR006","mm_srname":"Tanintharyi","mm_dtcode":"MMR006D001","mm_dtname":"Dawei","mm_tscode":"MMR006002","mm_tsname":"Launglon"}},{"type":"Feature","id":"formal_sector_school_location_lowermyanmar_2019.16701","geometry":{"type":"MultiPoint","coordinates":[[98.25150556023345,13.979970099740342]]},"geometry_name":"the_geom","properties":{"OBJECTID":16985,"schoolname":"အမက(အတွင်းကဇိ)","urbanrural":"Rural","longx":98.25150556,"laty":13.9799701,"mm_srcode":"MMR006","mm_srname":"Tanintharyi","mm_dtcode":"MMR006D001","mm_dtname":"Dawei","mm_tscode":"MMR006003","mm_tsname":"Thayetchaung"}},{"type":"Feature","id":"formal_sector_school_location_lowermyanmar_2019.16704","geometry":{"type":"MultiPoint","coordinates":[[98.14955223025129,13.752116490183937]]},"geometry_name":"the_geom","properties":{"OBJECTID":16988,"schoolname":"အမက(လယ်လှ)","urbanrural":"Rural","longx":98.14955223,"laty":13.75211649,"mm_srcode":"MMR006","mm_srname":"Tanintharyi","mm_dtcode":"MMR006D001","mm_dtname":"Dawei","mm_tscode":"MMR006002","mm_tsname":"Launglon"}},{"type":"Feature","id":"formal_sector_school_location_lowermyanmar_2019.16705","geometry":{"type":"MultiPoint","coordinates":[[98.43649627957967,13.726479069653408]]},"geometry_name":"the_geom","properties":{"OBJECTID":16989,"schoolname":"အမက(ကရင်တောင်ပျောက်)","urbanrural":"Rural","longx":98.43649628,"laty":13.72647907,"mm_srcode":"MMR006","mm_srname":"Tanintharyi","mm_dtcode":"MMR006D001","mm_dtname":"Dawei","mm_tscode":"MMR006003","mm_tsname":"Thayetchaung"}},{"type":"Feature","id":"formal_sector_school_location_lowermyanmar_2019.16710","geometry":{"type":"MultiPoint","coordinates":[[98.31132751035636,13.692219440374913]]},"geometry_name":"the_geom","properties":{"OBJECTID":16994,"schoolname":"အမက(၂)(၀င်းကဖော်)","urbanrural":"Rural","longx":98.31132751,"laty":13.69221944,"mm_srcode":"MMR006","mm_srname":"Tanintharyi","mm_dtcode":"MMR006D001","mm_dtname":"Dawei","mm_tscode":"MMR006003","mm_tsname":"Thayetchaung"}},{"type":"Feature","id":"formal_sector_school_location_lowermyanmar_2019.16711","geometry":{"type":"MultiPoint","coordinates":[[98.11455999974424,13.736770000135436]]},"geometry_name":"the_geom","properties":{"OBJECTID":16995,"schoolname":"အမက(ချောင်းဖျားကြီး)","urbanrural":"Rural","longx":98.11456,"laty":13.73677,"mm_srcode":"MMR006","mm_srname":"Tanintharyi","mm_dtcode":"MMR006D001","mm_dtname":"Dawei","mm_tscode":"MMR006002","mm_tsname":"Launglon"}},{"type":"Feature","id":"formal_sector_school_location_lowermyanmar_2019.16713","geometry":{"type":"MultiPoint","coordinates":[[98.11492787012514,13.973420199682494]]},"geometry_name":"the_geom","properties":{"OBJECTID":16997,"schoolname":"အထက(လောင်းလုံး)","urbanrural":"Urban","longx":98.11492787,"laty":13.9734202,"mm_srcode":"MMR006","mm_srname":"Tanintharyi","mm_dtcode":"MMR006D001","mm_dtname":"Dawei","mm_tscode":"MMR006002","mm_tsname":"Launglon"}},{"type":"Feature","id":"formal_sector_school_location_lowermyanmar_2019.16726","geometry":{"type":"MultiPoint","coordinates":[[98.14499609029741,14.145413510325284]]},"geometry_name":"the_geom","properties":{"OBJECTID":17010,"schoolname":"အမက(စွန်တောင်ပေါ်)","urbanrural":"Rural","longx":98.14499609,"laty":14.14541351,"mm_srcode":"MMR006","mm_srname":"Tanintharyi","mm_dtcode":"MMR006D001","mm_dtname":"Dawei","mm_tscode":"MMR006002","mm_tsname":"Launglon"}},{"type":"Feature","id":"formal_sector_school_location_lowermyanmar_2019.16740","geometry":{"type":"MultiPoint","coordinates":[[98.19514792993306,14.073742330344317]]},"geometry_name":"the_geom","properties":{"OBJECTID":17024,"schoolname":"အထက(၁)","urbanrural":"Urban","longx":98.19514793,"laty":14.07374233,"mm_srcode":"MMR006","mm_srname":"Tanintharyi","mm_dtcode":"MMR006D001","mm_dtname":"Dawei","mm_tscode":"MMR006001","mm_tsname":"Dawei"}}],"crs":{"type":"name","properties":{"name":"urn:ogc:def:crs:EPSG::4326"}}}