{"type":"FeatureCollection","totalFeatures":3,"features":[{"type":"Feature","id":"mmr_pplp1_mimu250k.79","geometry":{"type":"Point","coordinates":[98.2625154665,13.8687046239]},"geometry_name":"the_geom","properties":{"SD_Pcode":"MMR006","State_Divi":"Tanintharyi","D_Pcode":"MMR006D001","District":"Dawei","TS_Pcode":"MMR006003","Township":"Thayetchaung","Town_Pcode":"MMR006003701","Town":"Thayetchaung","Town_MMR4":"သရက်ချောင်း","Longitude":98.2625154665,"Latitude":13.8687046239,"Level":"Main Town","Source":"GAD, Mar 2015","Remark":""}},{"type":"Feature","id":"mmr_pplp1_mimu250k.81","geometry":{"type":"Point","coordinates":[98.19636,14.07753]},"geometry_name":"the_geom","properties":{"SD_Pcode":"MMR006","State_Divi":"Tanintharyi","D_Pcode":"MMR006D001","District":"Dawei","TS_Pcode":"MMR006001","Township":"Dawei","Town_Pcode":"MMR006001701","Town":"Dawei","Town_MMR4":"ထားဝယ်","Longitude":98.19636,"Latitude":14.07753,"Level":"State/Region Capital","Source":"GAD, Mar 2015","Remark":""}},{"type":"Feature","id":"mmr_pplp1_mimu250k.86","geometry":{"type":"Point","coordinates":[98.11963,13.97522]},"geometry_name":"the_geom","properties":{"SD_Pcode":"MMR006","State_Divi":"Tanintharyi","D_Pcode":"MMR006D001","District":"Dawei","TS_Pcode":"MMR006002","Township":"Launglon","Town_Pcode":"MMR006002701","Town":"Launglon","Town_MMR4":"လောင်းလုံး","Longitude":98.11963,"Latitude":13.97522,"Level":"Main Town","Source":"GAD, Mar 2015","Remark":""}}],"crs":{"type":"name","properties":{"name":"urn:ogc:def:crs:EPSG::4326"}}}