{
"type": "FeatureCollection",
"name": "reach_zones",
"crs": { "type": "name", "properties": { "name": "urn:ogc:def:crs:OGC:1.3:CRS84" } },
"features": [
{ "type": "Feature", "properties": { "zone": "A", "alpha_deg": 14.0, "label": "Within reach of an open-slope debris flow (alpha 14.0 deg)" }, "geometry": { "type": "MultiPolygon", "coordinates": [ [ [ [ 98.120058280160791, 13.997352306412866 ], [ 98.119502749481981, 13.997350290545624 ], [ 98.119501716916886, 13.997621518294972 ], [ 98.118946185674929, 13.997619501115217 ], [ 98.11894515243651, 13.997890728817808 ], [ 98.118667386522958, 13.997889719730642 ], [ 98.118664285698486, 13.998703402740675 ], [ 98.118386518830008, 13.998702393274534 ], [ 98.118383416830056, 13.999516076168415 ], [ 98.118938952543118, 13.999518094904641 ], [ 98.118937919150397, 13.999789322564331 ], [ 98.119771223862344, 13.999792348344432 ], [ 98.119770191424678, 14.000063576058919 ], [ 98.120047960031755, 14.000064584036524 ], [ 98.120048992143737, 13.999793356301742 ], [ 98.120326760447128, 13.999794363941021 ], [ 98.120335013945038, 13.997624541679766 ], [ 98.120057248246965, 13.997623534202813 ], [ 98.120058280160791, 13.997352306412866 ] ] ], [ [ [ 98.122550965961608, 13.999259957753456 ], [ 98.122553024169306, 13.998717501876207 ], [ 98.121997489838165, 13.998715491530037 ], [ 98.121996460093953, 13.998986719431242 ], [ 98.122274227574209, 13.998987724783577 ], [ 98.122273198133712, 13.999258952698893 ], [ 98.122550965961608, 13.999259957753456 ] ] ], [ [ [ 98.115874173639909, 14.001948022814631 ], [ 98.11587313646551, 14.002219250195235 ], [ 98.11615090736943, 14.002220262788429 ], [ 98.116151944218075, 14.001949035387435 ], [ 98.115874173639909, 14.001948022814631 ] ] ], [ [ [ 98.123578711882317, 14.021233423760593 ], [ 98.123856506222936, 14.021234428862027 ], [ 98.123857535485257, 14.020963201322154 ], [ 98.123301947478424, 14.020961190841179 ], [ 98.123302977371281, 14.020689963335599 ], [ 98.123580771037496, 14.020690968715131 ], [ 98.123584889084626, 14.019606058550565 ], [ 98.123862681467912, 14.019607063530733 ], [ 98.123864739707471, 14.019064608371208 ], [ 98.123586947976591, 14.019063603431459 ], [ 98.123589006780804, 14.018521148287803 ], [ 98.121922260770532, 14.018515112203934 ], [ 98.121921229422313, 14.018786339657431 ], [ 98.121643438171304, 14.018785332508543 ], [ 98.121642406474933, 14.019056559935645 ], [ 98.121364614919727, 14.019055552448018 ], [ 98.121363582875176, 14.019326779848724 ], [ 98.121085791015773, 14.019325772022343 ], [ 98.121084758623027, 14.019596999396638 ], [ 98.120806966459426, 14.01959599123149 ], [ 98.120805933718486, 14.019867218579378 ], [ 98.120528141250674, 14.019866210075451 ], [ 98.120527108161525, 14.020137437396919 ], [ 98.120249315389515, 14.020136428554201 ], [ 98.120248281952115, 14.020407655849242 ], [ 98.119970488875907, 14.02040664666772 ], [ 98.119967387452931, 14.021220328455128 ], [ 98.119689593420048, 14.021219318894191 ], [ 98.119689005323792, 14.021373555847557 ], [ 98.119738014867465, 14.02136159316812 ], [ 98.119755030012371, 14.021357439963888 ], [ 98.119877572751335, 14.021351017834901 ], [ 98.120122526927531, 14.021312207180928 ], [ 98.120187112066631, 14.021294882572652 ], [ 98.120263179533907, 14.021292230175579 ], [ 98.120402895567125, 14.021298931878443 ], [ 98.120509534586873, 14.02129893193962 ], [ 98.120528644012168, 14.021297930478895 ], [ 98.120549522914303, 14.021298931962562 ], [ 98.120629502179114, 14.021298932008436 ], [ 98.120856408655868, 14.021288048308161 ], [ 98.120973308780705, 14.021271117639529 ], [ 98.121063846194588, 14.021266774954364 ], [ 98.121070966905592, 14.021268516454562 ], [ 98.121095865787055, 14.021272122607787 ], [ 98.121303811728112, 14.021344768209763 ], [ 98.121524181784324, 14.021398663341543 ], [ 98.121531426206474, 14.021399712555807 ], [ 98.121545324357598, 14.021406130584024 ], [ 98.121551024561768, 14.021409466426826 ], [ 98.121756392710225, 14.02150430328699 ], [ 98.121970292818887, 14.021579029572063 ], [ 98.122190664865911, 14.021632925604775 ], [ 98.122415386493529, 14.021665472319164 ], [ 98.122550501529275, 14.021671953345212 ], [ 98.122550567804765, 14.021671969554074 ], [ 98.12255082342341, 14.021672006575765 ], [ 98.122603886928985, 14.021684984206257 ], [ 98.1228286086357, 14.021717530918826 ], [ 98.123055515671126, 14.02172841485495 ], [ 98.123068845548602, 14.021728414862574 ], [ 98.123110223949439, 14.02172643014887 ], [ 98.123228500874575, 14.021743560313988 ], [ 98.123455407949805, 14.021754444262838 ], [ 98.123495397582218, 14.021754444285699 ], [ 98.123574239903576, 14.021750662606273 ], [ 98.123576746987396, 14.021751025709426 ], [ 98.123578711882317, 14.021233423760593 ] ], [ [ 98.12302312326689, 14.021231412602114 ], [ 98.123022093003897, 14.021502640075196 ], [ 98.12274429840285, 14.021501633997918 ], [ 98.122745328992096, 14.021230406545067 ], [ 98.12302312326689, 14.021231412602114 ] ] ], [ [ [ 98.118855176296947, 14.021487515469108 ], [ 98.119132970589959, 14.021488526005975 ], [ 98.119134005420406, 14.021217298816705 ], [ 98.119411799409207, 14.021218309014715 ], [ 98.119415937205616, 14.02013340011499 ], [ 98.11886035185988, 14.020131379562967 ], [ 98.118862421930672, 14.019588925157544 ], [ 98.120251382198234, 14.019593973945705 ], [ 98.120253448918859, 14.019051519312661 ], [ 98.120531240386057, 14.019052528074228 ], [ 98.12053227338717, 14.018781300728211 ], [ 98.120810064550213, 14.018782309151012 ], [ 98.120811097203131, 14.018511081778577 ], [ 98.121088888061976, 14.018512089862623 ], [ 98.121089920366728, 14.018240862463776 ], [ 98.121367710921419, 14.018241870209081 ], [ 98.121366678942834, 14.018513097628199 ], [ 98.121644469845691, 14.018514105075305 ], [ 98.121645501498094, 14.018242877635926 ], [ 98.121923292096753, 14.018243884744303 ], [ 98.121924323401004, 14.017972657278532 ], [ 98.122202113695494, 14.017973664048194 ], [ 98.122203144651607, 14.017702436556039 ], [ 98.122480934641899, 14.017703442986997 ], [ 98.122481965249889, 14.01743221546846 ], [ 98.122759754935998, 14.017433221560728 ], [ 98.122761815433833, 14.01689076646478 ], [ 98.122484026400002, 14.016889760412983 ], [ 98.122485056942111, 14.01661853287604 ], [ 98.121929479592637, 14.016616519857635 ], [ 98.121930510765026, 14.016345292355048 ], [ 98.121652722449369, 14.01634428538846 ], [ 98.121653753925898, 14.016073057899989 ], [ 98.121098178012758, 14.016071043052083 ], [ 98.121099210119525, 14.015799815598006 ], [ 98.12082142252207, 14.015798807716706 ], [ 98.120820390089179, 14.016070035150507 ], [ 98.120264814308044, 14.016068018392115 ], [ 98.120263781200933, 14.016339245779211 ], [ 98.119708204855641, 14.01633722770657 ], [ 98.119706137270867, 14.016879682381164 ], [ 98.119428348479019, 14.016878672826602 ], [ 98.119427314327453, 14.017149900134388 ], [ 98.11776058008256, 14.017143835997947 ], [ 98.117759543952104, 14.017415063177621 ], [ 98.117203965394779, 14.017413039210592 ], [ 98.117207075676703, 14.016599357775283 ], [ 98.117484863965927, 14.016600369856945 ], [ 98.117485900356257, 14.016329142679213 ], [ 98.118041476348722, 14.016331165846569 ], [ 98.118042512064747, 14.016059938622004 ], [ 98.118598087493268, 14.016061960475009 ], [ 98.118600157554681, 14.015519505926122 ], [ 98.118877944649839, 14.015520516334353 ], [ 98.118878979321352, 14.015249289030384 ], [ 98.119156766112468, 14.015250299099895 ], [ 98.119157800435843, 14.014979071769467 ], [ 98.119435586922918, 14.014980081500276 ], [ 98.119436620898171, 14.014708854143397 ], [ 98.120269979513338, 14.014711881364589 ], [ 98.120273078372307, 14.013898199074447 ], [ 98.121106434251018, 14.013901223247684 ], [ 98.121107466181812, 14.01362999574452 ], [ 98.121385251192677, 14.013631003145271 ], [ 98.12138834587499, 14.012817320538179 ], [ 98.121666129929707, 14.012818327559788 ], [ 98.121668192289277, 14.012275872417201 ], [ 98.121945975713928, 14.012276879079963 ], [ 98.121947006534739, 14.012005651479212 ], [ 98.121669223436072, 14.012004644836701 ], [ 98.121672316744622, 14.011190962058409 ], [ 98.121950098865284, 14.011191968640151 ], [ 98.12195422166505, 14.010107058102195 ], [ 98.122232002503779, 14.010108064284649 ], [ 98.122233032822848, 14.009836836614582 ], [ 98.121955252310059, 14.009835830452374 ], [ 98.121956282933084, 14.009564602796418 ], [ 98.122234063119933, 14.009565608938379 ], [ 98.122238184088616, 14.00848069817223 ], [ 98.122515962993702, 14.008481703914963 ], [ 98.122518022694436, 14.007939248454612 ], [ 98.122795800969655, 14.00794025383864 ], [ 98.122797859930756, 14.007397798313287 ], [ 98.123075637576136, 14.007398803338639 ], [ 98.12307666669787, 14.007127575546537 ], [ 98.122798889378387, 14.007126570541413 ], [ 98.122799918804077, 14.006855342763405 ], [ 98.122522141832405, 14.006854337460316 ], [ 98.122523171562008, 14.006583109696413 ], [ 98.121967618336313, 14.006581098176127 ], [ 98.121968648695685, 14.006309870446579 ], [ 98.122246424971692, 14.006310876345569 ], [ 98.1222484849728, 14.005768420827582 ], [ 98.12141515816586, 14.005765402297584 ], [ 98.121414127198719, 14.00603662999888 ], [ 98.121136351314519, 14.006035623165605 ], [ 98.121135319999539, 14.00630685084051 ], [ 98.120579767645395, 14.006304836178872 ], [ 98.120577703646006, 14.006847291429175 ], [ 98.120299926850194, 14.00684628358051 ], [ 98.120295797283774, 14.00793119392638 ], [ 98.120018019206427, 14.007930185678351 ], [ 98.120016986433882, 14.008201413229195 ], [ 98.120294764837141, 14.008202421497513 ], [ 98.120293732368481, 14.008473649062516 ], [ 98.120015953639324, 14.008472640773903 ], [ 98.120014920822726, 14.008743868312479 ], [ 98.11973714178967, 14.008742859685334 ], [ 98.119738174932166, 14.008471632167057 ], [ 98.119460396247064, 14.008470623241974 ], [ 98.119461429693459, 14.008199395737869 ], [ 98.118905873041172, 14.008197376973634 ], [ 98.118904838942939, 14.008468604437111 ], [ 98.118627060323959, 14.008467594557327 ], [ 98.118626025877774, 14.008738821994346 ], [ 98.118070468054128, 14.00873680123941 ], [ 98.118069432934035, 14.009008028629626 ], [ 98.117236095386346, 14.009004995049374 ], [ 98.117235059266378, 14.009276222372405 ], [ 98.115568382812015, 14.009270146496984 ], [ 98.115569420887567, 14.008998919296229 ], [ 98.116958316247946, 14.009003983219461 ], [ 98.116959352671742, 14.00873275591066 ], [ 98.117792689175417, 14.008735790384582 ], [ 98.117793724599352, 14.008464563008577 ], [ 98.118071503152152, 14.008465573843063 ], [ 98.11807357328199, 14.007923119031958 ], [ 98.119462463117813, 14.007928168227631 ], [ 98.11946349652014, 14.007656940711259 ], [ 98.119741274227536, 14.007657949575425 ], [ 98.119744373324636, 14.006844266928596 ], [ 98.120022150076409, 14.006845275413653 ], [ 98.120024215379274, 14.006302820244509 ], [ 98.120301991501336, 14.006303828370783 ], [ 98.120304056064413, 14.005761373136526 ], [ 98.120026280594061, 14.005760365050833 ], [ 98.12002937825109, 14.004946682214333 ], [ 98.119473829331483, 14.00494466521025 ], [ 98.119474862491444, 14.004673437626421 ], [ 98.118641540254757, 14.004670409795116 ], [ 98.118642574370114, 14.004399182266107 ], [ 98.11780925330936, 14.004396151632514 ], [ 98.117810288380099, 14.004124924158386 ], [ 98.118088061719149, 14.004125934667377 ], [ 98.118090131142793, 14.003583479660035 ], [ 98.118367903852302, 14.003584489810223 ], [ 98.118369972536129, 14.003042034737685 ], [ 98.118092200478159, 14.003041024628169 ], [ 98.118094269725276, 14.002498569571776 ], [ 98.118372041131693, 14.00249957964062 ], [ 98.118373075396377, 14.00222835208289 ], [ 98.11809530431573, 14.002227342034383 ], [ 98.118096338884115, 14.001956114490858 ], [ 98.118374109639007, 14.001957124519029 ], [ 98.118375143859595, 14.00168589694904 ], [ 98.1186529143108, 14.001686906638799 ], [ 98.118653948183592, 14.001415679042351 ], [ 98.118931718331112, 14.001416688393714 ], [ 98.118936885735621, 14.000060550217887 ], [ 98.118103580244977, 14.000057521514533 ], [ 98.11810254583105, 14.000328749100973 ], [ 98.11782477705259, 14.000327738876775 ], [ 98.117823742290881, 14.000598966436741 ], [ 98.117545973208777, 14.000597955874156 ], [ 98.117544938099286, 14.000869183407639 ], [ 98.117822707507102, 14.000870193990576 ], [ 98.117821672701254, 14.001141421538279 ], [ 98.118099442456881, 14.001142431823501 ], [ 98.11809737343043, 14.001684886941206 ], [ 98.116708521615806, 14.001679832130934 ], [ 98.116706449243608, 14.002222287020558 ], [ 98.116984220213851, 14.002223298659494 ], [ 98.116983184320375, 14.002494526115482 ], [ 98.115872099268984, 14.002490477569708 ], [ 98.11587313646551, 14.002219250195235 ], [ 98.115317594724047, 14.002217224054592 ], [ 98.115316556875996, 14.002488451388272 ], [ 98.114761014571556, 14.002486423934467 ], [ 98.114759976049854, 14.002757651221193 ], [ 98.114204433182479, 14.002755622454183 ], [ 98.114203393987083, 14.003026849693933 ], [ 98.113925622260865, 14.003025834812847 ], [ 98.11392458271753, 14.003297062026034 ], [ 98.113778819738016, 14.003296529321508 ], [ 98.113769273048646, 14.003486240196581 ], [ 98.113769272527307, 14.003538298533796 ], [ 98.113778830921191, 14.003728307528348 ], [ 98.113773759178116, 14.003748077159685 ], [ 98.113740425350372, 14.00396748577197 ], [ 98.113729276793222, 14.004189028160136 ], [ 98.113729276402196, 14.004228071913042 ], [ 98.113730500304158, 14.00425240276946 ], [ 98.113722312168647, 14.004274747136916 ], [ 98.113667113977613, 14.004489908941906 ], [ 98.113633780043713, 14.004709317534877 ], [ 98.11362263145098, 14.004930859903551 ], [ 98.11362263105994, 14.004969903656459 ], [ 98.113633775236991, 14.005191446220957 ], [ 98.113642782035726, 14.00525073797067 ], [ 98.113635956627803, 14.00538637068467 ], [ 98.113635954151093, 14.00563364778642 ], [ 98.113647098352288, 14.005855190324038 ], [ 98.113680428126443, 14.006074599496197 ], [ 98.113682761700517, 14.006083696405383 ], [ 98.113675937502194, 14.006219304514323 ], [ 98.113675936980755, 14.006271362851537 ], [ 98.113687081218956, 14.006492905383984 ], [ 98.11368802501238, 14.006499118341484 ], [ 98.113687081096757, 14.006505331269468 ], [ 98.113675932418019, 14.006726873609601 ], [ 98.113675931635825, 14.006804961115419 ], [ 98.113687075899733, 14.007026503646692 ], [ 98.113720405851765, 14.007245912811863 ], [ 98.113769400019052, 14.007436904306413 ], [ 98.113769859078801, 14.007456185303999 ], [ 98.113785870807277, 14.007674153966674 ], [ 98.113823365471546, 14.007889594064347 ], [ 98.113881992639875, 14.008100491711252 ], [ 98.113960690928479, 14.008303550776251 ], [ 98.113963052511622, 14.008322469611606 ], [ 98.114013812947945, 14.008542816543144 ], [ 98.114028913411289, 14.008587128402279 ], [ 98.113901232477261, 14.00860435083405 ], [ 98.113691175351448, 14.00865248644913 ], [ 98.113486620683574, 14.0087195095306 ], [ 98.113461197966359, 14.008730505743728 ], [ 98.113281505943377, 14.00878470881789 ], [ 98.113049409579361, 14.008882925624329 ], [ 98.113022750274553, 14.008895940114927 ], [ 98.1128980063109, 14.008964703946177 ], [ 98.112716272315936, 14.009057472930012 ], [ 98.112644664846613, 14.009102924370891 ], [ 98.112620873151585, 14.009114603784106 ], [ 98.112558801742395, 14.009138095343552 ], [ 98.112556506067023, 14.009139222298669 ], [ 98.11248369678141, 14.009160436939208 ], [ 98.112290147471839, 14.00923593401302 ], [ 98.112130626698558, 14.009315079866065 ], [ 98.112045940794033, 14.00935424835297 ], [ 98.111851491078909, 14.009468154618567 ], [ 98.111669388092537, 14.009600090643147 ], [ 98.111501379260247, 14.009748790405927 ], [ 98.111488049524496, 14.009761804909585 ], [ 98.111335483053637, 14.00992615549808 ], [ 98.111200149933353, 14.010104316352189 ], [ 98.11113153466205, 14.010216087161059 ], [ 98.111042174683689, 14.010338511085498 ], [ 98.113064205367209, 14.010345919208195 ], [ 98.113063164247293, 14.010617146194434 ], [ 98.113340945031382, 14.010618162602491 ], [ 98.113338863376924, 14.011160616597477 ], [ 98.113061081940899, 14.011159600148511 ], [ 98.113060040754391, 14.011430827116346 ], [ 98.112782259014566, 14.011429810328627 ], [ 98.112780175922978, 14.011972264204974 ], [ 98.11250239355337, 14.011971247058023 ], [ 98.112503435436253, 14.01170002014338 ], [ 98.111947871415666, 14.011697984935486 ], [ 98.111948913928344, 14.011426758055661 ], [ 98.111671132277351, 14.011425739994735 ], [ 98.111672175093787, 14.011154513129263 ], [ 98.110695746105762, 14.011150932089373 ], [ 98.110691922815064, 14.011166309235753 ], [ 98.110660530249163, 14.011379345316671 ], [ 98.11065987176525, 14.011392831064823 ], [ 98.110654524882378, 14.011413672485698 ], [ 98.110654451209399, 14.011414157397285 ], [ 98.110627864381627, 14.011517789223918 ], [ 98.110594529459405, 14.011737197526013 ], [ 98.110583380536909, 14.011958739600962 ], [ 98.110583380423179, 14.01197010532764 ], [ 98.110581197256423, 14.011984474757844 ], [ 98.11057921782438, 14.01202380837684 ], [ 98.110576419307975, 14.012031444905888 ], [ 98.110574136430287, 14.01204034323715 ], [ 98.110563089193207, 14.012070488689286 ], [ 98.110547391357031, 14.012131676586771 ], [ 98.110541246045443, 14.012148445769217 ], [ 98.110536815014314, 14.012155663671471 ], [ 98.110526897390926, 14.012176136823076 ], [ 98.110523471618166, 14.012181717386184 ], [ 98.110513561430253, 14.012202175772336 ], [ 98.110510141648135, 14.012207746576076 ], [ 98.110500231453258, 14.012228204974246 ], [ 98.11049681167799, 14.012233775766191 ], [ 98.110486901476449, 14.012254234175794 ], [ 98.11048348170803, 14.012259804955949 ], [ 98.110473571500094, 14.012280263376377 ], [ 98.110470151739293, 14.012285834143452 ], [ 98.110373021945549, 14.012486346592626 ], [ 98.110296488417376, 14.012695189174069 ], [ 98.110241288261477, 14.012910350641851 ], [ 98.110207953140105, 14.013129758891115 ], [ 98.110202117107463, 14.013245726999072 ], [ 98.110174635213937, 14.013352846802958 ], [ 98.110141300030136, 14.013572255041391 ], [ 98.110134918466599, 14.013699063177356 ], [ 98.110131466283789, 14.013721785013477 ], [ 98.110083201478432, 14.013853487958963 ], [ 98.110028001048548, 14.014068649394638 ], [ 98.109994665761633, 14.014288057611177 ], [ 98.109983516714806, 14.014509599599965 ], [ 98.10998351658435, 14.014522614184235 ], [ 98.10999466120893, 14.014744156349627 ], [ 98.110006849778316, 14.014824390317004 ], [ 98.109973107457321, 14.01489404638 ], [ 98.109896573139665, 14.015102888900268 ], [ 98.109841372414664, 14.015318050304948 ], [ 98.109836486534562, 14.015350208343435 ], [ 98.109828042028312, 14.015383123305149 ], [ 98.10979470655785, 14.015602531491256 ], [ 98.109783722010519, 14.01582080356671 ], [ 98.109759827874399, 14.015870128424305 ], [ 98.109729608073906, 14.015952588846702 ], [ 98.109706502421986, 14.016000286830913 ], [ 98.109629967742393, 14.01620912931738 ], [ 98.109627684249489, 14.016218029882515 ], [ 98.109616637628449, 14.016248173097782 ], [ 98.109614354129533, 14.016257073684818 ], [ 98.109603307513609, 14.016287216880997 ], [ 98.109548106509237, 14.016502378248388 ], [ 98.109514770875691, 14.016721786395241 ], [ 98.109503621713429, 14.0169433283136 ], [ 98.109503621191536, 14.016995386650668 ], [ 98.109514765934577, 14.017216928764739 ], [ 98.109520009560086, 14.017251445722716 ], [ 98.109528093723767, 14.017412147620238 ], [ 98.109561425136988, 14.017631556371279 ], [ 98.109616622275794, 14.017846718729107 ], [ 98.109617429837968, 14.017848922460431 ], [ 98.109653037866678, 14.01799128391583 ], [ 98.109729361953185, 14.018202774303854 ], [ 98.109826773544754, 14.018405839850846 ], [ 98.109944313924075, 14.018598481884965 ], [ 98.110050524602329, 14.018738778173818 ], [ 98.11011969721082, 14.018927540247001 ], [ 98.110216826148047, 14.019128054240841 ], [ 98.110333617021809, 14.019318307322377 ], [ 98.110468945105822, 14.019496467225384 ], [ 98.110621507139072, 14.019660818144526 ], [ 98.110789833876069, 14.019809777260646 ], [ 98.110972304236071, 14.019941909985278 ], [ 98.111167160915073, 14.020055943777765 ], [ 98.111240822430759, 14.020089960128292 ], [ 98.111248623535587, 14.020094667545589 ], [ 98.111284836251372, 14.020111874662152 ], [ 98.111300457688145, 14.020121016611773 ], [ 98.111428996059132, 14.020180374683733 ], [ 98.111458040000372, 14.020194175398879 ], [ 98.111461816143603, 14.020195530741258 ], [ 98.111505824096625, 14.020215853258819 ], [ 98.111719722396927, 14.020290579390355 ], [ 98.111847599852993, 14.02032185440893 ], [ 98.111926954873738, 14.020368294360024 ], [ 98.112132321599447, 14.020463130996744 ], [ 98.112346220226385, 14.020537857104769 ], [ 98.112566590746837, 14.020591753008461 ], [ 98.11279131081767, 14.020624299643028 ], [ 98.113018216201638, 14.020635183554068 ], [ 98.113023429606571, 14.020635183557175 ], [ 98.113217862355214, 14.020663343628389 ], [ 98.11338874918178, 14.020671540553082 ], [ 98.113471986358647, 14.020699687718819 ], [ 98.113686203600466, 14.020750461764706 ], [ 98.113904396035991, 14.020781111591647 ], [ 98.11412458513513, 14.020791359269008 ], [ 98.114151244890067, 14.020791359284413 ], [ 98.114325027372686, 14.020784350058618 ], [ 98.114471158556341, 14.020791359469225 ], [ 98.11449781831125, 14.020791359484623 ], [ 98.114624114227809, 14.020785269430787 ], [ 98.114692977943221, 14.020788572560082 ], [ 98.114741608480003, 14.020800466111599 ], [ 98.114772232818851, 14.020811164788348 ], [ 98.114968412925052, 14.020859144421566 ], [ 98.11496917761967, 14.020659653836391 ], [ 98.114691384636942, 14.020658638582667 ], [ 98.114693464582558, 14.020116184812935 ], [ 98.114971256912867, 14.020117200025828 ], [ 98.114974375686529, 14.019303519263941 ], [ 98.115252167060376, 14.019304534097097 ], [ 98.115255284656115, 14.018490853218733 ], [ 98.115533075073557, 14.018491867672191 ], [ 98.115534113901703, 14.018220640680058 ], [ 98.116089694150645, 14.018222668590781 ], [ 98.116088655974863, 14.018493895623701 ], [ 98.116366446458699, 14.018494909121751 ], [ 98.116365408586958, 14.018766136168917 ], [ 98.116643199419087, 14.018767149368873 ], [ 98.11663801135964, 14.020123284614519 ], [ 98.116360218896517, 14.020122271312676 ], [ 98.11635918089209, 14.02039349832301 ], [ 98.116081388124883, 14.020392484682272 ], [ 98.116080349772105, 14.020663711666087 ], [ 98.115802556700785, 14.020662697686443 ], [ 98.115803595379802, 14.020391470723021 ], [ 98.115525802656833, 14.020390456445254 ], [ 98.115523768312954, 14.020921505975076 ], [ 98.115564198264778, 14.02092150599621 ], [ 98.115791104082987, 14.020910622316181 ], [ 98.115859455048536, 14.020900723024747 ], [ 98.115924401547574, 14.020897607803072 ], [ 98.115976774111658, 14.020890022669832 ], [ 98.11602972983583, 14.02094539638566 ], [ 98.116197014914363, 14.021089583664191 ], [ 98.116377741482964, 14.021217375495475 ], [ 98.116570230321585, 14.021327584484522 ], [ 98.116772692911113, 14.021419186607345 ], [ 98.116983248052236, 14.021491330726608 ], [ 98.117199939345781, 14.021543346500794 ], [ 98.117284097155135, 14.021555315426799 ], [ 98.117370912931221, 14.021595405651647 ], [ 98.11758481148712, 14.021670130753261 ], [ 98.117805181832608, 14.021724025922961 ], [ 98.118029901658019, 14.02175657211081 ], [ 98.118256806760982, 14.021767455871446 ], [ 98.118270136638458, 14.021767455879113 ], [ 98.11849704176656, 14.021756572378441 ], [ 98.118721761668596, 14.021724026440841 ], [ 98.118854397424414, 14.021691588383842 ], [ 98.118855176296947, 14.021487515469108 ] ], [ [ 98.11970510344544, 14.017150909709258 ], [ 98.119704069597972, 14.017422137031215 ], [ 98.119426280153846, 14.017421127436037 ], [ 98.119427314327453, 14.017149900134388 ], [ 98.11970510344544, 14.017150909709258 ] ], [ [ 98.117201891763017, 14.017955493470113 ], [ 98.117202928589947, 14.017684266343423 ], [ 98.117758507799579, 14.017686290351161 ], [ 98.117754362968611, 14.018771198983938 ], [ 98.117476572048105, 14.018770187057889 ], [ 98.117477608615133, 14.018498959929252 ], [ 98.117199818042891, 14.018497947705082 ], [ 98.117200854913989, 14.018226720590665 ], [ 98.116923064689999, 14.018225708068387 ], [ 98.11692410186518, 14.017954480968202 ], [ 98.117201891763017, 14.017955493470113 ] ], [ [ 98.117769904263071, 14.014702791104716 ], [ 98.117768868331339, 14.01497401833962 ], [ 98.117491081976638, 14.014973006698487 ], [ 98.117492118234452, 14.014701779483936 ], [ 98.117769904263071, 14.014702791104716 ] ], [ [ 98.118328582092872, 14.013891131527558 ], [ 98.118327546879485, 14.014162358821549 ], [ 98.118049761458863, 14.014161347878206 ], [ 98.118050796998304, 14.01389012060455 ], [ 98.118328582092872, 14.013891131527558 ] ], [ [ 98.114441672269848, 14.013334495598865 ], [ 98.114440632535988, 14.013605722619818 ], [ 98.1141628480771, 14.013604707260191 ], [ 98.114163888137014, 14.013333480259666 ], [ 98.114441672269848, 14.013334495598865 ] ], [ [ 98.113053793169286, 14.01305818879451 ], [ 98.113052751827411, 14.013329415719394 ], [ 98.112774967805493, 14.013328398788458 ], [ 98.112776009473393, 14.013057171884032 ], [ 98.113053793169286, 14.01305818879451 ] ], [ [ 98.11972060851366, 14.013082499143561 ], [ 98.119721642008628, 14.012811271723434 ], [ 98.119166074229341, 14.012809252905157 ], [ 98.119165040082308, 14.013080480284669 ], [ 98.118887255899693, 14.01307947037771 ], [ 98.11888622140458, 14.013350697730766 ], [ 98.117775083590558, 14.013346654838152 ], [ 98.11777819092211, 14.012532973004589 ], [ 98.120000459078241, 14.012541053208501 ], [ 98.119999425931326, 14.012812280655066 ], [ 98.120277209876036, 14.012813289268363 ], [ 98.120276177033119, 14.013084516729087 ], [ 98.11972060851366, 14.013082499143561 ] ], [ [ 98.120286504471508, 14.010372241845795 ], [ 98.120285471826733, 14.010643469361728 ], [ 98.120007690490013, 14.010642460910775 ], [ 98.120008723460757, 14.010371233415135 ], [ 98.120286504471508, 14.010372241845795 ] ] ], [ [ [ 98.114484282277871, 14.002214182457989 ], [ 98.11448532108102, 14.001942955179418 ], [ 98.114092295283299, 14.001941519665802 ], [ 98.114087018406153, 14.001976253195904 ], [ 98.114085039740075, 14.002015573356227 ], [ 98.11408223670918, 14.002023222541945 ], [ 98.114079955305442, 14.002032115520633 ], [ 98.114068906595662, 14.002062266322262 ], [ 98.114066625185913, 14.002071159322787 ], [ 98.114055576481178, 14.002101310105571 ], [ 98.114039882070699, 14.002162487340579 ], [ 98.114028916130323, 14.00219241225577 ], [ 98.114023762733936, 14.00221250032974 ], [ 98.114484282277871, 14.002214182457989 ] ] ], [ [ [ 98.114208589742432, 14.001670713433864 ], [ 98.114209628827012, 14.001399486163455 ], [ 98.114487398620867, 14.001400500603882 ], [ 98.114492592082726, 14.000044364057743 ], [ 98.114770360270157, 14.00004537807801 ], [ 98.114772436848426, 13.9995029233758 ], [ 98.115050204406614, 13.999503937037204 ], [ 98.115051242336847, 13.999232709656493 ], [ 98.115884544167216, 13.999235748671387 ], [ 98.115885581098283, 13.998964521223348 ], [ 98.117552183402054, 13.998970590544504 ], [ 98.117555288200606, 13.998156907796927 ], [ 98.117277522071731, 13.998155897099483 ], [ 98.11727855728607, 13.997884669525051 ], [ 98.117000791504921, 13.997883658529984 ], [ 98.117001827022818, 13.997612430969786 ], [ 98.117279592478326, 13.997613441944493 ], [ 98.117281367082356, 13.997148469852771 ], [ 98.117157431831941, 13.997221004658117 ], [ 98.117086261297075, 13.99727254544233 ], [ 98.116965706843402, 13.997328220909825 ], [ 98.116770867732413, 13.997442253158759 ], [ 98.116588413150922, 13.997574384240872 ], [ 98.116438584532887, 13.997706983028536 ], [ 98.116377035293667, 13.997709935557548 ], [ 98.116152337158638, 13.997742481631995 ], [ 98.115931987896474, 13.997796376644958 ], [ 98.115718109533134, 13.997871101569036 ], [ 98.115512761782583, 13.997965936778765 ], [ 98.115317922212611, 13.998079968980404 ], [ 98.115135467201497, 13.998212100006587 ], [ 98.11496715386869, 13.998361057391342 ], [ 98.114814603153661, 13.998525406623541 ], [ 98.114679284205778, 13.998703564960886 ], [ 98.114562500235422, 13.998893816671366 ], [ 98.114465375962936, 13.999094329555581 ], [ 98.114388846785758, 13.999303172590666 ], [ 98.114333649768696, 13.999518334526146 ], [ 98.114300316543776, 13.999737743252483 ], [ 98.114290408337538, 13.999934641277356 ], [ 98.11426699607145, 14.000025903723927 ], [ 98.114233662781317, 14.000245312449339 ], [ 98.114222514411082, 14.000466854951057 ], [ 98.114222510632274, 14.000844277895981 ], [ 98.114233998224364, 14.001069201535646 ], [ 98.114238181288144, 14.001110047180306 ], [ 98.114235837243982, 14.001156628226633 ], [ 98.114235836853055, 14.001195671979559 ], [ 98.114236155473307, 14.001200745873529 ], [ 98.114200334480614, 14.001340377504825 ], [ 98.114171136042188, 14.001532568390532 ], [ 98.114160342961185, 14.00157464017922 ], [ 98.114160306964976, 14.001574877114669 ], [ 98.114147012710689, 14.00162669855065 ], [ 98.114146976709748, 14.001626935517168 ], [ 98.114135814134002, 14.001670447593119 ], [ 98.114208589742432, 14.001670713433864 ] ] ], [ [ [ 98.117559427622922, 13.997071997381006 ], [ 98.117559658726577, 13.997011424175671 ], [ 98.117557617980268, 13.997012137173602 ], [ 98.117429029696652, 13.99707152298245 ], [ 98.117559427622922, 13.997071997381006 ] ] ], [ [ [ 98.121449167748324, 13.996814884715407 ], [ 98.121726932579477, 13.996815890541692 ], [ 98.121727474966633, 13.996673050806097 ], [ 98.121682551733386, 13.996670895977417 ], [ 98.121669222116736, 13.996670895985051 ], [ 98.121449674670131, 13.996681427170079 ], [ 98.121449167748324, 13.996814884715407 ] ] ] ] } },
{ "type": "Feature", "properties": { "zone": "B", "alpha_deg": 8.0, "label": "Within reach only of a channelised flow (alpha 8.0 deg)" }, "geometry": { "type": "MultiPolygon", "coordinates": [ [ [ [ 98.122273198133712, 13.999258952698893 ], [ 98.122274227574209, 13.998987724783577 ], [ 98.121996460093953, 13.998986719431242 ], [ 98.121995430327758, 13.999257947326317 ], [ 98.122273198133712, 13.999258952698893 ] ] ], [ [ [ 98.12227216867123, 13.999530180608083 ], [ 98.122827705000361, 13.999532190439661 ], [ 98.122829762600617, 13.998989734534208 ], [ 98.122551995076449, 13.998988729817897 ], [ 98.122550965961608, 13.999259957753456 ], [ 98.122273198133712, 13.999258952698893 ], [ 98.12227216867123, 13.999530180608083 ] ] ], [ [ [ 98.126633110832927, 14.021598689065291 ], [ 98.126766700036853, 14.021566017469617 ], [ 98.126907926912509, 14.021516679839289 ], [ 98.126633424812383, 14.021515690092313 ], [ 98.126633110832927, 14.021598689065291 ] ] ], [ [ [ 98.124133271627485, 14.021506661198863 ], [ 98.124134300585482, 14.021235433644927 ], [ 98.124412094969969, 14.021236438109286 ], [ 98.124413123579799, 14.02096521052901 ], [ 98.125246505885968, 14.02096822195031 ], [ 98.125247533495184, 14.020696994303341 ], [ 98.125525327314804, 14.020697997453205 ], [ 98.125526354575911, 14.020426769779924 ], [ 98.125248561082515, 14.020425766650233 ], [ 98.125251643713113, 14.019612083654089 ], [ 98.124973851220261, 14.019611080266417 ], [ 98.124974879046192, 14.019339852608942 ], [ 98.125530463401404, 14.019341859025438 ], [ 98.125531490553058, 14.019070631321473 ], [ 98.125809282437316, 14.019071634031818 ], [ 98.12581030924089, 14.018800406301549 ], [ 98.126088100820823, 14.018801408673248 ], [ 98.126089127276359, 14.018530180916686 ], [ 98.125811336022608, 14.018529178565149 ], [ 98.125812362782426, 14.018257950822607 ], [ 98.126367944659464, 14.018259955166895 ], [ 98.126369996808833, 14.017717499582787 ], [ 98.125814416236437, 14.017715495319123 ], [ 98.125816469602938, 14.017173039791093 ], [ 98.125538680001853, 14.017172037221911 ], [ 98.125539706978429, 14.01690080946886 ], [ 98.125261917725354, 14.016899806601405 ], [ 98.12526294500617, 14.01662857886239 ], [ 98.124985156101133, 14.016627575696681 ], [ 98.124986183686175, 14.016356347971707 ], [ 98.124708395129176, 14.016355344507756 ], [ 98.124707367218008, 14.016626572212546 ], [ 98.124429578356768, 14.01662556840998 ], [ 98.124428550097562, 14.016896796088441 ], [ 98.1238729717886, 14.016894787487624 ], [ 98.123874000700056, 14.016623559849567 ], [ 98.123318423131053, 14.016621550015437 ], [ 98.123319452672831, 14.016350322411668 ], [ 98.12276387584383, 14.016348311344284 ], [ 98.122767996400412, 14.015263401029664 ], [ 98.12249020932326, 14.015262395099281 ], [ 98.122491239733606, 14.014991167525528 ], [ 98.122213453004491, 14.014990161296989 ], [ 98.122212422268063, 14.015261388850506 ], [ 98.12137906123435, 14.015258368193805 ], [ 98.121378029497663, 14.01552959568042 ], [ 98.121100242204307, 14.015528588137794 ], [ 98.121099210119525, 14.015799815598006 ], [ 98.121098178012758, 14.016071043052083 ], [ 98.121653753925898, 14.016073057899989 ], [ 98.121652722449369, 14.01634428538846 ], [ 98.121930510765026, 14.016345292355048 ], [ 98.121929479592637, 14.016616519857635 ], [ 98.122485056942111, 14.01661853287604 ], [ 98.122484026400002, 14.016889760412983 ], [ 98.122761815433833, 14.01689076646478 ], [ 98.122759754935998, 14.017433221560728 ], [ 98.122481965249889, 14.01743221546846 ], [ 98.122480934641899, 14.017703442986997 ], [ 98.122203144651607, 14.017702436556039 ], [ 98.122202113695494, 14.017973664048194 ], [ 98.121924323401004, 14.017972657278532 ], [ 98.121923292096753, 14.018243884744303 ], [ 98.121645501498094, 14.018242877635926 ], [ 98.121644469845691, 14.018514105075305 ], [ 98.121643438171304, 14.018785332508543 ], [ 98.121921229422313, 14.018786339657431 ], [ 98.121922260770532, 14.018515112203934 ], [ 98.123589006780804, 14.018521148287803 ], [ 98.123586947976591, 14.019063603431459 ], [ 98.123864739707471, 14.019064608371208 ], [ 98.123862681467912, 14.019607063530733 ], [ 98.123584889084626, 14.019606058550565 ], [ 98.123580771037496, 14.020690968715131 ], [ 98.123302977371281, 14.020689963335599 ], [ 98.123301947478424, 14.020961190841179 ], [ 98.123857535485257, 14.020963201322154 ], [ 98.123856506222936, 14.021234428862027 ], [ 98.123578711882317, 14.021233423760593 ], [ 98.123576746987396, 14.021751025709426 ], [ 98.123615063562795, 14.02175657512943 ], [ 98.12384197067739, 14.021767459073404 ], [ 98.123854483400081, 14.02176745908092 ], [ 98.123855476938687, 14.021505656395762 ], [ 98.124133271627485, 14.021506661198863 ] ], [ [ 98.125256780992899, 14.01825594520445 ], [ 98.125255753580731, 14.018527172906653 ], [ 98.124977962392634, 14.018526169599696 ], [ 98.124978990130984, 14.018254941917672 ], [ 98.125256780992899, 14.01825594520445 ] ] ], [ [ [ 98.121380092949039, 14.014987140701056 ], [ 98.121657879612215, 14.014988147884758 ], [ 98.121659942323475, 14.014445692840324 ], [ 98.121382156312464, 14.014444685697148 ], [ 98.121381124641744, 14.014715913202169 ], [ 98.120825552033523, 14.014713897920144 ], [ 98.120826584356394, 14.014442670455665 ], [ 98.120271012488345, 14.014440653940678 ], [ 98.120269979513338, 14.014711881364589 ], [ 98.119436620898171, 14.014708854143397 ], [ 98.119435586922918, 14.014980081500276 ], [ 98.119157800435843, 14.014979071769467 ], [ 98.119156766112468, 14.015250299099895 ], [ 98.118878979321352, 14.015249289030384 ], [ 98.118877944649839, 14.015520516334353 ], [ 98.118600157554681, 14.015519505926122 ], [ 98.118598087493268, 14.016061960475009 ], [ 98.118042512064747, 14.016059938622004 ], [ 98.118041476348722, 14.016331165846569 ], [ 98.117485900356257, 14.016329142679213 ], [ 98.117484863965927, 14.016600369856945 ], [ 98.117207075676703, 14.016599357775283 ], [ 98.117203965394779, 14.017413039210592 ], [ 98.117759543952104, 14.017415063177621 ], [ 98.11776058008256, 14.017143835997947 ], [ 98.119427314327453, 14.017149900134388 ], [ 98.119428348479019, 14.016878672826602 ], [ 98.119706137270867, 14.016879682381164 ], [ 98.119708204855641, 14.01633722770657 ], [ 98.120263781200933, 14.016339245779211 ], [ 98.120264814308044, 14.016068018392115 ], [ 98.120820390089179, 14.016070035150507 ], [ 98.12082142252207, 14.015798807716706 ], [ 98.1205436349466, 14.015797799516999 ], [ 98.120544667683575, 14.015526572097338 ], [ 98.120266880456214, 14.015525563599512 ], [ 98.120267913497273, 14.015254336194008 ], [ 98.12137906123435, 14.015258368193805 ], [ 98.121380092949039, 14.014987140701056 ] ] ], [ [ [ 98.120549831038289, 14.014170434907024 ], [ 98.120550863643203, 14.013899207450555 ], [ 98.120273078372307, 14.013898199074447 ], [ 98.12027204544134, 14.014169426510628 ], [ 98.120549831038289, 14.014170434907024 ] ] ], [ [ [ 98.121663036225513, 14.013632010227663 ], [ 98.121664067482229, 14.013360782677839 ], [ 98.121941852211009, 14.013361789421625 ], [ 98.12194494487116, 14.012548106674581 ], [ 98.12222272864382, 14.012549113039267 ], [ 98.122224789655348, 14.012006657803402 ], [ 98.121947006534739, 14.012005651479212 ], [ 98.121945975713928, 14.012276879079963 ], [ 98.121668192289277, 14.012275872417201 ], [ 98.121666129929707, 14.012818327559788 ], [ 98.12138834587499, 14.012817320538179 ], [ 98.121385251192677, 14.013631003145271 ], [ 98.121663036225513, 14.013632010227663 ] ] ], [ [ [ 98.121949068110396, 14.011463196259305 ], [ 98.121950098865284, 14.011191968640151 ], [ 98.121672316744622, 14.011190962058409 ], [ 98.121671285663751, 14.011462189657305 ], [ 98.121949068110396, 14.011463196259305 ] ] ], [ [ [ 98.122229941799787, 14.010650519606392 ], [ 98.122230972162768, 14.01037929194859 ], [ 98.121953190998056, 14.010378285745887 ], [ 98.121952160309107, 14.010649513383441 ], [ 98.122229941799787, 14.010650519606392 ] ] ], [ [ [ 98.123352386425665, 14.007671035851969 ], [ 98.123354444039308, 14.007128580233454 ], [ 98.123632221402687, 14.007129584602167 ], [ 98.123634278276825, 14.006587128918691 ], [ 98.123912055010379, 14.006588132928785 ], [ 98.123914111145083, 14.006045677180364 ], [ 98.124191887248827, 14.006046680831858 ], [ 98.124193942644141, 14.005504225018509 ], [ 98.124471718118102, 14.005505228311437 ], [ 98.124472745457041, 14.005234000375365 ], [ 98.125028295819007, 14.005236005966349 ], [ 98.125029322484394, 14.004964777983778 ], [ 98.124751547618288, 14.00496377536755 ], [ 98.124752574587589, 14.00469254739903 ], [ 98.123919251098187, 14.00468953770201 ], [ 98.123920279023054, 14.004418309787948 ], [ 98.123642504896225, 14.004417305939528 ], [ 98.123643533124977, 14.004146078039541 ], [ 98.123087985588768, 14.00414406942871 ], [ 98.123086956708391, 14.004415297288258 ], [ 98.122809182647387, 14.004414292485416 ], [ 98.122808153419257, 14.004685520318606 ], [ 98.122252604711477, 14.00468350971803 ], [ 98.122253634591218, 14.004412281925312 ], [ 98.121975860596095, 14.004411276168053 ], [ 98.121976890779692, 14.00414004838945 ], [ 98.121699117132337, 14.004139042334304 ], [ 98.121700147619762, 14.003867814569826 ], [ 98.12142237432019, 14.003866808216806 ], [ 98.121423405111457, 14.003595580466454 ], [ 98.121701178085232, 14.003596586799214 ], [ 98.121702208528703, 14.003325359022472 ], [ 98.121979981198677, 14.003326365016859 ], [ 98.121981011294409, 14.003055137213737 ], [ 98.121703238950218, 14.003054131239605 ], [ 98.121704269349749, 14.0027829034506 ], [ 98.121426497353298, 14.002781897178616 ], [ 98.121427528056628, 14.002510669403744 ], [ 98.120871984781246, 14.002508655946018 ], [ 98.120874047424962, 14.001966200458952 ], [ 98.120596276471773, 14.001965193293506 ], [ 98.120599371249583, 14.00115151007777 ], [ 98.121154911223528, 14.001153523968929 ], [ 98.121153880304377, 14.001424751754191 ], [ 98.121431650650067, 14.001425758242942 ], [ 98.121441955594875, 13.998713479911853 ], [ 98.121164188506214, 13.998712473625751 ], [ 98.121165219205452, 13.998441245779196 ], [ 98.12088745246443, 13.998440239195364 ], [ 98.12088848346734, 13.99816901136295 ], [ 98.120610717073973, 13.9981680044814 ], [ 98.12061174838054, 13.997896776663133 ], [ 98.120333982334813, 13.997895769483874 ], [ 98.120326760447128, 13.999794363941021 ], [ 98.120882297119948, 13.999796378265492 ], [ 98.120881265985062, 14.00006760606113 ], [ 98.120603497311961, 14.000066599037631 ], [ 98.120601434324783, 14.00060905456996 ], [ 98.120323665022269, 14.000608047187857 ], [ 98.120321601295615, 14.001150502655095 ], [ 98.120043831363674, 14.001149494914364 ], [ 98.120047960031755, 14.000064584036524 ], [ 98.119770191424678, 14.000063576058919 ], [ 98.119771223862344, 13.999792348344432 ], [ 98.118937919150397, 13.999789322564331 ], [ 98.118938952543118, 13.999518094904641 ], [ 98.118383416830056, 13.999516076168415 ], [ 98.118386518830008, 13.998702393274534 ], [ 98.118664285698486, 13.998703402740675 ], [ 98.118666352936856, 13.998160947406781 ], [ 98.117555288200606, 13.998156907796927 ], [ 98.117552183402054, 13.998970590544504 ], [ 98.115885581098283, 13.998964521223348 ], [ 98.115884544167216, 13.999235748671387 ], [ 98.115051242336847, 13.999232709656493 ], [ 98.115050204406614, 13.999503937037204 ], [ 98.114772436848426, 13.9995029233758 ], [ 98.114770360270157, 14.00004537807801 ], [ 98.114492592082726, 14.000044364057743 ], [ 98.114487398620867, 14.001400500603882 ], [ 98.114209628827012, 14.001399486163455 ], [ 98.114208589742432, 14.001670713433864 ], [ 98.114135814134002, 14.001670447593119 ], [ 98.114146976709748, 14.001626935517168 ], [ 98.114133682458885, 14.001678756928507 ], [ 98.114123949619952, 14.0017428206787 ], [ 98.11412035194472, 14.001756844524341 ], [ 98.114092295283299, 14.001941519665802 ], [ 98.11448532108102, 14.001942955179418 ], [ 98.114484282277871, 14.002214182457989 ], [ 98.114023762733936, 14.00221250032974 ], [ 98.114028916130323, 14.00219241225577 ], [ 98.113973718432504, 14.002407574114191 ], [ 98.113943706868028, 14.002605116247191 ], [ 98.113908943611833, 14.002699981390546 ], [ 98.113906662108477, 14.002708874730931 ], [ 98.113895613498229, 14.002739025170968 ], [ 98.113893331988891, 14.002747918533117 ], [ 98.113882283383717, 14.002778068954283 ], [ 98.113827085548323, 14.002993230794637 ], [ 98.11382704943081, 14.002993468526922 ], [ 98.113813755297812, 14.003045289165932 ], [ 98.113780421571533, 14.003264697793261 ], [ 98.113778819738016, 14.003296529321508 ], [ 98.11392458271753, 14.003297062026034 ], [ 98.113925622260865, 14.003025834812847 ], [ 98.114203393987083, 14.003026849693933 ], [ 98.114204433182479, 14.002755622454183 ], [ 98.114759976049854, 14.002757651221193 ], [ 98.114761014571556, 14.002486423934467 ], [ 98.115316556875996, 14.002488451388272 ], [ 98.115317594724047, 14.002217224054592 ], [ 98.11587313646551, 14.002219250195235 ], [ 98.115872099268984, 14.002490477569708 ], [ 98.116983184320375, 14.002494526115482 ], [ 98.116984220213851, 14.002223298659494 ], [ 98.116706449243608, 14.002222287020558 ], [ 98.116708521615806, 14.001679832130934 ], [ 98.11809737343043, 14.001684886941206 ], [ 98.118099442456881, 14.001142431823501 ], [ 98.117821672701254, 14.001141421538279 ], [ 98.117822707507102, 14.000870193990576 ], [ 98.117544938099286, 14.000869183407639 ], [ 98.117545973208777, 14.000597955874156 ], [ 98.117823742290881, 14.000598966436741 ], [ 98.11782477705259, 14.000327738876775 ], [ 98.11810254583105, 14.000328749100973 ], [ 98.118103580244977, 14.000057521514533 ], [ 98.118936885735621, 14.000060550217887 ], [ 98.118931718331112, 14.001416688393714 ], [ 98.118653948183592, 14.001415679042351 ], [ 98.1186529143108, 14.001686906638799 ], [ 98.118375143859595, 14.00168589694904 ], [ 98.118374109639007, 14.001957124519029 ], [ 98.118096338884115, 14.001956114490858 ], [ 98.11809530431573, 14.002227342034383 ], [ 98.118373075396377, 14.00222835208289 ], [ 98.118372041131693, 14.00249957964062 ], [ 98.118094269725276, 14.002498569571776 ], [ 98.118092200478159, 14.003041024628169 ], [ 98.118369972536129, 14.003042034737685 ], [ 98.118367903852302, 14.003584489810223 ], [ 98.118090131142793, 14.003583479660035 ], [ 98.118088061719149, 14.004125934667377 ], [ 98.117810288380099, 14.004124924158386 ], [ 98.11780925330936, 14.004396151632514 ], [ 98.118642574370114, 14.004399182266107 ], [ 98.118641540254757, 14.004670409795116 ], [ 98.119474862491444, 14.004673437626421 ], [ 98.119473829331483, 14.00494466521025 ], [ 98.12002937825109, 14.004946682214333 ], [ 98.120026280594061, 14.005760365050833 ], [ 98.120304056064413, 14.005761373136526 ], [ 98.120301991501336, 14.006303828370783 ], [ 98.120024215379274, 14.006302820244509 ], [ 98.120022150076409, 14.006845275413653 ], [ 98.119744373324636, 14.006844266928596 ], [ 98.119741274227536, 14.007657949575425 ], [ 98.11946349652014, 14.007656940711259 ], [ 98.119462463117813, 14.007928168227631 ], [ 98.11807357328199, 14.007923119031958 ], [ 98.118071503152152, 14.008465573843063 ], [ 98.117793724599352, 14.008464563008577 ], [ 98.117792689175417, 14.008735790384582 ], [ 98.116959352671742, 14.00873275591066 ], [ 98.116958316247946, 14.009003983219461 ], [ 98.115569420887567, 14.008998919296229 ], [ 98.115568382812015, 14.009270146496984 ], [ 98.117235059266378, 14.009276222372405 ], [ 98.117236095386346, 14.009004995049374 ], [ 98.118069432934035, 14.009008028629626 ], [ 98.118070468054128, 14.00873680123941 ], [ 98.118626025877774, 14.008738821994346 ], [ 98.118627060323959, 14.008467594557327 ], [ 98.11862809474809, 14.008196367114175 ], [ 98.118905873041172, 14.008197376973634 ], [ 98.119461429693459, 14.008199395737869 ], [ 98.119460396247064, 14.008470623241974 ], [ 98.119738174932166, 14.008471632167057 ], [ 98.11973714178967, 14.008742859685334 ], [ 98.120014920822726, 14.008743868312479 ], [ 98.120015953639324, 14.008472640773903 ], [ 98.120293732368481, 14.008473649062516 ], [ 98.120294764837141, 14.008202421497513 ], [ 98.120016986433882, 14.008201413229195 ], [ 98.120018019206427, 14.007930185678351 ], [ 98.120295797283774, 14.00793119392638 ], [ 98.120299926850194, 14.00684628358051 ], [ 98.120577703646006, 14.006847291429175 ], [ 98.120579767645395, 14.006304836178872 ], [ 98.121135319999539, 14.00630685084051 ], [ 98.121136351314519, 14.006035623165605 ], [ 98.121414127198719, 14.00603662999888 ], [ 98.12141515816586, 14.005765402297584 ], [ 98.1222484849728, 14.005768420827582 ], [ 98.122246424971692, 14.006310876345569 ], [ 98.121968648695685, 14.006309870446579 ], [ 98.121967618336313, 14.006581098176127 ], [ 98.122523171562008, 14.006583109696413 ], [ 98.122522141832405, 14.006854337460316 ], [ 98.122799918804077, 14.006855342763405 ], [ 98.122798889378387, 14.007126570541413 ], [ 98.12307666669787, 14.007127575546537 ], [ 98.123075637576136, 14.007398803338639 ], [ 98.122797859930756, 14.007397798313287 ], [ 98.122796830461184, 14.00766902607903 ], [ 98.123352386425665, 14.007671035851969 ] ], [ [ 98.115874173639909, 14.001948022814631 ], [ 98.116151944218075, 14.001949035387435 ], [ 98.11615090736943, 14.002220262788429 ], [ 98.11587313646551, 14.002219250195235 ], [ 98.115874173639909, 14.001948022814631 ] ], [ [ 98.119753669426501, 14.00440321865697 ], [ 98.119756767730649, 14.003589535789384 ], [ 98.12031231343623, 14.003591551954219 ], [ 98.120310249225341, 14.004134007286586 ], [ 98.120032475709962, 14.004132999322646 ], [ 98.120031443245693, 14.004404226959338 ], [ 98.119753669426501, 14.00440321865697 ] ], [ [ 98.115319670353713, 14.00167476936884 ], [ 98.115318632549943, 14.001945996714781 ], [ 98.115040862038157, 14.001944983187737 ], [ 98.115041900167668, 14.001673755862205 ], [ 98.115319670353713, 14.00167476936884 ] ] ], [ [ [ 98.110839875024368, 14.010880230288056 ], [ 98.110771301727695, 14.010879978693849 ], [ 98.110743925868704, 14.010957154499627 ], [ 98.110691922815064, 14.011166309235753 ], [ 98.110695746105762, 14.011150932089373 ], [ 98.110838831252238, 14.011151457098173 ], [ 98.110839875024368, 14.010880230288056 ] ] ], [ [ [ 98.114992603718548, 14.020865060735018 ], [ 98.114992859741349, 14.020865097815381 ], [ 98.115045922618947, 14.020878075344001 ], [ 98.11527064308865, 14.020910622017318 ], [ 98.115497548877471, 14.020921505957764 ], [ 98.115523768312954, 14.020921505975076 ], [ 98.115525802656833, 14.020390456445254 ], [ 98.114970217277346, 14.020388426934179 ], [ 98.114971256912867, 14.020117200025828 ], [ 98.114693464582558, 14.020116184812935 ], [ 98.114691384636942, 14.020658638582667 ], [ 98.11496917761967, 14.020659653836391 ], [ 98.114968412925052, 14.020859144421566 ], [ 98.114772232818851, 14.020811164788348 ], [ 98.114992603718548, 14.020865060735018 ] ] ], [ [ [ 98.119418005971568, 14.019590945628302 ], [ 98.118862421930672, 14.019588925157544 ], [ 98.11886035185988, 14.020131379562967 ], [ 98.119415937205616, 14.02013340011499 ], [ 98.119418005971568, 14.019590945628302 ] ] ], [ [ [ 98.115807749874492, 14.019306562807943 ], [ 98.115808788442848, 14.019035335813829 ], [ 98.116364370693105, 14.019037363209945 ], [ 98.116363332777141, 14.019308590244837 ], [ 98.116641124261648, 14.019309603485548 ], [ 98.116643199419087, 14.018767149368873 ], [ 98.116365408586958, 14.018766136168917 ], [ 98.116366446458699, 14.018494909121751 ], [ 98.116088655974863, 14.018493895623701 ], [ 98.116089694150645, 14.018222668590781 ], [ 98.115534113901703, 14.018220640680058 ], [ 98.115533075073557, 14.018491867672191 ], [ 98.115255284656115, 14.018490853218733 ], [ 98.115252167060376, 14.019304534097097 ], [ 98.114974375686529, 14.019303519263941 ], [ 98.114972296526233, 14.019845973111334 ], [ 98.115250088552486, 14.019846987985311 ], [ 98.115251127817501, 14.019575761044271 ], [ 98.115528919539685, 14.019576775579342 ], [ 98.115529958456364, 14.019305548611767 ], [ 98.115807749874492, 14.019306562807943 ] ] ], [ [ [ 98.115803595379802, 14.020391470723021 ], [ 98.115802556700785, 14.020662697686443 ], [ 98.116080349772105, 14.020663711666087 ], [ 98.116081388124883, 14.020392484682272 ], [ 98.115803595379802, 14.020391470723021 ] ] ], [ [ [ 98.119721642008628, 14.012811271723434 ], [ 98.11972060851366, 14.013082499143561 ], [ 98.120276177033119, 14.013084516729087 ], [ 98.120277209876036, 14.012813289268363 ], [ 98.119999425931326, 14.012812280655066 ], [ 98.119721642008628, 14.012811271723434 ] ] ], [ [ [ 98.120325728660845, 14.000065591696096 ], [ 98.120326760447128, 13.999794363941021 ], [ 98.120048992143737, 13.999793356301742 ], [ 98.120047960031755, 14.000064584036524 ], [ 98.120325728660845, 14.000065591696096 ] ] ], [ [ [ 98.121171402939154, 13.99681387857116 ], [ 98.121168311171246, 13.997627562202759 ], [ 98.121446076957312, 13.997628568407796 ], [ 98.121444016320069, 13.998171024172084 ], [ 98.12255508228921, 13.998175045974445 ], [ 98.12255405324025, 13.998446273928391 ], [ 98.123109587007889, 13.99844828296208 ], [ 98.123107530146754, 13.998990738932505 ], [ 98.123663065304825, 13.998992746775068 ], [ 98.123662037492707, 13.999263974791521 ], [ 98.125050877399858, 13.999268988933693 ], [ 98.125052929745422, 13.998726532692711 ], [ 98.125330697141209, 13.998727534526742 ], [ 98.125332748747894, 13.998185078220892 ], [ 98.125888282302455, 13.998187080854269 ], [ 98.125890332519006, 13.997644624443245 ], [ 98.125334800267041, 13.997642621890535 ], [ 98.125335825993773, 13.997371393716161 ], [ 98.125613591783193, 13.997372395131338 ], [ 98.125614617162412, 13.997101166930671 ], [ 98.125892382648075, 13.997102168007713 ], [ 98.125893407679811, 13.99683093978075 ], [ 98.125615642519776, 13.996829938723875 ], [ 98.125617765578269, 13.996268327466328 ], [ 98.125542738108507, 13.996286678462232 ], [ 98.125328860630091, 13.99636140358324 ], [ 98.125254347649815, 13.996395815978195 ], [ 98.12506664613332, 13.996349909321692 ], [ 98.124841963339136, 13.996317367700396 ], [ 98.124615096067345, 13.996306485656891 ], [ 98.124601766450681, 13.996306485664501 ], [ 98.124374899204753, 13.996317367965853 ], [ 98.124150216487465, 13.996349909835189 ], [ 98.123929881768376, 13.996403797923191 ], [ 98.123716016653049, 13.996478513337754 ], [ 98.12351068045578, 13.996573336640076 ], [ 98.123315850371895, 13.996687354771748 ], [ 98.123303062607221, 13.996696614719198 ], [ 98.123116765776899, 13.996742177991797 ], [ 98.123011935807256, 13.996778801155436 ], [ 98.122983924385878, 13.996780754673026 ], [ 98.122791995310465, 13.996802029695351 ], [ 98.122602551053149, 13.996838856268253 ], [ 98.122594432023561, 13.996841135828502 ], [ 98.122541060090228, 13.996833405276773 ], [ 98.12235443787084, 13.99676820762264 ], [ 98.122134102631648, 13.996714319696309 ], [ 98.121909419425535, 13.996681778034299 ], [ 98.121682551733386, 13.996670895977417 ], [ 98.121727474966633, 13.996673050806097 ], [ 98.121726932579477, 13.996815890541692 ], [ 98.121449167748324, 13.996814884715407 ], [ 98.121449674670131, 13.996681427170079 ], [ 98.121669222116736, 13.996670895985051 ], [ 98.121442354450579, 13.996681778300688 ], [ 98.121217671321645, 13.996714320211606 ], [ 98.120997336207893, 13.996768208367435 ], [ 98.120893670258184, 13.996804424872613 ], [ 98.120893638151969, 13.996812872108956 ], [ 98.121171402939154, 13.99681387857116 ] ], [ [ 98.12533377451841, 13.997913850058774 ], [ 98.124778241702671, 13.997911846193785 ], [ 98.124779268102586, 13.997640618065899 ], [ 98.124501502053221, 13.997639615676613 ], [ 98.124503555438622, 13.997097159442831 ], [ 98.124781320836732, 13.99709816179174 ], [ 98.124780294480615, 13.997369389931885 ], [ 98.125058060226252, 13.99737039198301 ], [ 98.125057034173864, 13.997641620137207 ], [ 98.125334800267041, 13.997642621890535 ], [ 98.12533377451841, 13.997913850058774 ] ] ], [ [ [ 98.11692410186518, 14.017954480968202 ], [ 98.116923064689999, 14.018225708068387 ], [ 98.117200854913989, 14.018226720590665 ], [ 98.117199818042891, 14.018497947705082 ], [ 98.117477608615133, 14.018498959929252 ], [ 98.117476572048105, 14.018770187057889 ], [ 98.117754362968611, 14.018771198983938 ], [ 98.117758507799579, 14.017686290351161 ], [ 98.117202928589947, 14.017684266343423 ], [ 98.117201891763017, 14.017955493470113 ], [ 98.11692410186518, 14.017954480968202 ] ] ], [ [ [ 98.120008723460757, 14.010371233415135 ], [ 98.120007690490013, 14.010642460910775 ], [ 98.120285471826733, 14.010643469361728 ], [ 98.120286504471508, 14.010372241845795 ], [ 98.120008723460757, 14.010371233415135 ] ] ] ] } }
]
}
