{
"type": "FeatureCollection",
"name": "reach_zones",
"crs": { "type": "name", "properties": { "name": "urn:ogc:def:crs:OGC:1.3:CRS84" } },
"features": [
{ "type": "Feature", "properties": { "zone": "A", "alpha_deg": 20.6, "label": "Within reach of an open-slope debris flow (alpha 20.6 deg)" }, "geometry": { "type": "MultiPolygon", "coordinates": [ [ [ [ 98.078393727533751, 13.997197586948735 ], [ 98.078392646776081, 13.997468811622582 ], [ 98.078670409094116, 13.997469866794951 ], [ 98.078673650321122, 13.996656192691255 ], [ 98.078395888979912, 13.996655137582637 ], [ 98.078396969668418, 13.996383912890387 ], [ 98.078217364250619, 13.996383230482049 ], [ 98.078207066616713, 13.996547186020877 ], [ 98.078207066540756, 13.99655477471369 ], [ 98.078185907666182, 13.996702348144812 ], [ 98.078175961456537, 13.996911631819589 ], [ 98.0781759613552, 13.996921755307779 ], [ 98.078185903389553, 13.997131039124454 ], [ 98.078195335528619, 13.997196833110438 ], [ 98.078393727533751, 13.997197586948735 ] ] ], [ [ [ 98.080333747913002, 13.998289865582578 ], [ 98.08033266934261, 13.998561090380507 ], [ 98.080610433124406, 13.998562143411972 ], [ 98.080611511369142, 13.99829091859284 ], [ 98.080333747913002, 13.998289865582578 ] ] ], [ [ [ 98.080053826664795, 13.99883126180163 ], [ 98.079776062603386, 13.998830208112967 ], [ 98.079774305250055, 13.999271835798696 ], [ 98.079839043021821, 13.999307802423095 ], [ 98.079859777288661, 13.999317925909171 ], [ 98.079880511767541, 13.999328049498773 ], [ 98.079974064262572, 13.999365889522009 ], [ 98.079987706336738, 13.999373468704059 ], [ 98.080051668757648, 13.999373711324372 ], [ 98.080052747722732, 13.999102486566066 ], [ 98.080330512132804, 13.99910353995795 ], [ 98.08033266934261, 13.998561090380507 ], [ 98.080054905583836, 13.99856003703105 ], [ 98.080053826664795, 13.99883126180163 ] ] ], [ [ [ 98.082313597307163, 13.989346803309664 ], [ 98.082312521773943, 13.98961802845831 ], [ 98.082590274973953, 13.989619078565559 ], [ 98.082591350181758, 13.989347853395754 ], [ 98.082313597307163, 13.989346803309664 ] ] ], [ [ [ 98.080907595954727, 13.993681148060796 ], [ 98.080902208083842, 13.99503727272258 ], [ 98.080624448511898, 13.995036220284696 ], [ 98.080623370543179, 13.995307445177453 ], [ 98.080345610668687, 13.995306392400458 ], [ 98.0803434540111, 13.995848842125151 ], [ 98.080065693508473, 13.99584778898782 ], [ 98.080063536107673, 13.996390238645551 ], [ 98.07978577497687, 13.996389185147862 ], [ 98.079784695916359, 13.996660409946303 ], [ 98.080062457372748, 13.996661463465212 ], [ 98.080058142202901, 13.997746362682502 ], [ 98.08033590498475, 13.99774741596832 ], [ 98.080334826460401, 13.99801864077852 ], [ 98.080890352744376, 13.998020746438655 ], [ 98.080889274848275, 13.998291971285125 ], [ 98.081167038350415, 13.998293023659425 ], [ 98.081163805501077, 13.999106698225592 ], [ 98.080886041021984, 13.999105645787711 ], [ 98.080884963033895, 13.999376870609636 ], [ 98.080607198252139, 13.999375817832556 ], [ 98.080606119915387, 13.999647042627144 ], [ 98.080502927597934, 13.999646651421761 ], [ 98.080629843532108, 13.999725597135985 ], [ 98.080832469876682, 13.999825859099822 ], [ 98.081044185091883, 13.999906244822034 ], [ 98.081075286556299, 13.999916368322932 ], [ 98.081106388332117, 13.99992649192518 ], [ 98.081276969611324, 13.999974997860622 ], [ 98.08131843867632, 13.999985121471836 ], [ 98.081334796376382, 13.99998871332153 ], [ 98.081382222980494, 14.000005324899211 ], [ 98.081602131657917, 14.00005933329941 ], [ 98.081653968008254, 14.000069456918268 ], [ 98.081750967288755, 14.000083583224212 ], [ 98.081760950536946, 14.000090609639535 ], [ 98.081791149778979, 14.000117323374525 ], [ 98.081974679922524, 14.000250022011018 ], [ 98.081999173463373, 14.000265967294371 ], [ 98.08204524211321, 14.000299330994302 ], [ 98.082240083815861, 14.000413369125122 ], [ 98.082445434971845, 14.000508209428371 ], [ 98.082614564011493, 14.000567301853225 ], [ 98.082637355243392, 14.000577168121517 ], [ 98.082824341879984, 14.000638601112961 ], [ 98.082825014086538, 14.000469130964248 ], [ 98.083380546646026, 14.000471231281466 ], [ 98.08337947147426, 14.000742456263223 ], [ 98.083201487445365, 14.000741783479889 ], [ 98.083280579695341, 14.000760015754816 ], [ 98.083327982979242, 14.000775589710926 ], [ 98.083536817058175, 14.000823729921763 ], [ 98.083691083764123, 14.000844819373377 ], [ 98.083748323097765, 14.000858014109779 ], [ 98.083777742521505, 14.00087074970607 ], [ 98.083981114224159, 14.000937565867474 ], [ 98.084189948617308, 14.000985706144682 ], [ 98.084389022870454, 14.001012921109966 ], [ 98.084406168003852, 14.001018553999602 ], [ 98.08443937202658, 14.001026208167701 ], [ 98.084585582679367, 14.001115764543075 ], [ 98.084771389180219, 14.001207964230971 ], [ 98.084964936011019, 14.001283470390137 ], [ 98.085164653973123, 14.001341670842121 ], [ 98.085206123038205, 14.001351794453253 ], [ 98.08548471810181, 14.001402348961911 ], [ 98.085767551882, 14.001419285219823 ], [ 98.085860857388667, 14.001419285275471 ], [ 98.086022411737446, 14.001411965792835 ], [ 98.086086736222654, 14.0014207594516 ], [ 98.086114560043313, 14.001428224115534 ], [ 98.08635950279799, 14.001467038628055 ], [ 98.086488867565322, 14.001473819368346 ], [ 98.086633749865499, 14.001496777946402 ], [ 98.086712895738472, 14.001524430079145 ], [ 98.086933246652279, 14.00157832570773 ], [ 98.087157946729775, 14.001610872177201 ], [ 98.087384831926514, 14.00162175603467 ], [ 98.087395199205019, 14.001621756040839 ], [ 98.087498870924549, 14.001616782850185 ], [ 98.087602542596443, 14.001621756164267 ], [ 98.087623277153483, 14.001621756176609 ], [ 98.087850168228869, 14.001610872021022 ], [ 98.088074874068653, 14.001578324129763 ], [ 98.088295230458925, 14.001524425978142 ], [ 98.088509115079532, 14.001449696672593 ], [ 98.088649617406375, 14.001384806727009 ], [ 98.088741018450264, 14.001362450419286 ], [ 98.08895490284732, 14.001287721169334 ], [ 98.089050706503073, 14.001243474971924 ], [ 98.089068941486602, 14.001237103826004 ], [ 98.089274294091837, 14.001142263198219 ], [ 98.089469137164329, 14.001028224608195 ], [ 98.089479564722737, 14.001020672813706 ], [ 98.089589505312503, 14.000959592748078 ], [ 98.089790804234212, 14.000817914894158 ], [ 98.089797641362495, 14.000811918681624 ], [ 98.089832272696725, 14.000787544490473 ], [ 98.08988807791944, 14.000738602875247 ], [ 98.089904842357853, 14.00072680374344 ], [ 98.090089452494126, 14.000564899080139 ], [ 98.090099819511423, 14.00055477568187 ], [ 98.090120553883594, 14.000534528555713 ], [ 98.090219085802005, 14.000427397086735 ], [ 98.090340260082172, 14.000342112365839 ], [ 98.090347097178437, 14.000336116181025 ], [ 98.090381728502962, 14.00031174199497 ], [ 98.090566338357817, 14.000149837579531 ], [ 98.090587072504533, 14.000129590673508 ], [ 98.09060780687669, 14.000109343547361 ], [ 98.090748389937673, 13.999959107133172 ], [ 98.090874563850178, 13.99979713240722 ], [ 98.090985305756476, 13.999624732491471 ], [ 98.091079717911668, 13.999443305021906 ], [ 98.091129601873277, 13.999321374895787 ], [ 98.091171751871087, 13.9992343502089 ], [ 98.09124827323204, 13.999025511341443 ], [ 98.091303463151718, 13.998810354371665 ], [ 98.091336790200145, 13.99859095130055 ], [ 98.091346845661377, 13.998391041907887 ], [ 98.09135190256076, 13.998388232426299 ], [ 98.091362505786478, 13.998380769686777 ], [ 98.091403738186202, 13.998357862044571 ], [ 98.091414341410996, 13.998350399305659 ], [ 98.091455573811416, 13.998327491662973 ], [ 98.091475593646351, 13.998313401344806 ], [ 98.091486675168539, 13.998307244739877 ], [ 98.091487861818266, 13.998306409554642 ], [ 98.091559245062498, 13.998266750899356 ], [ 98.091569848284763, 13.998259288162071 ], [ 98.091611080688637, 13.998236380517177 ], [ 98.091612267335776, 13.998235545333758 ], [ 98.091683650583008, 13.998195886676411 ], [ 98.091694253802729, 13.998188423940785 ], [ 98.091735486208492, 13.998165516294627 ], [ 98.091755506039078, 13.998151425978993 ], [ 98.091766587565786, 13.998145269371419 ], [ 98.091786607395534, 13.998131179056303 ], [ 98.091797688922441, 13.998125022448598 ], [ 98.091808292139902, 13.998117559714441 ], [ 98.091849524548024, 13.998094652066756 ], [ 98.091869544376763, 13.998080561752198 ], [ 98.091880625905432, 13.998074405143463 ], [ 98.091900645733077, 13.998060314829591 ], [ 98.09191172726176, 13.99805415822085 ], [ 98.09192233047709, 13.998046695488071 ], [ 98.091963562887685, 13.998023787838786 ], [ 98.091983582714235, 13.998009697525527 ], [ 98.091994664244538, 13.998003540915837 ], [ 98.092014684070634, 13.997989450602843 ], [ 98.09202576560142, 13.997983293992858 ], [ 98.092045785426848, 13.997969203680279 ], [ 98.09205686695816, 13.997963047069987 ], [ 98.092076886783502, 13.997948956757401 ], [ 98.092087968315823, 13.997942800146527 ], [ 98.092107988129797, 13.997928709841867 ], [ 98.092119069650053, 13.997922553237768 ], [ 98.092188545687591, 13.997873654741213 ], [ 98.092191639474407, 13.997871935913698 ], [ 98.092392935902282, 13.997730259710655 ], [ 98.092416095588902, 13.997709948481624 ], [ 98.092444771362125, 13.997689765913305 ], [ 98.092451608377388, 13.997683769797591 ], [ 98.092486239823856, 13.997659395510182 ], [ 98.092542044873824, 13.99761045402772 ], [ 98.092558252808871, 13.997599046565963 ], [ 98.092558554241108, 13.997522220011197 ], [ 98.092645592195751, 13.997522545605216 ], [ 98.092743417511585, 13.997436751893526 ], [ 98.092764151658542, 13.997416504987264 ], [ 98.092784885804775, 13.997396258081704 ], [ 98.092805619952856, 13.99737601117436 ], [ 98.092826354098989, 13.997355764268896 ], [ 98.092837015525319, 13.997345353380732 ], [ 98.092837381551348, 13.997252033197014 ], [ 98.092923574603418, 13.99725235552574 ], [ 98.093012884355133, 13.997155250969877 ], [ 98.093020675441196, 13.997144695413807 ], [ 98.093085453756444, 13.997074263344059 ], [ 98.093101829809854, 13.99705207666001 ], [ 98.093137289012091, 13.997013522623496 ], [ 98.093141683822139, 13.997007568426096 ], [ 98.093197374108058, 13.996947535948246 ], [ 98.093217499599618, 13.996920993987358 ], [ 98.093272060742265, 13.996861670823977 ], [ 98.093284054782998, 13.996845420999346 ], [ 98.093311411682691, 13.996815931066163 ], [ 98.093341457000022, 13.996776306607662 ], [ 98.093365364180073, 13.996750312836271 ], [ 98.093390325235887, 13.996716494972933 ], [ 98.093396465290155, 13.996709819020895 ], [ 98.093422591443669, 13.996674422653342 ], [ 98.093550970047488, 13.996505113836312 ], [ 98.093571704282226, 13.996474743183013 ], [ 98.093716082008115, 13.996231798945928 ], [ 98.093726449060568, 13.99621155186203 ], [ 98.093813402170426, 13.996020016749755 ], [ 98.093881819027814, 13.995821442509262 ], [ 98.093931111817398, 13.99561753536252 ], [ 98.093960857048813, 13.995410047349539 ], [ 98.093970799193826, 13.995200761273862 ], [ 98.093970798788575, 13.995160267271663 ], [ 98.093959650709778, 13.994938725856819 ], [ 98.093926318314857, 13.994719318216138 ], [ 98.093915980397853, 13.994679019497575 ], [ 98.0939159507341, 13.994678824238349 ], [ 98.093860755104359, 13.99446366338212 ], [ 98.093836855308354, 13.994398441157729 ], [ 98.093830653198339, 13.994380441042654 ], [ 98.093829969051257, 13.994377611189437 ], [ 98.09376154879115, 13.994179037995094 ], [ 98.093674592786869, 13.993987504222524 ], [ 98.093664225462533, 13.993967257312278 ], [ 98.093541522884038, 13.993756663548227 ], [ 98.093396439746797, 13.993560105361274 ], [ 98.093230643295129, 13.993379841450475 ], [ 98.093220276006292, 13.993369717924349 ], [ 98.093209908716759, 13.993359594397521 ], [ 98.093199541426799, 13.993349470870276 ], [ 98.09318917413573, 13.993339347341959 ], [ 98.093178806949666, 13.993329223916176 ], [ 98.093009562903546, 13.993179515359593 ], [ 98.092899229944607, 13.99309974167616 ], [ 98.092899788119325, 13.993099014951605 ], [ 98.092858319522279, 13.993068644709904 ], [ 98.092853798930207, 13.993065634185063 ], [ 98.092849082133441, 13.994268549317731 ], [ 98.092571322555671, 13.994267510612593 ], [ 98.09257025865432, 13.994538736429538 ], [ 98.092014738915807, 13.99453665802373 ], [ 98.092018996989268, 13.993451754886621 ], [ 98.091741238456223, 13.993450715290644 ], [ 98.091740173646414, 13.993721941063175 ], [ 98.091462414810579, 13.993720901128379 ], [ 98.091461349652505, 13.993992126873833 ], [ 98.09118359051385, 13.993991086600206 ], [ 98.091185721458331, 13.99344863514508 ], [ 98.090074687735409, 13.99344447103952 ], [ 98.090073620972433, 13.993715696686257 ], [ 98.089795862273078, 13.993714654844203 ], [ 98.089796929361569, 13.993443429218456 ], [ 98.089519171010494, 13.99344238707952 ], [ 98.089520238401732, 13.993171161468632 ], [ 98.089797996427279, 13.993172203586571 ], [ 98.089799063470238, 13.992900977948555 ], [ 98.090354578938616, 13.992903061188875 ], [ 98.090353512546685, 13.993174286868859 ], [ 98.090909028757125, 13.9931763688797 ], [ 98.090910094498028, 13.992905143157772 ], [ 98.091187852311862, 13.992906183665431 ], [ 98.091186786896458, 13.993177409408325 ], [ 98.092297819681093, 13.993181568344184 ], [ 98.092298883794442, 13.99291034251751 ], [ 98.092021125889715, 13.992909303281273 ], [ 98.092022459016803, 13.992569605829338 ], [ 98.091967350674182, 13.992547315857614 ], [ 98.09195520417174, 13.9925413853792 ], [ 98.091723115865989, 13.992443158534734 ], [ 98.091599400712894, 13.992405835514516 ], [ 98.091594827257964, 13.992399508302821 ], [ 98.091580404411431, 13.99236773976944 ], [ 98.091570037009475, 13.992347492707562 ], [ 98.09155966960914, 13.99232724564888 ], [ 98.091558742030543, 13.992325434130464 ], [ 98.091518199896854, 13.992236133879146 ], [ 98.091507832572518, 13.992215886968868 ], [ 98.091393342136982, 13.992017870304768 ], [ 98.091340780533116, 13.991945153201257 ], [ 98.091280527405061, 13.991840942542838 ], [ 98.091273400076432, 13.991820257170616 ], [ 98.091259734658564, 13.991790157030234 ], [ 98.0912526651788, 13.991769639550169 ], [ 98.091230724136807, 13.991721311097342 ], [ 98.09121314260824, 13.991673330733743 ], [ 98.091116021939484, 13.991472818994337 ], [ 98.090999242315121, 13.991282568404156 ], [ 98.09095927309852, 13.991229944089634 ], [ 98.090897862911703, 13.991124546032024 ], [ 98.090897007503372, 13.991123387127965 ], [ 98.090856393416303, 13.991053681320532 ], [ 98.090852036490901, 13.991047778573682 ], [ 98.090832966759223, 13.991014813221277 ], [ 98.090697978153557, 13.990828318605564 ], [ 98.090585799724508, 13.990702503152763 ], [ 98.090483229293113, 13.990563540912868 ], [ 98.090400028285956, 13.990473079769615 ], [ 98.090391948944244, 13.990462133895424 ], [ 98.090364175441877, 13.990462029793086 ], [ 98.090362043044905, 13.991004481257292 ], [ 98.090084287577696, 13.991003439942927 ], [ 98.090081087835145, 13.99181711703031 ], [ 98.089803331414302, 13.991816075335171 ], [ 98.089802264462449, 13.992087300997712 ], [ 98.08896899436013, 13.992084173942313 ], [ 98.08896792640904, 13.992355399535723 ], [ 98.087856898623102, 13.992351225594716 ], [ 98.087857967876161, 13.992080000085396 ], [ 98.087580211312201, 13.992078955826573 ], [ 98.087579141733656, 13.992350181314853 ], [ 98.087301384867033, 13.992349136717152 ], [ 98.087298175017935, 13.993162813082062 ], [ 98.087575932861057, 13.993163857742902 ], [ 98.087574863191207, 13.993435083206654 ], [ 98.087297105022571, 13.993434038524768 ], [ 98.087296035004371, 13.993705263961338 ], [ 98.0864627596589, 13.993702127945301 ], [ 98.086459546537455, 13.994515804028698 ], [ 98.086181787158054, 13.994514757991057 ], [ 98.086180715746309, 13.994785983318852 ], [ 98.085625196405005, 13.994783890247726 ], [ 98.085626268467848, 13.994512664962095 ], [ 98.085348509157058, 13.994511617970776 ], [ 98.085349581522564, 13.994240392700098 ], [ 98.084516304704138, 13.994237249882088 ], [ 98.084518451319695, 13.993694799448956 ], [ 98.084796209585207, 13.993695847330628 ], [ 98.084795136614417, 13.993967072571371 ], [ 98.085350653865191, 13.993969167423291 ], [ 98.085351726184925, 13.993697942140349 ], [ 98.085629484519103, 13.993698989068399 ], [ 98.085630556490443, 13.993427763758234 ], [ 98.085908314521987, 13.993428810347325 ], [ 98.085910457745015, 13.992886359666427 ], [ 98.085354943006848, 13.992884266254725 ], [ 98.0853570874404, 13.992341815633647 ], [ 98.085634844147037, 13.992342862456246 ], [ 98.085639131437631, 13.991257961056133 ], [ 98.085361376032893, 13.991256914317896 ], [ 98.085362448123803, 13.99098568897363 ], [ 98.085084693067415, 13.990984641938672 ], [ 98.085083620651034, 13.991255867261842 ], [ 98.084805865292068, 13.99125481988797 ], [ 98.084808010752852, 13.990712369277707 ], [ 98.083696992149655, 13.990708176773014 ], [ 98.08369484408523, 13.991250627214331 ], [ 98.083417088840818, 13.991249578251383 ], [ 98.083416014448744, 13.991520803441711 ], [ 98.083138258901798, 13.991519754139805 ], [ 98.083136109397913, 13.992062204459778 ], [ 98.082858353222946, 13.992061154797756 ], [ 98.082859428311835, 13.991789929661984 ], [ 98.082581672485276, 13.991788879703281 ], [ 98.0825827478767, 13.99151765458253 ], [ 98.082304992398576, 13.99151660432716 ], [ 98.082306068092493, 13.991245379221436 ], [ 98.081750557856068, 13.991243277799573 ], [ 98.08174948151121, 13.991514502862957 ], [ 98.082027236943418, 13.991515553753969 ], [ 98.082026160901052, 13.99178677883239 ], [ 98.081748405143372, 13.991785727920204 ], [ 98.081747328752584, 13.992056952971325 ], [ 98.081469572692413, 13.992055901720134 ], [ 98.08146634240569, 13.992869576773147 ], [ 98.081744099442346, 13.992870628087877 ], [ 98.081741946454002, 13.993413078134916 ], [ 98.081186431101628, 13.993410975102863 ], [ 98.081185353921953, 13.993682200074815 ], [ 98.080907595954727, 13.993681148060796 ] ], [ [ 98.092013674340663, 13.994807883792676 ], [ 98.091180393926621, 13.994804763736894 ], [ 98.091181459478435, 13.994533538030796 ], [ 98.092014738915807, 13.99453665802373 ], [ 98.092013674340663, 13.994807883792676 ] ], [ [ 98.091739108813869, 13.993993166829577 ], [ 98.091738043958614, 13.994264392589844 ], [ 98.091460284471694, 13.994263352613151 ], [ 98.091461349652505, 13.993992126873833 ], [ 98.091739108813869, 13.993993166829577 ] ], [ [ 98.082025084835735, 13.992058003904683 ], [ 98.082024008747453, 13.99232922897084 ], [ 98.081746252338817, 13.992328178016308 ], [ 98.081747328752584, 13.992056952971325 ], [ 98.082025084835735, 13.992058003904683 ] ], [ [ 98.086989368618219, 14.001027302841024 ], [ 98.086711601377985, 14.001026256933752 ], [ 98.086710530068956, 14.001297482156453 ], [ 98.086432762525845, 14.001296435910071 ], [ 98.086433834160601, 14.001025210708434 ], [ 98.086156066966083, 14.001024164165068 ], [ 98.086159282710284, 14.000210488586569 ], [ 98.08671481516798, 14.000212581228839 ], [ 98.086715886385605, 13.999941355981592 ], [ 98.086993652323031, 13.999942401804626 ], [ 98.086997935662367, 13.998857500670066 ], [ 98.08727570031995, 13.998858546090865 ], [ 98.087274629845055, 13.99912977140476 ], [ 98.087552394851144, 13.999130816528607 ], [ 98.087548114025864, 14.000215717807029 ], [ 98.087270347717066, 14.000214672598995 ], [ 98.087269277127987, 14.000485897882214 ], [ 98.086991510516313, 14.000484852335099 ], [ 98.086989368618219, 14.001027302841024 ] ], [ [ 98.087278911607655, 13.998044870112368 ], [ 98.087556675311134, 13.998045915152034 ], [ 98.087557745369054, 13.997774689792548 ], [ 98.087279981991216, 13.997773644773929 ], [ 98.087282122689814, 13.997231194078662 ], [ 98.087559885416425, 13.997232239055185 ], [ 98.087560955405849, 13.996961013677302 ], [ 98.087838717829669, 13.996962058314827 ], [ 98.08784192668422, 13.996148382081252 ], [ 98.088397449646706, 13.996150470276275 ], [ 98.088395311735553, 13.99669292118891 ], [ 98.088117549591715, 13.996691877208313 ], [ 98.088115410938101, 13.997234328054363 ], [ 98.087837648165845, 13.997233283713753 ], [ 98.087833369282336, 13.998318185248104 ], [ 98.087555605230378, 13.998317140505376 ], [ 98.087553465000369, 13.998859591193668 ], [ 98.08727570031995, 13.998858546090865 ], [ 98.087278911607655, 13.998044870112368 ] ], [ [ 98.08839958746664, 13.995608019339105 ], [ 98.088677348330933, 13.995609062917675 ], [ 98.088678416881109, 13.995337837418868 ], [ 98.08895617744264, 13.995338880658503 ], [ 98.08895404097062, 13.99588133169201 ], [ 98.088676279757948, 13.995880288410346 ], [ 98.088675211162169, 13.996151513896885 ], [ 98.088397449646706, 13.996150470276275 ], [ 98.08839958746664, 13.995608019339105 ] ], [ [ 98.088958313823483, 13.994796429600468 ], [ 98.089236073756666, 13.994797472480174 ], [ 98.089237141587347, 13.994526246920946 ], [ 98.089514901217768, 13.994527289461752 ], [ 98.089515968700127, 13.994256063875394 ], [ 98.089793728027786, 13.994257106077312 ], [ 98.089791593691402, 13.994799557285889 ], [ 98.089513833712644, 13.99479851504198 ], [ 98.08951276618474, 13.995069740616076 ], [ 98.089235005903205, 13.995068698033267 ], [ 98.08923393802695, 13.995339923580223 ], [ 98.08895617744264, 13.995338880658503 ], [ 98.088958313823483, 13.994796429600468 ] ], [ [ 98.08256553885991, 13.995857255778549 ], [ 98.082287778173409, 13.995856205184607 ], [ 98.082288854234662, 13.995584980177021 ], [ 98.082566614595606, 13.9955860307498 ], [ 98.082568765998133, 13.995043580673901 ], [ 98.082846525730886, 13.995044630886456 ], [ 98.082850826958321, 13.993959730576435 ], [ 98.083128585411828, 13.993960780386494 ], [ 98.083129660335814, 13.993689555272505 ], [ 98.083685176660595, 13.993691653896702 ], [ 98.083683028091841, 13.994234104203102 ], [ 98.083405269266933, 13.994233055007667 ], [ 98.083404194622631, 13.994504280130526 ], [ 98.083126435495089, 13.994503230596067 ], [ 98.083125360502308, 13.994774455691658 ], [ 98.083403119955378, 13.994775505247262 ], [ 98.083402045265217, 13.995046730357853 ], [ 98.083679805066794, 13.995047779616691 ], [ 98.083680879431398, 13.994776554484966 ], [ 98.084236398452191, 13.994778652006676 ], [ 98.084229955827539, 13.996406002958556 ], [ 98.08395219435225, 13.996404954229915 ], [ 98.083951120175669, 13.996676179345966 ], [ 98.083673358397704, 13.996675130278259 ], [ 98.083672283872616, 13.996946355367049 ], [ 98.083950045976195, 13.996947404455886 ], [ 98.083948971753799, 13.997218629559674 ], [ 98.083671209324592, 13.997217580449702 ], [ 98.08367013475366, 13.997488805526222 ], [ 98.083392372021763, 13.997487756077161 ], [ 98.083390222159863, 13.998030206169529 ], [ 98.083112458799633, 13.998029156360221 ], [ 98.083111383508651, 13.998300381376058 ], [ 98.082555856205772, 13.99829828076121 ], [ 98.082556932148051, 13.998027055787677 ], [ 98.082834695462381, 13.998028106232939 ], [ 98.082836846626805, 13.997485656225154 ], [ 98.08228132132362, 13.997483555101294 ], [ 98.082283473698723, 13.996941105153603 ], [ 98.082561235687606, 13.996942155832192 ], [ 98.08256553885991, 13.995857255778549 ] ], [ [ 98.092286112935454, 13.996165052032895 ], [ 98.092008351124122, 13.996164012545419 ], [ 98.092009415812868, 13.995892786807138 ], [ 98.092287177298601, 13.995893826273676 ], [ 98.092286112935454, 13.996165052032895 ] ], [ [ 98.082300689393293, 13.992601504688725 ], [ 98.082578446173343, 13.992602555028737 ], [ 98.082579521633619, 13.992331329926385 ], [ 98.082857278111135, 13.992332379927394 ], [ 98.082855127818647, 13.992874830168272 ], [ 98.082299613584581, 13.992872729763782 ], [ 98.082300689393293, 13.992601504688725 ] ], [ [ 98.090357777977843, 13.992089384112131 ], [ 98.090635534769689, 13.992090425192579 ], [ 98.090634468771526, 13.992361650911937 ], [ 98.090356711654181, 13.992360609810511 ], [ 98.090357777977843, 13.992089384112131 ] ], [ [ 98.0906366007451, 13.991819199467095 ], [ 98.090914357234212, 13.991820240208739 ], [ 98.090913291584272, 13.992091465955195 ], [ 98.090635534769689, 13.992090425192579 ], [ 98.0906366007451, 13.991819199467095 ] ] ], [ [ [ 98.084264306961799, 13.987726795330532 ], [ 98.083986555901973, 13.987725747277794 ], [ 98.083981188456661, 13.989081873777995 ], [ 98.083425683151845, 13.989079776508014 ], [ 98.08342353471167, 13.989622226980647 ], [ 98.083701288003439, 13.989623275816788 ], [ 98.083700214074369, 13.989894501065042 ], [ 98.084255721377531, 13.989896597826242 ], [ 98.08425464807641, 13.990167823110617 ], [ 98.084532402087788, 13.990168871035655 ], [ 98.084531329089188, 13.990440096335011 ], [ 98.084809083448903, 13.990441143963372 ], [ 98.084808010752852, 13.990712369277707 ], [ 98.085363520191848, 13.990714463623231 ], [ 98.085364592237013, 13.9904432382667 ], [ 98.085920101116642, 13.990445331298838 ], [ 98.085919029722376, 13.990716556697546 ], [ 98.086196784521945, 13.990717602757996 ], [ 98.086195713430257, 13.990988828171647 ], [ 98.087584489398111, 13.990994053812132 ], [ 98.087585558862529, 13.990722828293197 ], [ 98.088974333773763, 13.990728045883287 ], [ 98.088975401588115, 13.990456820253087 ], [ 98.089253156313319, 13.990457862796687 ], [ 98.089254223779449, 13.990186637139349 ], [ 98.089531978201975, 13.99018767934415 ], [ 98.089533045319897, 13.989916453659678 ], [ 98.089810799439775, 13.989917495525692 ], [ 98.089811085784262, 13.989844693137892 ], [ 98.089714012231539, 13.98975876435173 ], [ 98.089531923762422, 13.989626821315845 ], [ 98.089361755095055, 13.989527125611572 ], [ 98.089288317615825, 13.989459664320563 ], [ 98.089264502080397, 13.98944182984444 ], [ 98.089229850816409, 13.989402880874334 ], [ 98.089060237816838, 13.98924707065129 ], [ 98.089005013885739, 13.989205715691361 ], [ 98.088980053966282, 13.989178577721988 ], [ 98.088969686675213, 13.989168454193686 ], [ 98.088959319489106, 13.989158330767886 ], [ 98.088791013769679, 13.989009373936584 ], [ 98.08874674835242, 13.988977316333479 ], [ 98.08868977007107, 13.988915366029831 ], [ 98.08867940277986, 13.988905242501362 ], [ 98.088669035490426, 13.988895118974643 ], [ 98.088658668304305, 13.988884995548844 ], [ 98.088594695274466, 13.988828012963001 ], [ 98.088426302518684, 13.98882738055474 ], [ 98.088425234190268, 13.989098606179695 ], [ 98.08814748116059, 13.989097562787832 ], [ 98.088146412483951, 13.989368788385626 ], [ 98.087868659151667, 13.989367744654965 ], [ 98.08786759012682, 13.989638970225597 ], [ 98.087589836491944, 13.989637926156124 ], [ 98.087588767118817, 13.989909151699587 ], [ 98.087311013181349, 13.989908107291292 ], [ 98.087313152555595, 13.989365656240324 ], [ 98.087035399291779, 13.989364611556342 ], [ 98.087036469270075, 13.989093386042711 ], [ 98.087869728153734, 13.989096519078201 ], [ 98.087871866089372, 13.988554067906275 ], [ 98.08759411375614, 13.988553023920957 ], [ 98.087595183015125, 13.988281798346838 ], [ 98.087872935022972, 13.98828284231112 ], [ 98.087873546814961, 13.988127606819234 ], [ 98.087805186155819, 13.988067136833489 ], [ 98.087621662360263, 13.987934444115423 ], [ 98.087590560948144, 13.987914197296622 ], [ 98.087588671790797, 13.987913093566375 ], [ 98.087499004233266, 13.987838151241572 ], [ 98.087320441875789, 13.987715368110413 ], [ 98.087130824045815, 13.987609565106286 ], [ 98.086931838786356, 13.987521684113053 ], [ 98.08687124085786, 13.987501392064948 ], [ 98.086734388970299, 13.987442724680172 ], [ 98.086532600244894, 13.987377042942725 ], [ 98.086325489075506, 13.987329727213792 ], [ 98.086114804452592, 13.987301177056617 ], [ 98.085902325540118, 13.987291633564904 ], [ 98.085881591388301, 13.987291633577271 ], [ 98.085654720653878, 13.987302517184043 ], [ 98.085430034764371, 13.987335062938792 ], [ 98.085346266267251, 13.987355552732641 ], [ 98.085199804140601, 13.987318266241394 ], [ 98.084966544689308, 13.987283137480432 ], [ 98.084730834519448, 13.987271387271473 ], [ 98.084710100367644, 13.987271387283853 ], [ 98.084483229736108, 13.987282270886213 ], [ 98.084265941173399, 13.987313745142709 ], [ 98.084264306961799, 13.987726795330532 ] ], [ [ 98.085086837831511, 13.990442191273933 ], [ 98.085087910179226, 13.990170965932364 ], [ 98.085365664259285, 13.99017201290404 ], [ 98.085364592237013, 13.9904432382667 ], [ 98.085086837831511, 13.990442191273933 ] ], [ [ 98.087037539225506, 13.988822160522949 ], [ 98.086759786635369, 13.988821115563315 ], [ 98.086760856893378, 13.988549890058479 ], [ 98.087038609158128, 13.988550934997058 ], [ 98.087037539225506, 13.988822160522949 ] ] ], [ [ [ 98.092576641721877, 13.992911381435883 ], [ 98.092646139772199, 13.992911641334816 ], [ 98.092576828066257, 13.992863870041111 ], [ 98.092576641721877, 13.992911381435883 ] ] ] ] } },
{ "type": "Feature", "properties": { "zone": "B", "alpha_deg": 16.4, "label": "Within reach only of a channelised flow (alpha 16.4 deg)" }, "geometry": { "type": "MultiPolygon", "coordinates": [ [ [ [ 98.08175701544279, 13.989615927290485 ], [ 98.081755939235777, 13.989887152390667 ], [ 98.082589199743197, 13.98989030372924 ], [ 98.08258812448949, 13.990161528886786 ], [ 98.082310370638623, 13.990160478737216 ], [ 98.082308219411473, 13.990702928991592 ], [ 98.08091944724724, 13.990697673265117 ], [ 98.080918369971982, 13.99096889827721 ], [ 98.080640615282618, 13.990967846157311 ], [ 98.080637382342488, 13.991781521093195 ], [ 98.080915138008223, 13.991782573276687 ], [ 98.080911905837539, 13.992596248220963 ], [ 98.080356392576149, 13.992594143408937 ], [ 98.080348845482504, 13.994492717767409 ], [ 98.080071086607674, 13.994491664736142 ], [ 98.080070008033871, 13.99476288959875 ], [ 98.079792248856506, 13.994761836228371 ], [ 98.079791169934126, 13.995033061063623 ], [ 98.07951341045424, 13.995032007354123 ], [ 98.079511251889272, 13.995574456963773 ], [ 98.079789012020299, 13.995575510715724 ], [ 98.079787933028854, 13.99584673553257 ], [ 98.079510172572242, 13.995845681759397 ], [ 98.07950909323219, 13.996116906548883 ], [ 98.078953571736932, 13.9961147980063 ], [ 98.078952491722674, 13.996386022747183 ], [ 98.078396969668418, 13.996383912890387 ], [ 98.078395888979912, 13.996655137582637 ], [ 98.078673650321122, 13.996656192691255 ], [ 98.078670409094116, 13.997469866794951 ], [ 98.078948171435201, 13.997470921649359 ], [ 98.078946011153192, 13.998013371063633 ], [ 98.079223774168568, 13.998014425642555 ], [ 98.079222694318631, 13.99828565036173 ], [ 98.079500457682684, 13.998286704643913 ], [ 98.079497223681614, 13.999099195554171 ], [ 98.07962337112248, 13.999187980610184 ], [ 98.079839043021821, 13.999307802423095 ], [ 98.079774305250055, 13.999271835798696 ], [ 98.079776062603386, 13.998830208112967 ], [ 98.080053826664795, 13.99883126180163 ], [ 98.080054905583836, 13.99856003703105 ], [ 98.08033266934261, 13.998561090380507 ], [ 98.080330512132804, 13.99910353995795 ], [ 98.080052747722732, 13.999102486566066 ], [ 98.080051668757648, 13.999373711324372 ], [ 98.079987706336738, 13.999373468704059 ], [ 98.079974064262572, 13.999365889522009 ], [ 98.080015284326805, 13.999388790315242 ], [ 98.080036018805686, 13.999398913904846 ], [ 98.080314396244816, 13.999511511603826 ], [ 98.080438257511346, 13.999606424543037 ], [ 98.080629843532108, 13.999725597135985 ], [ 98.080502927597934, 13.999646651421761 ], [ 98.080606119915387, 13.999647042627144 ], [ 98.080607198252139, 13.999375817832556 ], [ 98.080884963033895, 13.999376870609636 ], [ 98.080886041021984, 13.999105645787711 ], [ 98.081163805501077, 13.999106698225592 ], [ 98.081167038350415, 13.998293023659425 ], [ 98.080889274848275, 13.998291971285125 ], [ 98.080890352744376, 13.998020746438655 ], [ 98.080334826460401, 13.99801864077852 ], [ 98.08033590498475, 13.99774741596832 ], [ 98.080058142202901, 13.997746362682502 ], [ 98.080062457372748, 13.996661463465212 ], [ 98.079784695916359, 13.996660409946303 ], [ 98.07978577497687, 13.996389185147862 ], [ 98.080063536107673, 13.996390238645551 ], [ 98.080065693508473, 13.99584778898782 ], [ 98.0803434540111, 13.995848842125151 ], [ 98.080345610668687, 13.995306392400458 ], [ 98.080623370543179, 13.995307445177453 ], [ 98.080624448511898, 13.995036220284696 ], [ 98.080902208083842, 13.99503727272258 ], [ 98.080907595954727, 13.993681148060796 ], [ 98.081185353921953, 13.993682200074815 ], [ 98.081186431101628, 13.993410975102863 ], [ 98.081741946454002, 13.993413078134916 ], [ 98.081744099442346, 13.992870628087877 ], [ 98.08146634240569, 13.992869576773147 ], [ 98.081469572692413, 13.992055901720134 ], [ 98.081747328752584, 13.992056952971325 ], [ 98.081748405143372, 13.991785727920204 ], [ 98.082026160901052, 13.99178677883239 ], [ 98.082027236943418, 13.991515553753969 ], [ 98.08174948151121, 13.991514502862957 ], [ 98.081750557856068, 13.991243277799573 ], [ 98.082306068092493, 13.991245379221436 ], [ 98.082304992398576, 13.99151660432716 ], [ 98.0825827478767, 13.99151765458253 ], [ 98.082581672485276, 13.991788879703281 ], [ 98.082859428311835, 13.991789929661984 ], [ 98.082858353222946, 13.992061154797756 ], [ 98.083136109397913, 13.992062204459778 ], [ 98.083138258901798, 13.991519754139805 ], [ 98.083416014448744, 13.991520803441711 ], [ 98.083417088840818, 13.991249578251383 ], [ 98.08369484408523, 13.991250627214331 ], [ 98.083696992149655, 13.990708176773014 ], [ 98.084808010752852, 13.990712369277707 ], [ 98.084809083448903, 13.990441143963372 ], [ 98.084531329089188, 13.990440096335011 ], [ 98.084532402087788, 13.990168871035655 ], [ 98.08425464807641, 13.990167823110617 ], [ 98.084255721377531, 13.989896597826242 ], [ 98.083700214074369, 13.989894501065042 ], [ 98.083701288003439, 13.989623275816788 ], [ 98.08342353471167, 13.989622226980647 ], [ 98.083425683151845, 13.989079776508014 ], [ 98.083981188456661, 13.989081873777995 ], [ 98.083986555901973, 13.987725747277794 ], [ 98.084264306961799, 13.987726795330532 ], [ 98.084265941173399, 13.987313745142709 ], [ 98.084483229736108, 13.987282270886213 ], [ 98.084258543948252, 13.987314816627441 ], [ 98.084038206782083, 13.987368711080366 ], [ 98.083824340140126, 13.987443435224543 ], [ 98.083619003616775, 13.987538269444231 ], [ 98.08342417466524, 13.987652300458064 ], [ 98.083241729555354, 13.987784430113592 ], [ 98.083196509903601, 13.987824451306931 ], [ 98.083185457134945, 13.987832230409145 ], [ 98.083145974539121, 13.987866856723993 ], [ 98.083123253591552, 13.987882848064245 ], [ 98.083067448219808, 13.987931789480454 ], [ 98.083050682773205, 13.987943589250111 ], [ 98.08301120017147, 13.987978215569619 ], [ 98.082988479228376, 13.987994206906338 ], [ 98.082948996624907, 13.98802883322718 ], [ 98.082926275684486, 13.988044824561829 ], [ 98.082870470304428, 13.988093765984368 ], [ 98.082853704865428, 13.988105565748253 ], [ 98.082814222256658, 13.988140192073308 ], [ 98.082791501320472, 13.988156183404589 ], [ 98.08273569593598, 13.988205124830451 ], [ 98.08271893050275, 13.988216924589981 ], [ 98.082679447889362, 13.988251550918605 ], [ 98.082656726959002, 13.988267542245376 ], [ 98.0826172443427, 13.988302168576316 ], [ 98.082594523414002, 13.988318159901745 ], [ 98.082538718021098, 13.98836710133399 ], [ 98.082521952595997, 13.988378901087362 ], [ 98.082482469975091, 13.988413527421889 ], [ 98.082459749051793, 13.988429518743111 ], [ 98.082403943653219, 13.98847846017965 ], [ 98.08238717823393, 13.988490259928636 ], [ 98.08234769560741, 13.988524886267578 ], [ 98.082324974688873, 13.988540877585047 ], [ 98.082269169284416, 13.988589819026105 ], [ 98.082252403869873, 13.988601618771469 ], [ 98.082212921239105, 13.988636245113748 ], [ 98.082190200325527, 13.98865223642734 ], [ 98.082150717692599, 13.98868686277129 ], [ 98.082127996781679, 13.988702854082831 ], [ 98.082072191369534, 13.988751795529675 ], [ 98.082055425963432, 13.988763595268662 ], [ 98.082015943325217, 13.988798221616763 ], [ 98.081993222419257, 13.988814212924403 ], [ 98.081953739778712, 13.988848839274334 ], [ 98.081931018875167, 13.988864830580086 ], [ 98.081875213454694, 13.988913772033237 ], [ 98.081858448056764, 13.988925571766044 ], [ 98.081818965411088, 13.988960198120003 ], [ 98.081796244512461, 13.988976189421885 ], [ 98.081740439086474, 13.98902513087924 ], [ 98.081723673693958, 13.989036930607922 ], [ 98.081684191043266, 13.989071556965825 ], [ 98.081661470149768, 13.989087548263708 ], [ 98.081621987496504, 13.989122174623635 ], [ 98.081599266604854, 13.989138165920046 ], [ 98.081543461171336, 13.989187107383074 ], [ 98.08152669578709, 13.989198907105509 ], [ 98.081487213128938, 13.989233533469269 ], [ 98.081480757846194, 13.989238076792184 ], [ 98.081479262311674, 13.989614876229908 ], [ 98.08175701544279, 13.989615927290485 ] ], [ [ 98.080333747913002, 13.998289865582578 ], [ 98.080611511369142, 13.99829091859284 ], [ 98.080610433124406, 13.998562143411972 ], [ 98.08033266934261, 13.998561090380507 ], [ 98.080333747913002, 13.998289865582578 ] ], [ [ 98.082591350181758, 13.989347853395754 ], [ 98.082590274973953, 13.989619078565559 ], [ 98.082312521773943, 13.98961802845831 ], [ 98.082313597307163, 13.989346803309664 ], [ 98.082591350181758, 13.989347853395754 ] ] ], [ [ [ 98.082840726424536, 14.000643984118156 ], [ 98.083023152587245, 14.000686036815615 ], [ 98.083172475554633, 14.000735095677614 ], [ 98.083280579695341, 14.000760015754816 ], [ 98.083201487445365, 14.000741783479889 ], [ 98.08337947147426, 14.000742456263223 ], [ 98.083380546646026, 14.000471231281466 ], [ 98.082825014086538, 14.000469130964248 ], [ 98.082824341879984, 14.000638601112961 ], [ 98.082637355243392, 14.000577168121517 ], [ 98.082840726424536, 14.000643984118156 ] ] ], [ [ [ 98.092558809444739, 13.997598654794725 ], [ 98.092645592195751, 13.997522545605216 ], [ 98.092558554241108, 13.997522220011197 ], [ 98.092558252808871, 13.997599046565963 ], [ 98.092542044873824, 13.99761045402772 ], [ 98.092558809444739, 13.997598654794725 ] ] ], [ [ [ 98.092847088471103, 13.997335517142766 ], [ 98.092923574603418, 13.99725235552574 ], [ 98.092837381551348, 13.997252033197014 ], [ 98.092837015525319, 13.997345353380732 ], [ 98.092847088471103, 13.997335517142766 ] ] ], [ [ [ 98.092020061450853, 13.993180529087013 ], [ 98.091742303243336, 13.993179489511979 ], [ 98.091741238456223, 13.993450715290644 ], [ 98.092018996989268, 13.993451754886621 ], [ 98.092020061450853, 13.993180529087013 ] ] ], [ [ [ 98.090317352198184, 13.990361070330648 ], [ 98.090311211721101, 13.990354394037425 ], [ 98.090286250215939, 13.990320576213815 ], [ 98.090120454214343, 13.990140312720964 ], [ 98.090110087028265, 13.990130189295165 ], [ 98.089995101453809, 13.990029286881585 ], [ 98.089892373841394, 13.989917595127988 ], [ 98.089882006655316, 13.989907471702187 ], [ 98.089714012231539, 13.98975876435173 ], [ 98.089811085784262, 13.989844693137892 ], [ 98.089810799439775, 13.989917495525692 ], [ 98.089533045319897, 13.989916453659678 ], [ 98.089531978201975, 13.99018767934415 ], [ 98.089254223779449, 13.990186637139349 ], [ 98.089253156313319, 13.990457862796687 ], [ 98.088975401588115, 13.990456820253087 ], [ 98.088974333773763, 13.990728045883287 ], [ 98.087585558862529, 13.990722828293197 ], [ 98.087584489398111, 13.990994053812132 ], [ 98.088417755252792, 13.9909971853827 ], [ 98.088415618208273, 13.991539636528378 ], [ 98.088137862249638, 13.991538592947283 ], [ 98.088136793367696, 13.991809818489896 ], [ 98.087859037106398, 13.991808774569943 ], [ 98.087857967876161, 13.992080000085396 ], [ 98.087856898623102, 13.992351225594716 ], [ 98.08896792640904, 13.992355399535723 ], [ 98.08896899436013, 13.992084173942313 ], [ 98.089802264462449, 13.992087300997712 ], [ 98.089803331414302, 13.991816075335171 ], [ 98.090081087835145, 13.99181711703031 ], [ 98.090083221019611, 13.991274665644854 ], [ 98.08924995377825, 13.99127153973191 ], [ 98.089252088824409, 13.990729088447893 ], [ 98.08952984389785, 13.990730130694692 ], [ 98.089528776711603, 13.991001356360767 ], [ 98.090084287577696, 13.991003439942927 ], [ 98.090362043044905, 13.991004481257292 ], [ 98.090364175441877, 13.990462029793086 ], [ 98.090391948944244, 13.990462133895424 ], [ 98.090400028285956, 13.990473079769615 ], [ 98.090317352198184, 13.990361070330648 ] ] ], [ [ [ 98.091736979080636, 13.99453561834398 ], [ 98.091181459478435, 13.994533538030796 ], [ 98.091180393926621, 13.994804763736894 ], [ 98.091735914179921, 13.994806844091984 ], [ 98.091736979080636, 13.99453561834398 ] ] ], [ [ [ 98.088676279757948, 13.995880288410346 ], [ 98.088677348330933, 13.995609062917675 ], [ 98.08839958746664, 13.995608019339105 ], [ 98.08839851856807, 13.995879244810757 ], [ 98.088676279757948, 13.995880288410346 ] ] ], [ [ [ 98.083115684534988, 13.997215481275898 ], [ 98.083114609312815, 13.997486706310138 ], [ 98.082836846626805, 13.997485656225154 ], [ 98.082834695462381, 13.998028106232939 ], [ 98.082556932148051, 13.998027055787677 ], [ 98.082555856205772, 13.99829828076121 ], [ 98.083111383508651, 13.998300381376058 ], [ 98.083112458799633, 13.998029156360221 ], [ 98.083390222159863, 13.998030206169529 ], [ 98.083392372021763, 13.997487756077161 ], [ 98.08367013475366, 13.997488805526222 ], [ 98.083671209324592, 13.997217580449702 ], [ 98.083948971753799, 13.997218629559674 ], [ 98.083950045976195, 13.996947404455886 ], [ 98.083672283872616, 13.996946355367049 ], [ 98.083673358397704, 13.996675130278259 ], [ 98.083951120175669, 13.996676179345966 ], [ 98.08395219435225, 13.996404954229915 ], [ 98.084229955827539, 13.996406002958556 ], [ 98.084236398452191, 13.994778652006676 ], [ 98.083680879431398, 13.994776554484966 ], [ 98.083679805066794, 13.995047779616691 ], [ 98.083402045265217, 13.995046730357853 ], [ 98.083398821057131, 13.995860405652834 ], [ 98.083121060301778, 13.995859356012662 ], [ 98.083119985194301, 13.996130581077576 ], [ 98.0828422241363, 13.996129531098333 ], [ 98.082841148680302, 13.996400756135966 ], [ 98.082563387319667, 13.996399705817639 ], [ 98.082561235687606, 13.996942155832192 ], [ 98.082283473698723, 13.996941105153603 ], [ 98.082282397522647, 13.997212330130518 ], [ 98.083115684534988, 13.997215481275898 ] ] ], [ [ [ 98.083405269266933, 13.994233055007667 ], [ 98.083683028091841, 13.994234104203102 ], [ 98.083685176660595, 13.993691653896702 ], [ 98.083407418486743, 13.99369060474354 ], [ 98.083405269266933, 13.994233055007667 ] ] ], [ [ [ 98.083127510464934, 13.994232005494348 ], [ 98.083126435495089, 13.994503230596067 ], [ 98.083404194622631, 13.994504280130526 ], [ 98.083405269266933, 13.994233055007667 ], [ 98.083127510464934, 13.994232005494348 ] ] ], [ [ [ 98.085633772267201, 13.99261408779094 ], [ 98.085356015235064, 13.992613040947251 ], [ 98.085354943006848, 13.992884266254725 ], [ 98.085632700364499, 13.992885313119505 ], [ 98.085633772267201, 13.99261408779094 ] ] ], [ [ [ 98.085085765460917, 13.990713416609371 ], [ 98.084808010752852, 13.990712369277707 ], [ 98.084805865292068, 13.99125481988797 ], [ 98.085083620651034, 13.991255867261842 ], [ 98.085084693067415, 13.990984641938672 ], [ 98.085085765460917, 13.990713416609371 ] ] ], [ [ [ 98.085919029722376, 13.990716556697546 ], [ 98.085920101116642, 13.990445331298838 ], [ 98.085364592237013, 13.9904432382667 ], [ 98.085363520191848, 13.990714463623231 ], [ 98.085919029722376, 13.990716556697546 ] ] ], [ [ [ 98.085917958305245, 13.990987782090119 ], [ 98.086195713430257, 13.990988828171647 ], [ 98.086196784521945, 13.990717602757996 ], [ 98.085919029722376, 13.990716556697546 ], [ 98.085917958305245, 13.990987782090119 ] ] ], [ [ [ 98.086472397789066, 13.991261099363951 ], [ 98.087583419910871, 13.99126527932494 ], [ 98.087584489398111, 13.990994053812132 ], [ 98.086473468578134, 13.990989873935366 ], [ 98.086472397789066, 13.991261099363951 ] ] ], [ [ [ 98.087297105022571, 13.993434038524768 ], [ 98.087574863191207, 13.993435083206654 ], [ 98.087575932861057, 13.993163857742902 ], [ 98.087298175017935, 13.993162813082062 ], [ 98.087297105022571, 13.993434038524768 ] ] ], [ [ [ 98.085350653865191, 13.993969167423291 ], [ 98.084795136614417, 13.993967072571371 ], [ 98.084796209585207, 13.993695847330628 ], [ 98.084518451319695, 13.993694799448956 ], [ 98.084516304704138, 13.994237249882088 ], [ 98.085349581522564, 13.994240392700098 ], [ 98.085350653865191, 13.993969167423291 ] ] ], [ [ [ 98.091463479945915, 13.993449675376798 ], [ 98.091464545058528, 13.993178449619085 ], [ 98.091186786896458, 13.993177409408325 ], [ 98.091187852311862, 13.992906183665431 ], [ 98.090910094498028, 13.992905143157772 ], [ 98.090909028757125, 13.9931763688797 ], [ 98.090353512546685, 13.993174286868859 ], [ 98.090354578938616, 13.992903061188875 ], [ 98.089799063470238, 13.992900977948555 ], [ 98.089797996427279, 13.993172203586571 ], [ 98.089520238401732, 13.993171161468632 ], [ 98.089519171010494, 13.99344238707952 ], [ 98.089796929361569, 13.993443429218456 ], [ 98.089795862273078, 13.993714654844203 ], [ 98.090073620972433, 13.993715696686257 ], [ 98.090074687735409, 13.99344447103952 ], [ 98.091185721458331, 13.99344863514508 ], [ 98.09118359051385, 13.993991086600206 ], [ 98.091461349652505, 13.993992126873833 ], [ 98.091462414810579, 13.993720901128379 ], [ 98.091740173646414, 13.993721941063175 ], [ 98.091741238456223, 13.993450715290644 ], [ 98.091463479945915, 13.993449675376798 ] ] ], [ [ [ 98.091460284471694, 13.994263352613151 ], [ 98.091738043958614, 13.994264392589844 ], [ 98.091739108813869, 13.993993166829577 ], [ 98.091461349652505, 13.993992126873833 ], [ 98.091460284471694, 13.994263352613151 ] ] ], [ [ [ 98.081746252338817, 13.992328178016308 ], [ 98.082024008747453, 13.99232922897084 ], [ 98.082025084835735, 13.992058003904683 ], [ 98.081747328752584, 13.992056952971325 ], [ 98.081746252338817, 13.992328178016308 ] ] ], [ [ [ 98.092287177298601, 13.995893826273676 ], [ 98.092009415812868, 13.995892786807138 ], [ 98.092008351124122, 13.996164012545419 ], [ 98.092286112935454, 13.996165052032895 ], [ 98.092287177298601, 13.995893826273676 ] ] ], [ [ [ 98.082299613584581, 13.992872729763782 ], [ 98.082855127818647, 13.992874830168272 ], [ 98.082857278111135, 13.992332379927394 ], [ 98.082579521633619, 13.992331329926385 ], [ 98.082578446173343, 13.992602555028737 ], [ 98.082300689393293, 13.992601504688725 ], [ 98.082299613584581, 13.992872729763782 ] ] ], [ [ [ 98.090357777977843, 13.992089384112131 ], [ 98.090356711654181, 13.992360609810511 ], [ 98.090634468771526, 13.992361650911937 ], [ 98.090635534769689, 13.992090425192579 ], [ 98.090357777977843, 13.992089384112131 ] ] ], [ [ [ 98.090913291584272, 13.992091465955195 ], [ 98.090914357234212, 13.991820240208739 ], [ 98.0906366007451, 13.991819199467095 ], [ 98.090635534769689, 13.992090425192579 ], [ 98.090913291584272, 13.992091465955195 ] ] ], [ [ [ 98.085365664259285, 13.99017201290404 ], [ 98.085087910179226, 13.990170965932364 ], [ 98.085086837831511, 13.990442191273933 ], [ 98.085364592237013, 13.9904432382667 ], [ 98.085365664259285, 13.99017201290404 ] ] ], [ [ [ 98.087038609158128, 13.988550934997058 ], [ 98.086760856893378, 13.988549890058479 ], [ 98.086759786635369, 13.988821115563315 ], [ 98.087037539225506, 13.988822160522949 ], [ 98.087038609158128, 13.988550934997058 ] ] ] ] } }
]
}
