{
"type": "FeatureCollection",
"name": "reach_zones",
"crs": { "type": "name", "properties": { "name": "urn:ogc:def:crs:OGC:1.3:CRS84" } },
"features": [
{ "type": "Feature", "properties": { "zone": "A", "alpha_deg": 12.6, "label": "Within reach of an open-slope debris flow (alpha 12.6 deg)" }, "geometry": { "type": "MultiPolygon", "coordinates": [ [ [ [ 98.135757368672898, 13.884033030489238 ], [ 98.13547973763221, 13.884032048536186 ], [ 98.135483758592358, 13.882947122764532 ], [ 98.134928499157539, 13.882945158072005 ], [ 98.134929504989003, 13.88267392665376 ], [ 98.134651875626702, 13.882672943854528 ], [ 98.134654893959578, 13.881859249623151 ], [ 98.135210150769652, 13.881861214786698 ], [ 98.135212161592818, 13.881318751855613 ], [ 98.134656906073459, 13.881316786771832 ], [ 98.134657912097978, 13.881045555337057 ], [ 98.134935539524179, 13.881046538016619 ], [ 98.134937550863086, 13.880504075088934 ], [ 98.134659924082172, 13.88050309244926 ], [ 98.134660930041861, 13.880231860996245 ], [ 98.134105677190178, 13.880229894811144 ], [ 98.134106683773538, 13.87995866339196 ], [ 98.133829057702755, 13.879957679846553 ], [ 98.133828050796765, 13.880228911245778 ], [ 98.133550424424982, 13.880227927365198 ], [ 98.13354941717472, 13.880499158738372 ], [ 98.133271790501922, 13.880498174522604 ], [ 98.133270782907388, 13.880769405869721 ], [ 98.133548409902829, 13.880770390105466 ], [ 98.133547402609281, 13.881041621466483 ], [ 98.132714520719944, 13.881038667753623 ], [ 98.13271552898145, 13.880767436452558 ], [ 98.132160275142141, 13.880765465774497 ], [ 98.132161284027291, 13.880494234507346 ], [ 98.132109403032942, 13.880494050313118 ], [ 98.132109395851785, 13.881188201774091 ], [ 98.132122686220654, 13.881430148394816 ], [ 98.132162409709949, 13.881669315018426 ], [ 98.13222810992886, 13.881902953325445 ], [ 98.132239951830854, 13.881937662215602 ], [ 98.132260167297687, 13.881985344300618 ], [ 98.132263635628689, 13.881995510058443 ], [ 98.132283851095281, 13.882043192142854 ], [ 98.132287319426538, 13.882053357901395 ], [ 98.13241283892755, 13.882349419580455 ], [ 98.132424680966665, 13.882372558871692 ], [ 98.132436522918326, 13.882395697992076 ], [ 98.132448364870442, 13.882418837113379 ], [ 98.132460206822444, 13.882441976234462 ], [ 98.132472048774986, 13.882465115356535 ], [ 98.132483890726675, 13.882488254476995 ], [ 98.132495732678748, 13.882511393598222 ], [ 98.132507574630765, 13.882534532719305 ], [ 98.132519416583321, 13.882557671841418 ], [ 98.132531258534954, 13.88258081096177 ], [ 98.132543100486615, 13.882603950082187 ], [ 98.132554942439057, 13.882627089204119 ], [ 98.132561878992902, 13.882640643199759 ], [ 98.132590468084729, 13.882708075956838 ], [ 98.132602310123815, 13.88273121524808 ], [ 98.132645088895899, 13.882803234976762 ], [ 98.132649678055699, 13.882812202173865 ], [ 98.132656614608251, 13.882825756167003 ], [ 98.132685203701413, 13.882893188926706 ], [ 98.132697045740514, 13.882916328217947 ], [ 98.132708887692928, 13.882939467339805 ], [ 98.132720729644618, 13.88296260646027 ], [ 98.132732571596648, 13.882985745581397 ], [ 98.132744413548792, 13.883008884702742 ], [ 98.132756255501263, 13.883032023824711 ], [ 98.132763192051968, 13.883045577814258 ], [ 98.13279178114685, 13.88311301057734 ], [ 98.13280362318595, 13.883136149868585 ], [ 98.132810559735958, 13.88314970385678 ], [ 98.132839148831579, 13.883217136621317 ], [ 98.132850990870679, 13.883240275912563 ], [ 98.132862832822269, 13.88326341503285 ], [ 98.132874674774428, 13.883286554154239 ], [ 98.132886516726444, 13.883309693275329 ], [ 98.132893453275258, 13.883323247261176 ], [ 98.13292204237203, 13.883390680027963 ], [ 98.132933884411116, 13.883413819319209 ], [ 98.132940820959263, 13.883427373303762 ], [ 98.132969410056816, 13.883494806072074 ], [ 98.132981252061896, 13.883517945296857 ], [ 98.132988188643139, 13.883531499346073 ], [ 98.133016777741432, 13.883598932115854 ], [ 98.13302371437517, 13.883612486267657 ], [ 98.133052303474017, 13.883679919038507 ], [ 98.133064145513103, 13.883703058329759 ], [ 98.133075987465205, 13.883726197451042 ], [ 98.13308782941769, 13.883749336573056 ], [ 98.133094746206226, 13.883762851947429 ], [ 98.133101757082031, 13.883776883574356 ], [ 98.13321531196118, 13.883977625244617 ], [ 98.133349105982248, 13.884166090739752 ], [ 98.133501761534546, 13.88434033945396 ], [ 98.133671706781996, 13.884498577165068 ], [ 98.133857191847341, 13.884639174510486 ], [ 98.134056306830061, 13.884760683765666 ], [ 98.134267001472594, 13.884861853752284 ], [ 98.134487106272488, 13.884941642722604 ], [ 98.134714354822592, 13.88499922908721 ], [ 98.134946407149869, 13.885034019875761 ], [ 98.13518087381172, 13.885045656843408 ], [ 98.135202674883757, 13.885045656855716 ], [ 98.135416900855489, 13.885035946704932 ], [ 98.135629286162398, 13.885006899459839 ], [ 98.135753866636989, 13.884978168850051 ], [ 98.135757368672898, 13.884033030489238 ] ] ], [ [ [ 98.134404430540968, 13.874535016562819 ], [ 98.134959669888048, 13.874536981279705 ], [ 98.134958664704627, 13.874808212880303 ], [ 98.135513904783124, 13.874810176376748 ], [ 98.135512900223119, 13.875081408011138 ], [ 98.135235279850576, 13.875080426400526 ], [ 98.13523427494647, 13.87535165800891 ], [ 98.134956654272997, 13.875350676063269 ], [ 98.13495464375498, 13.875893139221928 ], [ 98.134677022458078, 13.875892156921303 ], [ 98.134675011208572, 13.876434620015763 ], [ 98.1355078770993, 13.876437566091928 ], [ 98.135505867698669, 13.876980029281704 ], [ 98.13522824506839, 13.876979047531577 ], [ 98.135224224717774, 13.878063973758469 ], [ 98.134946600818807, 13.878062991613454 ], [ 98.13494559535458, 13.878334223135045 ], [ 98.135223219576133, 13.878335205299994 ], [ 98.13522020402165, 13.87914889988811 ], [ 98.135497829232605, 13.879149881797689 ], [ 98.135494814451633, 13.879963576390891 ], [ 98.136605319382753, 13.879967501116321 ], [ 98.136604315703124, 13.880238732714892 ], [ 98.136049062549148, 13.880236770942775 ], [ 98.136047053834616, 13.88077923404204 ], [ 98.136602308279208, 13.880781195893798 ], [ 98.136600300769032, 13.881323659048395 ], [ 98.13687792866898, 13.881324639541234 ], [ 98.136876925204234, 13.881595871129308 ], [ 98.137432181714146, 13.881597831209049 ], [ 98.1374311788732, 13.881869062830832 ], [ 98.13798643611463, 13.881871021689348 ], [ 98.137985433897512, 13.882142253344805 ], [ 98.138263062873207, 13.882143232321052 ], [ 98.138264064767654, 13.881872000645728 ], [ 98.138541693442193, 13.881872979286857 ], [ 98.13854369652114, 13.881330515878252 ], [ 98.138821324571822, 13.881331494164415 ], [ 98.138823326919393, 13.880789030691783 ], [ 98.139378581794659, 13.88079098623901 ], [ 98.139379582290871, 13.880519754453886 ], [ 98.139657209438084, 13.880520731734824 ], [ 98.139658209590166, 13.880249499923782 ], [ 98.139935836436223, 13.880250476869673 ], [ 98.139937836030668, 13.879708013189701 ], [ 98.140215462252939, 13.879708989780724 ], [ 98.140220459250131, 13.878352830375318 ], [ 98.139942834640934, 13.878351853883403 ], [ 98.139943834298549, 13.87808062200391 ], [ 98.140776707222784, 13.878083550474692 ], [ 98.140771713558991, 13.879439710108622 ], [ 98.140494087616418, 13.87943873416781 ], [ 98.140492089355448, 13.879981197939216 ], [ 98.140769715943264, 13.879982173919649 ], [ 98.140767718241719, 13.880524637706365 ], [ 98.141322972772301, 13.880526588800807 ], [ 98.141320976275551, 13.881069052642411 ], [ 98.141043348354231, 13.881068077213209 ], [ 98.141042349751018, 13.881339309105098 ], [ 98.14076472152847, 13.881338333340851 ], [ 98.140763722581141, 13.881609565206855 ], [ 98.14048609405738, 13.881608589107559 ], [ 98.140485094765893, 13.881879820947676 ], [ 98.139652208355372, 13.881876890698841 ], [ 98.139649207447931, 13.882690586004308 ], [ 98.141037356413221, 13.882695468473353 ], [ 98.141038355123669, 13.882424236611859 ], [ 98.140760725610392, 13.882423260768396 ], [ 98.14076272361234, 13.881880797066781 ], [ 98.141873239212643, 13.881884698390667 ], [ 98.141869248286071, 13.882969626086295 ], [ 98.142146878530539, 13.88297060070825 ], [ 98.142145881068032, 13.883241832636736 ], [ 98.142423511656631, 13.88324280696318 ], [ 98.142424508796424, 13.882971575014922 ], [ 98.143257399722543, 13.882974496043259 ], [ 98.14325540735787, 13.883516960052264 ], [ 98.143533038354818, 13.883517933137306 ], [ 98.143536025901582, 13.882704237055451 ], [ 98.143258395872792, 13.882703264029644 ], [ 98.143259392001639, 13.882432032009946 ], [ 98.143537021707729, 13.882433005016004 ], [ 98.143538017492475, 13.882161772970486 ], [ 98.143815646897281, 13.882162745641537 ], [ 98.143816642337939, 13.881891513570197 ], [ 98.144094271441432, 13.881892485906254 ], [ 98.144095266538031, 13.881621253809101 ], [ 98.143540008997817, 13.881619308861202 ], [ 98.143542000417611, 13.881076844727614 ], [ 98.143819628531688, 13.881077817319708 ], [ 98.143824605093613, 13.879721656780665 ], [ 98.144102231615847, 13.879722628958852 ], [ 98.144099246710738, 13.880536325359712 ], [ 98.145487384481925, 13.880541181818321 ], [ 98.145486391084091, 13.880812414038358 ], [ 98.145764019025023, 13.880813384404107 ], [ 98.145763025928503, 13.881084616637761 ], [ 98.146040654213436, 13.881085586707966 ], [ 98.146039661418257, 13.881356818955231 ], [ 98.146594918697431, 13.881358758189293 ], [ 98.146595910847267, 13.881087525902672 ], [ 98.146318282519701, 13.881086556462938 ], [ 98.146319274970892, 13.880815324189911 ], [ 98.146596902975816, 13.880816293609966 ], [ 98.146598887168935, 13.880273829006338 ], [ 98.146876514549859, 13.880274798071827 ], [ 98.146877506291801, 13.880003565741223 ], [ 98.147155133371399, 13.880004534471832 ], [ 98.14715612476941, 13.879733302115492 ], [ 98.147711378347196, 13.879735238591769 ], [ 98.147710387594444, 13.880006470987416 ], [ 98.147988014737905, 13.880007438772394 ], [ 98.147986033813865, 13.880549903584745 ], [ 98.147708406025117, 13.880548935760485 ], [ 98.147705433511476, 13.881362632874504 ], [ 98.14798306226821, 13.8813636007577 ], [ 98.147982071710445, 13.881634833136529 ], [ 98.148537329933106, 13.881636767996458 ], [ 98.148538319845514, 13.881365535578359 ], [ 98.148815948666069, 13.881366502515824 ], [ 98.148818917307736, 13.88055280516619 ], [ 98.14909654518155, 13.880553771729554 ], [ 98.149097534363619, 13.880282539247904 ], [ 98.149375161936035, 13.880283505476433 ], [ 98.149377139591138, 13.879741040455682 ], [ 98.14882188575811, 13.879739107761864 ], [ 98.148823864618748, 13.879196642795261 ], [ 98.149101490879389, 13.879197609260535 ], [ 98.149102479955204, 13.878926376748502 ], [ 98.148824854017178, 13.878925410302847 ], [ 98.148825843394363, 13.878654177804361 ], [ 98.148548217800197, 13.878653211063138 ], [ 98.148555145103373, 13.876754583540942 ], [ 98.149665638575257, 13.876758448065525 ], [ 98.149667615032982, 13.876215982847585 ], [ 98.14994523780895, 13.876216948151697 ], [ 98.149947213536677, 13.875674482870261 ], [ 98.150502457862146, 13.87567641245476 ], [ 98.150501470653964, 13.875947645137694 ], [ 98.150779093171053, 13.875948609476856 ], [ 98.150780080056705, 13.875677376774341 ], [ 98.151057702272468, 13.875678340778821 ], [ 98.151060661834634, 13.874864642576117 ], [ 98.150505419359419, 13.87486271436951 ], [ 98.150507393584874, 13.874320248948976 ], [ 98.150785014166871, 13.874321213170665 ], [ 98.150787974378503, 13.873507514935568 ], [ 98.151065594014256, 13.87350847878346 ], [ 98.151069539376408, 13.872423547640004 ], [ 98.151347157743515, 13.872424511094575 ], [ 98.151349129652516, 13.871882045447279 ], [ 98.150793894229253, 13.871880118301378 ], [ 98.150794880796823, 13.871608885507758 ], [ 98.151072498175438, 13.871609849218647 ], [ 98.151073484399376, 13.871338616399381 ], [ 98.151351101476763, 13.871339579775686 ], [ 98.151352087357111, 13.871068346930782 ], [ 98.151629704133256, 13.871069309972523 ], [ 98.15163068967, 13.870798077101986 ], [ 98.151353073216256, 13.870797114079805 ], [ 98.151354059054214, 13.870525881222754 ], [ 98.151076442944046, 13.870524917905144 ], [ 98.151077429083216, 13.870253685061586 ], [ 98.151355044870982, 13.870254648359632 ], [ 98.151356030666562, 13.869983415490434 ], [ 98.15163364615313, 13.869984378453944 ], [ 98.151634631605134, 13.869713145559116 ], [ 98.152189861997059, 13.869715070502096 ], [ 98.152188877189801, 13.86998630343602 ], [ 98.15246649273989, 13.869987265454599 ], [ 98.152469870314363, 13.869056694060063 ], [ 98.152398634840338, 13.868993616517018 ], [ 98.152271703567735, 13.868901645042328 ], [ 98.152192816291787, 13.868901371663888 ], [ 98.152193010568354, 13.868847860396038 ], [ 98.152021550132304, 13.868747456484876 ], [ 98.151971522184056, 13.868724339636373 ], [ 98.15183982070279, 13.868628911721537 ], [ 98.151360959326624, 13.868627251053381 ], [ 98.15136194499506, 13.868356018147749 ], [ 98.151084331463863, 13.868355054986662 ], [ 98.151085317433456, 13.86808382209453 ], [ 98.151106935865045, 13.868083897108066 ], [ 98.151036771304391, 13.868021767821295 ], [ 98.150854418606741, 13.867889639133956 ], [ 98.15083569360236, 13.86787867413674 ], [ 98.150818891743725, 13.867866499874204 ], [ 98.150624162037602, 13.867752469843632 ], [ 98.15047753929133, 13.867684718484503 ], [ 98.150345201013906, 13.867588829081166 ], [ 98.15015047168464, 13.867474799234897 ], [ 98.14994524063367, 13.86737996610805 ], [ 98.149896889345229, 13.86736306388927 ], [ 98.149888312323455, 13.867358041349856 ], [ 98.149871510560658, 13.867345867152135 ], [ 98.149676781552415, 13.867231837465274 ], [ 98.149471550855765, 13.867137004472198 ], [ 98.14925779483481, 13.867062281402653 ], [ 98.149151217064272, 13.867036199414065 ], [ 98.149068932716858, 13.866998176508872 ], [ 98.148855172921103, 13.866923450392436 ], [ 98.148847067828513, 13.866921466850949 ], [ 98.148819646176776, 13.866911880781965 ], [ 98.148599419119009, 13.866857984999294 ], [ 98.148374845649755, 13.866825438572524 ], [ 98.148252254816299, 13.866819554617742 ], [ 98.148180598857749, 13.866802018377053 ], [ 98.148043027977508, 13.866615544503068 ], [ 98.147877311405182, 13.86643527754407 ], [ 98.147865469190322, 13.866423708020847 ], [ 98.14785362685717, 13.86641213838208 ], [ 98.147791239881556, 13.866356896030188 ], [ 98.147726189657192, 13.866245194894143 ], [ 98.147581175715914, 13.866048632123047 ], [ 98.14741545921693, 13.865868365231409 ], [ 98.147403617002055, 13.865856795708179 ], [ 98.147372711999225, 13.865829429980922 ], [ 98.147325564103269, 13.865750057010066 ], [ 98.147316567741356, 13.86573687327634 ], [ 98.147290036844112, 13.865692208791533 ], [ 98.147266352252061, 13.865657500162451 ], [ 98.147242667453312, 13.865622791230528 ], [ 98.147106843798042, 13.865443578175281 ], [ 98.146953606785004, 13.865278313634251 ], [ 98.14694176457013, 13.865266744111015 ], [ 98.146773547686706, 13.865117791469913 ], [ 98.146591198227668, 13.864985664875586 ], [ 98.146530233556803, 13.864949965044772 ], [ 98.146497969364404, 13.864914351739849 ], [ 98.146377817061364, 13.864805713359013 ], [ 98.146376800667412, 13.865083841959468 ], [ 98.145821582126658, 13.865081904457034 ], [ 98.145824557576944, 13.864268206662691 ], [ 98.145870511132188, 13.864268367061793 ], [ 98.145849846919845, 13.864250069300631 ], [ 98.145667498411143, 13.864117943319764 ], [ 98.145561478290773, 13.864055859748198 ], [ 98.145547766879389, 13.864043718562812 ], [ 98.145546949305299, 13.864267237498263 ], [ 98.14526934105497, 13.864266268018996 ], [ 98.145270925981336, 13.863833097558134 ], [ 98.145264860776891, 13.863828702830457 ], [ 98.145070136193226, 13.863714675353412 ], [ 98.144864910389543, 13.863619844230945 ], [ 98.144651159644496, 13.863545122657063 ], [ 98.144643063697785, 13.863543141387849 ], [ 98.144615652960937, 13.863533558992147 ], [ 98.144395429326167, 13.863479663243828 ], [ 98.144170859346701, 13.863447116833642 ], [ 98.143944105695041, 13.863436233189057 ], [ 98.14390857942287, 13.863436233208922 ], [ 98.143717776911515, 13.863443934056473 ], [ 98.143672090537905, 13.863449491074389 ], [ 98.143480515330154, 13.86345868614514 ], [ 98.143255952134666, 13.863491230803765 ], [ 98.14303573493315, 13.863545123501968 ], [ 98.142821984350874, 13.863619845266305 ], [ 98.142616758745987, 13.863714676545612 ], [ 98.142422034389767, 13.863828704139605 ], [ 98.142239686436767, 13.863960829992175 ], [ 98.142071470868416, 13.864109781764656 ], [ 98.142059628672683, 13.864121351287896 ], [ 98.142047786350787, 13.864132920934399 ], [ 98.142035944027256, 13.864144490582509 ], [ 98.142024101704095, 13.864156060230254 ], [ 98.141871629581729, 13.864320414045576 ], [ 98.141736380154327, 13.864498578408423 ], [ 98.141701047340149, 13.864556170546967 ], [ 98.141700852957428, 13.864556426607454 ], [ 98.141665520133031, 13.864614018759404 ], [ 98.141665325760869, 13.864614274806 ], [ 98.141548601664184, 13.864804533774819 ], [ 98.141539789042355, 13.864822737506289 ], [ 98.141536743036355, 13.864827702640751 ], [ 98.141527939222996, 13.86484588880529 ], [ 98.141524900634693, 13.864850841848041 ], [ 98.141516096816105, 13.864869028021543 ], [ 98.141513058233286, 13.86487398105486 ], [ 98.141504254409355, 13.864892167237562 ], [ 98.141501215831809, 13.864897120261769 ], [ 98.141492412002464, 13.864915306453836 ], [ 98.141489373430332, 13.864920259468738 ], [ 98.141480569595672, 13.864938445669923 ], [ 98.141477531028968, 13.86494339867547 ], [ 98.141468727188851, 13.864961584886109 ], [ 98.141465688627406, 13.864966537882578 ], [ 98.141456884781519, 13.864984724103284 ], [ 98.141453846224778, 13.864989677091605 ], [ 98.141356777267958, 13.865190193510371 ], [ 98.141280291682961, 13.86539904022476 ], [ 98.141278263716657, 13.865406950036951 ], [ 98.141268449155149, 13.865433749031183 ], [ 98.141266421184099, 13.865441658860735 ], [ 98.141256606626513, 13.865468457840246 ], [ 98.141201441041957, 13.86568362356204 ], [ 98.141201408334553, 13.865683838978182 ], [ 98.141189598393666, 13.865729901968669 ], [ 98.141189565682552, 13.865730117409219 ], [ 98.141187317482931, 13.865738886191187 ], [ 98.141167296683108, 13.865780243238802 ], [ 98.141155867764752, 13.865811450269726 ], [ 98.141131769344796, 13.865861230458364 ], [ 98.141124322460257, 13.865881564411232 ], [ 98.141072557184756, 13.865988496090056 ], [ 98.141065110193892, 13.866008830321908 ], [ 98.141013345024717, 13.866115761721758 ], [ 98.141001915928086, 13.866146969193789 ], [ 98.140977817686377, 13.866196748941306 ], [ 98.140964397564403, 13.866233392950512 ], [ 98.140954132758822, 13.866254596955049 ], [ 98.140952658507828, 13.866258622437252 ], [ 98.140859393366227, 13.866451280204799 ], [ 98.140782907377528, 13.866660126872084 ], [ 98.140780879247998, 13.866668037277373 ], [ 98.140771064849716, 13.866694835678363 ], [ 98.140769036715696, 13.866702746100046 ], [ 98.140759222321805, 13.866729544484969 ], [ 98.140757194180239, 13.866737454934876 ], [ 98.140747379784315, 13.866764253322474 ], [ 98.140692213902909, 13.86697941899742 ], [ 98.140678764367152, 13.86706799924508 ], [ 98.140658069946511, 13.867110747546018 ], [ 98.140646640320995, 13.867141956326662 ], [ 98.140640375995602, 13.867154896492385 ], [ 98.14062376709893, 13.867181968726637 ], [ 98.140623185631767, 13.867182734692454 ], [ 98.140506461863623, 13.867372992655509 ], [ 98.140409387589301, 13.867573512660535 ], [ 98.1403355764986, 13.867775049419881 ], [ 98.140537029462806, 13.867775757203665 ], [ 98.140536031265881, 13.868046989353656 ], [ 98.14081364366443, 13.868047964462486 ], [ 98.140812645768392, 13.868319196626212 ], [ 98.141090258510744, 13.868320171439915 ], [ 98.141088263298982, 13.868862635788753 ], [ 98.141365876707454, 13.868863610327116 ], [ 98.141362884696079, 13.869677306864206 ], [ 98.140094461423715, 13.869672851347232 ], [ 98.14010229067452, 13.869828583262073 ], [ 98.140110500277686, 13.869882658041686 ], [ 98.140018569731168, 13.87007255240802 ], [ 98.139942080138468, 13.87028140194049 ], [ 98.139886911661307, 13.87049657078258 ], [ 98.139853595673515, 13.870715986690961 ], [ 98.139851793681302, 13.870751816064525 ], [ 98.139829721041963, 13.870780892254542 ], [ 98.139712997714469, 13.870971148839935 ], [ 98.139704188645069, 13.870989345099844 ], [ 98.139701148258055, 13.870994300941694 ], [ 98.139604076846268, 13.871194817175184 ], [ 98.139527589326448, 13.871403663696698 ], [ 98.139472422361791, 13.871618829222054 ], [ 98.13943910729428, 13.871838241607083 ], [ 98.139427965025675, 13.872059787802808 ], [ 98.139427964911008, 13.872071357397081 ], [ 98.13943910309797, 13.872292906656746 ], [ 98.13944762404688, 13.872349031988207 ], [ 98.13938230818205, 13.872391939151987 ], [ 98.139334939553976, 13.872426647700236 ], [ 98.13928757040766, 13.872461356628223 ], [ 98.139202497294434, 13.872533441422917 ], [ 98.139123549000658, 13.872591033027414 ], [ 98.139052495982526, 13.87264888061914 ], [ 98.138897669362549, 13.872787015090614 ], [ 98.13888582716686, 13.8727985846138 ], [ 98.138811694816226, 13.872878493742896 ], [ 98.138601934113453, 13.872908892849939 ], [ 98.138381701960625, 13.872962788711165 ], [ 98.138167937268364, 13.873037514816097 ], [ 98.137962698656651, 13.873132351527728 ], [ 98.137830741245779, 13.87320962351381 ], [ 98.137694248165715, 13.873257337581677 ], [ 98.137489009404675, 13.873352174288964 ], [ 98.137294273250305, 13.873466208288766 ], [ 98.137111915085271, 13.873598341396239 ], [ 98.136943691096519, 13.873747301125144 ], [ 98.13689785524349, 13.873796709037331 ], [ 98.136779569974678, 13.873791031924418 ], [ 98.136436149346196, 13.873791032118064 ], [ 98.136209385981346, 13.873801915853281 ], [ 98.135984806420083, 13.873834462305801 ], [ 98.13576457342684, 13.873888358040471 ], [ 98.135550807910221, 13.873963084022432 ], [ 98.135362462879002, 13.874050114105918 ], [ 98.135172461774431, 13.87409661147578 ], [ 98.134958696197501, 13.874171337501446 ], [ 98.134753456735098, 13.874266174118581 ], [ 98.134572060711648, 13.874372395929392 ], [ 98.134457415505778, 13.87440610432092 ], [ 98.134404830938436, 13.874427043808389 ], [ 98.134404430540968, 13.874535016562819 ] ], [ [ 98.146321259809312, 13.880272859625631 ], [ 98.146322252196569, 13.880001627334375 ], [ 98.146599879233534, 13.880002596695403 ], [ 98.146598887168935, 13.880273829006338 ], [ 98.146321259809312, 13.880272859625631 ] ], [ [ 98.140538027638257, 13.867504525047599 ], [ 98.140815639392187, 13.867505500116811 ], [ 98.140814641539038, 13.867776732292686 ], [ 98.140537029462806, 13.867775757203665 ], [ 98.140538027638257, 13.867504525047599 ] ], [ [ 98.137988440484293, 13.881328558360202 ], [ 98.137989442636837, 13.881057326686509 ], [ 98.138267070321831, 13.881058305583284 ], [ 98.138266068491944, 13.881329537276848 ], [ 98.137988440484293, 13.881328558360202 ] ], [ [ 98.137991446877336, 13.880514863320888 ], [ 98.137992448965278, 13.880243631628957 ], [ 98.13854770242088, 13.880245588988091 ], [ 98.13854670097821, 13.88051682071975 ], [ 98.137991446877336, 13.880514863320888 ] ], [ [ 98.138553710625132, 13.8786181984705 ], [ 98.138549705241687, 13.87970312550654 ], [ 98.137716827026381, 13.87970018911423 ], [ 98.137719833999782, 13.878886494025126 ], [ 98.137997459082186, 13.878887473078139 ], [ 98.137998461040979, 13.878616241349743 ], [ 98.138553710625132, 13.8786181984705 ] ], [ [ 98.141603593686142, 13.879713868007832 ], [ 98.141604591515403, 13.879442636039887 ], [ 98.141882217543753, 13.879443610719916 ], [ 98.141881220037135, 13.879714842707646 ], [ 98.141603593686142, 13.879713868007832 ] ], [ [ 98.142436472803368, 13.879716791161663 ], [ 98.142437469664742, 13.879445559134384 ], [ 98.142715095757367, 13.879446532868826 ], [ 98.142714099218622, 13.879717764915871 ], [ 98.142436472803368, 13.879716791161663 ] ], [ [ 98.146602855299449, 13.879188899726142 ], [ 98.146604839236829, 13.878646435049589 ], [ 98.147160090148489, 13.878648372629355 ], [ 98.147158107501539, 13.879190837384575 ], [ 98.146602855299449, 13.879188899726142 ] ], [ [ 98.136331708910973, 13.87888159403232 ], [ 98.136332712805384, 13.878610362423263 ], [ 98.136610337457441, 13.878611343032279 ], [ 98.13660933388563, 13.878882574661242 ], [ 98.136331708910973, 13.87888159403232 ] ], [ [ 98.137170601136077, 13.877257144869834 ], [ 98.13717160393341, 13.87698591316461 ], [ 98.137726849517435, 13.876987871937819 ], [ 98.137725847365218, 13.877259103682812 ], [ 98.137170601136077, 13.877257144869834 ] ], [ [ 98.142449430330913, 13.876190774333022 ], [ 98.142450426913911, 13.875919542226741 ], [ 98.142172805036196, 13.875918568434132 ], [ 98.142174798782989, 13.875376104242891 ], [ 98.141897177571764, 13.875375130174723 ], [ 98.141898174735545, 13.875103898089765 ], [ 98.142731037465921, 13.875106819289652 ], [ 98.14272904505205, 13.875649283572118 ], [ 98.143561909910218, 13.875652202054667 ], [ 98.143560914638755, 13.875923434246046 ], [ 98.14300567073353, 13.87592148886662 ], [ 98.14300467479562, 13.876192721012421 ], [ 98.142449430330913, 13.876190774333022 ] ], [ [ 98.143564895596271, 13.874838505444091 ], [ 98.14328727492304, 13.874837532990917 ], [ 98.143288270431455, 13.874566300794985 ], [ 98.143010650102113, 13.874565328046474 ], [ 98.143011645911642, 13.874294095864217 ], [ 98.142178786019514, 13.874291175787494 ], [ 98.142179782775102, 13.874019943658455 ], [ 98.141902163176383, 13.874018969689173 ], [ 98.141904157268243, 13.873476505452425 ], [ 98.142181776222003, 13.873477479382153 ], [ 98.142183769583227, 13.872935015081548 ], [ 98.142461387913485, 13.872935988656677 ], [ 98.142462384239522, 13.872664756477493 ], [ 98.143295238391374, 13.872667675253352 ], [ 98.143294243032713, 13.872938907491809 ], [ 98.14412709834447, 13.872941823491548 ], [ 98.144124115042302, 13.873755520348123 ], [ 98.143846495616273, 13.873754548604055 ], [ 98.143844505996341, 13.874297013105265 ], [ 98.144122126067344, 13.8742979848888 ], [ 98.144120137006894, 13.874840449405173 ], [ 98.144397757744258, 13.874841420913082 ], [ 98.144396763504488, 13.875112653181883 ], [ 98.144119142444609, 13.875111681654245 ], [ 98.144118147860965, 13.875382913897242 ], [ 98.143840526499929, 13.87538194203478 ], [ 98.143839531572382, 13.875653174251971 ], [ 98.143561909910218, 13.875652202054667 ], [ 98.143564895596271, 13.874838505444091 ] ], [ [ 98.139399587702201, 13.87509511747505 ], [ 98.139398587635782, 13.875366349381723 ], [ 98.139676208653924, 13.875367326285788 ], [ 98.139675208888548, 13.875638558206219 ], [ 98.139952830250678, 13.875639534815015 ], [ 98.139951830786359, 13.875910766749202 ], [ 98.139118965796811, 13.875907835917994 ], [ 98.139119966228719, 13.875636604043315 ], [ 98.138564723654895, 13.87563464861999 ], [ 98.138566725744298, 13.875092184931805 ], [ 98.139399587702201, 13.87509511747505 ] ], [ [ 98.145516183737087, 13.872675444794007 ], [ 98.145520154639883, 13.871590515148309 ], [ 98.14579777161444, 13.871591484844448 ], [ 98.145798763964393, 13.871320252398146 ], [ 98.145521147312252, 13.871319282721698 ], [ 98.145523132592984, 13.87077681785026 ], [ 98.146078364628934, 13.870778756809381 ], [ 98.146077372644058, 13.871049989287522 ], [ 98.146632605410105, 13.871051927026027 ], [ 98.14662467392246, 13.873221786947315 ], [ 98.146069435997418, 13.873219848893966 ], [ 98.146070428152868, 13.872948616464418 ], [ 98.145792809544787, 13.872947646984857 ], [ 98.145793802001378, 13.872676414568923 ], [ 98.145516183737087, 13.872675444794007 ] ], [ [ 98.140799671167613, 13.871845214201951 ], [ 98.140801667496035, 13.871302750026345 ], [ 98.141356900094436, 13.871304699774395 ], [ 98.141354905055721, 13.871847164029196 ], [ 98.140799671167613, 13.871845214201951 ] ], [ [ 98.141639502035446, 13.86994951333366 ], [ 98.14163850495639, 13.87022074551426 ], [ 98.142193735104215, 13.870222693214052 ], [ 98.142191742171363, 13.870765157636143 ], [ 98.14163651073396, 13.870763209857238 ], [ 98.14163750785589, 13.870491977688786 ], [ 98.141359892491735, 13.870491003346638 ], [ 98.141361887316066, 13.869948539031087 ], [ 98.141639502035446, 13.86994951333366 ] ], [ [ 98.149965978715443, 13.87052106148481 ], [ 98.149966966144177, 13.870249828719579 ], [ 98.150244581847119, 13.870250793277554 ], [ 98.150243594740786, 13.870522026062378 ], [ 98.149965978715443, 13.87052106148481 ] ], [ [ 98.142749961127251, 13.869953407394229 ], [ 98.142472346322165, 13.869952434351545 ], [ 98.142474338481762, 13.86940996985347 ], [ 98.143029566823813, 13.869411915544822 ], [ 98.143028571399469, 13.869683147836417 ], [ 98.14275095689537, 13.869682175128462 ], [ 98.142749961127251, 13.869953407394229 ] ], [ [ 98.142196724342853, 13.869408996535354 ], [ 98.142197720712886, 13.869137764296973 ], [ 98.14247533452945, 13.869138737595319 ], [ 98.142474338481762, 13.86940996985347 ], [ 98.142196724342853, 13.869408996535354 ] ], [ [ 98.145527102898399, 13.869691888034493 ], [ 98.145528095421412, 13.869420655565373 ], [ 98.146083324233516, 13.869422594327594 ], [ 98.146082332355235, 13.869693826836096 ], [ 98.145527102898399, 13.869691888034493 ] ], [ [ 98.149141037339319, 13.868348304040794 ], [ 98.149142025565283, 13.868077071285795 ], [ 98.149697251707209, 13.868079001662945 ], [ 98.149696264125922, 13.868350234457155 ], [ 98.149141037339319, 13.868348304040794 ] ], [ [ 98.143034543624623, 13.868055753995741 ], [ 98.1430355389206, 13.867784521667701 ], [ 98.143313151189645, 13.867785493922433 ], [ 98.143312156215998, 13.86805672627022 ], [ 98.143034543624623, 13.868055753995741 ] ], [ [ 98.146095225109832, 13.866167803751885 ], [ 98.146096216710944, 13.86589657116444 ], [ 98.146373826958779, 13.865897539817265 ], [ 98.146372835679955, 13.866168772424391 ], [ 98.146095225109832, 13.866167803751885 ] ], [ [ 98.142771863081848, 13.863986296144558 ], [ 98.142772858379118, 13.8637150637452 ], [ 98.143328073227636, 13.86371700797698 ], [ 98.143327078574814, 13.863988240415846 ], [ 98.142771863081848, 13.863986296144558 ] ] ], [ [ [ 98.140257420348064, 13.868317246054005 ], [ 98.140258121973559, 13.868126665175138 ], [ 98.140244413023581, 13.868216951297516 ], [ 98.140239372035936, 13.868317182627015 ], [ 98.140257420348064, 13.868317246054005 ] ] ], [ [ [ 98.14615462878173, 13.864540594658726 ], [ 98.146146942778643, 13.864532012933418 ], [ 98.146101379015761, 13.86448443195645 ], [ 98.146101174396719, 13.864540408136149 ], [ 98.14615462878173, 13.864540594658726 ] ] ], [ [ [ 98.146871555520505, 13.881630959633675 ], [ 98.146872547369, 13.881359727333461 ], [ 98.146594918697431, 13.881358758189293 ], [ 98.146593926526279, 13.881629990469836 ], [ 98.146316297553355, 13.881629020990752 ], [ 98.1463153050382, 13.881900253245544 ], [ 98.14659293433381, 13.881901222744306 ], [ 98.14659194212004, 13.882172455012695 ], [ 98.146869571759638, 13.882173424215871 ], [ 98.146870563650737, 13.881902191927812 ], [ 98.147148192988951, 13.881903160796064 ], [ 98.147149184536048, 13.881631928482264 ], [ 98.146871555520505, 13.881630959633675 ] ] ], [ [ [ 98.152462554588809, 13.871072197207734 ], [ 98.152463539158319, 13.87080096427856 ], [ 98.152185922641038, 13.870800002201365 ], [ 98.152184937749112, 13.871071235111001 ], [ 98.152462554588809, 13.871072197207734 ] ] ], [ [ [ 98.151629704133256, 13.871069309972523 ], [ 98.151628718575338, 13.871340542836988 ], [ 98.15218395283604, 13.871342468014562 ], [ 98.152184937749112, 13.871071235111001 ], [ 98.151629704133256, 13.871069309972523 ] ] ] ] } },
{ "type": "Feature", "properties": { "zone": "B", "alpha_deg": 18.1, "label": "Within reach only of a channelised flow (alpha 18.1 deg)" }, "geometry": { "type": "Polygon", "coordinates": [ ] } }
]
}
