{
"type": "FeatureCollection",
"name": "envelopes",
"crs": { "type": "name", "properties": { "name": "urn:ogc:def:crs:OGC:1.3:CRS84" } },
"features": [
{ "type": "Feature", "properties": { "id": "KGN", "name": "Hills north of the stream", "kind": "landslide", "priority": 5, "split": 1, "description": "Zone split into connected scars and scoured channels." }, "geometry": { "type": "Polygon", "coordinates": [ [ [ 98.136, 13.877 ], [ 98.146, 13.877 ], [ 98.146, 13.88 ], [ 98.136, 13.88 ], [ 98.136, 13.877 ] ] ] } },
{ "type": "Feature", "properties": { "id": "KGS", "name": "Hills south of the stream", "kind": "landslide", "priority": 5, "split": 1, "description": "Zone split into connected scars and scoured channels." }, "geometry": { "type": "Polygon", "coordinates": [ [ [ 98.1395, 13.877 ], [ 98.1438, 13.877 ], [ 98.145, 13.8752 ], [ 98.1505, 13.8748 ], [ 98.1505, 13.8705 ], [ 98.147, 13.87 ], [ 98.146, 13.8655 ], [ 98.1415, 13.8655 ], [ 98.1395, 13.87 ], [ 98.1395, 13.877 ] ] ] } },
{ "type": "Feature", "properties": { "id": "KG-OW", "name": "Fields under sediment", "kind": "outwash", "priority": 9, "split": 0, "description": "Grass fields north of the village road under fresh sediment: the eastern part of the fan that spread from the mouth of Ka Det Nge Htein's KD-01 debris flow (building footprints are cut out of the area)." }, "geometry": { "type": "Polygon", "coordinates": [ [ [ 98.134, 13.8812 ], [ 98.136, 13.8815 ], [ 98.1375, 13.8812 ], [ 98.1388, 13.8818 ], [ 98.1398, 13.8822 ], [ 98.1405, 13.883 ], [ 98.141, 13.8845 ], [ 98.1408, 13.8858 ], [ 98.138, 13.8862 ], [ 98.134, 13.8862 ], [ 98.134, 13.8812 ] ] ] } },
{ "type": "Feature", "properties": { "id": "KX-1", "name": "Clearing bare in Jan 2026", "kind": "exclude", "priority": 0, "split": 0, "description": "Clearing already bare on the Esri Vivid image of 10 Jan 2026 (now crossed by debris)." }, "geometry": { "type": "Polygon", "coordinates": [ [ [ 98.13855, 13.87985 ], [ 98.13935, 13.87985 ], [ 98.13935, 13.88075 ], [ 98.13855, 13.88075 ], [ 98.13855, 13.87985 ] ] ] } },
{ "type": "Feature", "properties": { "id": "KX-2", "name": "Compound", "kind": "exclude", "priority": 0, "split": 0, "description": "Buildings and a yard already bare on 10 Jan 2026." }, "geometry": { "type": "Polygon", "coordinates": [ [ [ 98.1458, 13.87195 ], [ 98.14675, 13.87195 ], [ 98.14675, 13.8731 ], [ 98.1458, 13.8731 ], [ 98.1458, 13.87195 ] ] ] } },
{ "type": "Feature", "properties": { "id": "KX-3", "name": "Track to the compound", "kind": "exclude", "priority": 0, "split": 0, "description": "Track bare on 10 Jan 2026 (debris crossed it; the track is cut out)." }, "geometry": { "type": "Polygon", "coordinates": [ [ [ 98.145202579982637, 13.872804244282472 ], [ 98.145203358743061, 13.872807628900738 ], [ 98.145292998692511, 13.873106428849344 ], [ 98.145352753191787, 13.873405201520656 ], [ 98.145353300748781, 13.873407433095435 ], [ 98.145423300722626, 13.87364743310148 ], [ 98.145424142280191, 13.873649872639882 ], [ 98.145483325582816, 13.873797830939651 ], [ 98.145572855047917, 13.874205687607235 ], [ 98.145573932251764, 13.874209330722721 ], [ 98.145723932211155, 13.874609330736178 ], [ 98.14572499780077, 13.874611790108533 ], [ 98.145726305784251, 13.874614135176964 ], [ 98.145976305755866, 13.875014135199271 ], [ 98.145978126231824, 13.875016702852584 ], [ 98.146378126209271, 13.875516702886641 ], [ 98.146379907272703, 13.875518717121214 ], [ 98.146381881840128, 13.875520551099667 ], [ 98.146384030895376, 13.875522187159794 ], [ 98.146386333741873, 13.875523609545425 ], [ 98.146388768201945, 13.875524804558216 ], [ 98.146391310830424, 13.875525760689531 ], [ 98.146393937140374, 13.875526468731296 ], [ 98.146396621839017, 13.87552692186468 ], [ 98.146399339071181, 13.875527115725765 ], [ 98.146402062668471, 13.875527048447557 ], [ 98.146404766401147, 13.875526720677984 ], [ 98.14640742423073, 13.875526135573645 ], [ 98.146410010560928, 13.875525298769418 ], [ 98.146412500483891, 13.875524218324182 ], [ 98.146414870020337, 13.875522904643224 ], [ 98.146417096350319, 13.875521370378012 ], [ 98.146419158033055, 13.87551963030436 ], [ 98.146421035213407, 13.875517701180136 ], [ 98.146422709813123, 13.875515601583865 ], [ 98.146424165704872, 13.875513351735805 ], [ 98.146425388867627, 13.875510973303236 ], [ 98.14642636752167, 13.875508489191764 ], [ 98.14642709224205, 13.87550592332474 ], [ 98.146427556049304, 13.875503300412872 ], [ 98.146427754476719, 13.875500645716238 ], [ 98.146427685613332, 13.875497984801022 ], [ 98.146427350122394, 13.875495343293283 ], [ 98.146426751234813, 13.87549274663219 ], [ 98.146425894718234, 13.875490219825009 ], [ 98.146424788821406, 13.875487787206268 ], [ 98.14642344419471, 13.875485472203417 ], [ 98.146421873787645, 13.875483297111192 ], [ 98.146022859791898, 13.874984529681916 ], [ 98.145775123984095, 13.874588152458371 ], [ 98.145626737001578, 13.874192453957541 ], [ 98.145537144904253, 13.873784312396854 ], [ 98.145536587726127, 13.873782194507191 ], [ 98.145535857732611, 13.873780127351834 ], [ 98.145476337812724, 13.873631327595065 ], [ 98.145407021384258, 13.873393671363543 ], [ 98.145347246772687, 13.873094798480851 ], [ 98.14534664128783, 13.873092371088436 ], [ 98.145257141634275, 13.872794039027347 ], [ 98.145197419973343, 13.872425755718554 ], [ 98.145196862132138, 13.872423150347309 ], [ 98.14519604559392, 13.872420610941978 ], [ 98.145194978222435, 13.872418161958423 ], [ 98.145193670297047, 13.872415826981685 ], [ 98.14519213441379, 13.872413628498864 ], [ 98.145190385364074, 13.872411587682549 ], [ 98.145188439992211, 13.872409724186918 ], [ 98.145186317033193, 13.872408055958442 ], [ 98.145184036932264, 13.872406599063067 ], [ 98.145181621648049, 13.87240536753149 ], [ 98.145179094441033, 13.872404373224033 ], [ 98.145176479649635, 13.872403625716414 ], [ 98.145173802455673, 13.872403132207538 ], [ 98.145171088642002, 13.872402897450158 ], [ 98.145168364344116, 13.872402923705126 ], [ 98.145165655798493, 13.872403210719582 ], [ 98.145162989089911, 13.872403755729417 ], [ 98.14516038990017, 13.8724045534859 ], [ 98.14515788326095, 13.8724055963062 ], [ 98.145155493312501, 13.872406874147385 ], [ 98.145153243071348, 13.872408374703156 ], [ 98.14515115420852, 13.872410083522338 ], [ 98.145149246840916, 13.872411984148076 ], [ 98.145147539337557, 13.872414058276309 ], [ 98.145146048142607, 13.872416285932051 ], [ 98.14514478761707, 13.872418645661771 ], [ 98.145143769900557, 13.87242111473997 ], [ 98.145143004794178, 13.872423669388095 ], [ 98.145142499666392, 13.872426285003479 ], [ 98.145142259381828, 13.872428936396329 ], [ 98.145142286254568, 13.872431598032279 ], [ 98.145142580025833, 13.872434244278313 ], [ 98.145202579982637, 13.872804244282472 ] ] ] } },
{ "type": "Feature", "properties": { "id": "KX-14", "name": "Hairpin of the track and a roof", "kind": "exclude", "priority": 0, "split": 0, "description": "Track hairpin bare on 10 Jan 2026 and a roof beside it." }, "geometry": { "type": "Polygon", "coordinates": [ [ [ 98.14503, 13.87158 ], [ 98.14556, 13.87158 ], [ 98.14556, 13.87223 ], [ 98.14503, 13.87223 ], [ 98.14503, 13.87158 ] ] ] } },
{ "type": "Feature", "properties": { "id": "KX-4", "name": "Earthworks bare in Jan 2026", "kind": "exclude", "priority": 0, "split": 0, "description": "Earthworks beside the road, already bare on 10 Jan 2026." }, "geometry": { "type": "Polygon", "coordinates": [ [ [ 98.1488, 13.8709 ], [ 98.1506, 13.8709 ], [ 98.1506, 13.8717 ], [ 98.1488, 13.8717 ], [ 98.1488, 13.8709 ] ] ] } },
{ "type": "Feature", "properties": { "id": "KX-5", "name": "Village road to Nyaungdon", "kind": "exclude", "priority": 0, "split": 0, "description": "Unsealed road, bare on 10 Jan 2026." }, "geometry": { "type": "Polygon", "coordinates": [ [ [ 98.147999053378228, 13.875027107652976 ], [ 98.148001135638907, 13.875027100722749 ], [ 98.149001135755412, 13.874987100724846 ], [ 98.14900282681694, 13.874986982460809 ], [ 98.14960141709706, 13.874927123438637 ], [ 98.150600000058006, 13.874927123442394 ], [ 98.150602721239522, 13.874926992830044 ], [ 98.150605416214006, 13.874926602261953 ], [ 98.150608059027363, 13.874925955499508 ], [ 98.150610624227852, 13.874925058771389 ], [ 98.150613087111196, 13.874923920713577 ], [ 98.15061542395847, 13.87492255228619 ], [ 98.150617612264554, 13.874920966667943 ], [ 98.15061963095485, 13.874919179129211 ], [ 98.150621460588283, 13.874917206884966 ], [ 98.15062308354446, 13.874915068929006 ], [ 98.150624484193443, 13.874912785851022 ], [ 98.150625649046233, 13.874910379638308 ], [ 98.15062656688464, 13.874907873464004 ], [ 98.150627228869396, 13.874905291463952 ], [ 98.150627628625244, 13.874902658504219 ], [ 98.150627762302307, 13.874899999941649 ], [ 98.150627628613222, 13.874897341379656 ], [ 98.150627228845494, 13.874894708421648 ], [ 98.150626566849112, 13.874892126424445 ], [ 98.15062564899948, 13.874889620254086 ], [ 98.150624484135975, 13.874887214046367 ], [ 98.150623083476916, 13.874884930974376 ], [ 98.150621460511388, 13.87488279302535 ], [ 98.150619630869457, 13.874880820788887 ], [ 98.150617612171544, 13.874879033258713 ], [ 98.150615423858866, 13.874877447649705 ], [ 98.150613087006022, 13.87487607923215 ], [ 98.150610624118201, 13.874874941184641 ], [ 98.150608058914358, 13.874874044467203 ], [ 98.150605416098784, 13.874873397715712 ], [ 98.150602721123235, 13.874873007158735 ], [ 98.15059999994179, 13.874872876557545 ], [ 98.14960000005803, 13.874872876564204 ], [ 98.14959717311406, 13.874873017542006 ], [ 98.14899801686515, 13.874932933172031 ], [ 98.147999905358148, 13.874972857639456 ], [ 98.147400946690681, 13.874952892353228 ], [ 98.147398222534719, 13.874952932227373 ], [ 98.147395515496711, 13.874953232778935 ], [ 98.147392851646899, 13.874953791113443 ], [ 98.147390256639639, 13.874954601853826 ], [ 98.147387755466227, 13.874955657192213 ], [ 98.14738537221433, 13.874956946965122 ], [ 98.147383129835958, 13.87495845875134 ], [ 98.147381049926452, 13.874960177991543 ], [ 98.147379152516464, 13.874962088128507 ], [ 98.147377455879109, 13.874964170766583 ], [ 98.147375976353899, 13.874966405848824 ], [ 98.14737472818949, 13.874968771850174 ], [ 98.147373723406403, 13.874971245984748 ], [ 98.147372971681236, 13.874973804425286 ], [ 98.147372480253551, 13.874976422532605 ], [ 98.147372253856034, 13.874979075092904 ], [ 98.147372294669054, 13.874981736560578 ], [ 98.147372602299555, 13.874984381304238 ], [ 98.147373173784899, 13.874986983853558 ], [ 98.147374003621394, 13.87498951914456 ], [ 98.147375083817238, 13.874991962761012 ], [ 98.147376403969588, 13.874994291169541 ], [ 98.147377951364646, 13.874996481946301 ], [ 98.147379711100172, 13.874998513992907 ], [ 98.147381666228924, 13.87500036773964 ], [ 98.147383797921961, 13.875002025333897 ], [ 98.147386085649913, 13.875003470812135 ], [ 98.147388507380697, 13.875004690253604 ], [ 98.147391039791742, 13.875005671914414 ], [ 98.147393658494508, 13.875006406340635 ], [ 98.147396338269473, 13.875006886459332 ], [ 98.147399053308902, 13.875007107646697 ], [ 98.147999053378228, 13.875027107652976 ] ] ] } },
{ "type": "Feature", "properties": { "id": "KX-6", "name": "Track across the hill", "kind": "exclude", "priority": 0, "split": 0, "description": "Track bare on 10 Jan 2026." }, "geometry": { "type": "Polygon", "coordinates": [ [ [ 98.148721205631531, 13.873447505828297 ], [ 98.148722707804211, 13.873445604124191 ], [ 98.148724031866351, 13.873443580027882 ], [ 98.148725167432573, 13.873441449415528 ], [ 98.148726105595983, 13.873439228998764 ], [ 98.148825598708356, 13.873170597518243 ], [ 98.148907335726804, 13.873007123459514 ], [ 98.149590000040575, 13.873007123439866 ], [ 98.149590334229003, 13.873007121474178 ], [ 98.150440167165272, 13.872997123445613 ], [ 98.150600000009192, 13.872997123446622 ], [ 98.15060272116844, 13.872996992838923 ], [ 98.150605416121337, 13.872996602275405 ], [ 98.150608058914017, 13.872995955517395 ], [ 98.150610624094909, 13.872995058793542 ], [ 98.150613086959936, 13.872993920739784 ], [ 98.150615423790356, 13.872992552316203 ], [ 98.150617612081177, 13.872990966701463 ], [ 98.150619630758001, 13.872989179165918 ], [ 98.150621460379853, 13.87298720692451 ], [ 98.150623083326465, 13.872985068971007 ], [ 98.150624483967988, 13.872982785895076 ], [ 98.150625648815463, 13.872980379683987 ], [ 98.150626566650786, 13.872977873510868 ], [ 98.150627228634718, 13.872975291511549 ], [ 98.150627628392002, 13.87297265855209 ], [ 98.15062776207273, 13.872969999989337 ], [ 98.150627628389543, 13.872967341426703 ], [ 98.150627228629858, 13.872964708467594 ], [ 98.150626566643595, 13.872962126468851 ], [ 98.150625648806056, 13.872959620296529 ], [ 98.150624483956534, 13.872957214086437 ], [ 98.15062308331315, 13.872954931011686 ], [ 98.150621460364903, 13.872952793059534 ], [ 98.15061963074163, 13.87295082081962 ], [ 98.150617612063655, 13.872949033285702 ], [ 98.15061542377191, 13.87294744767269 ], [ 98.150613086940851, 13.872946079250902 ], [ 98.150610624075441, 13.872944941198991 ], [ 98.15060805889442, 13.872944044477002 ], [ 98.150605416101868, 13.872943397720872 ], [ 98.150602721149298, 13.872943007159201 ], [ 98.150599999990604, 13.872942876553315 ], [ 98.150440000009212, 13.872942876554385 ], [ 98.15043966567201, 13.87294287852124 ], [ 98.149589832859021, 13.872952876560303 ], [ 98.148890000040566, 13.872952876564732 ], [ 98.148887187292786, 13.872953016130586 ], [ 98.148884403491849, 13.872953433399825 ], [ 98.148881677287136, 13.872954124078138 ], [ 98.148879036735266, 13.872955081057448 ], [ 98.148876509011359, 13.872956294489027 ], [ 98.148874120129392, 13.872957751884913 ], [ 98.148871894674429, 13.872959438246365 ], [ 98.148869855549663, 13.872961336218276 ], [ 98.148868023740647, 13.87296342626774 ], [ 98.148866418099374, 13.872965686885104 ], [ 98.148865055150267, 13.872968094805321 ], [ 98.148775055136724, 13.873148094795475 ], [ 98.148773894431201, 13.873150771010542 ], [ 98.148675585899639, 13.873416203973775 ], [ 98.148358794365407, 13.873782494142244 ], [ 98.148357140195344, 13.873784609132818 ], [ 98.148355706177654, 13.87378687234585 ], [ 98.148354506122701, 13.873789261985372 ], [ 98.148353551587718, 13.873791755037848 ], [ 98.148352851765338, 13.873794327493831 ], [ 98.148352413395287, 13.873796954579156 ], [ 98.148352240699325, 13.873799610993562 ], [ 98.14835233534059, 13.873802271154332 ], [ 98.148352696407656, 13.873804909442653 ], [ 98.14835332042324, 13.873807500450374 ], [ 98.148354201377771, 13.873810019224674 ], [ 98.148355330787155, 13.873812441508367 ], [ 98.148356697774588, 13.873814743973544 ], [ 98.148358289175221, 13.873816904446198 ], [ 98.148360089663029, 13.873818902119798 ], [ 98.148362081898298, 13.873820717755642 ], [ 98.148364246694726, 13.873822333868167 ], [ 98.148366563204149, 13.873823734893319 ], [ 98.148369009117303, 13.873824907338458 ], [ 98.148371560878701, 13.873825839912289 ], [ 98.148374193913483, 13.873826523633616 ], [ 98.148376882864056, 13.873826951917822 ], [ 98.148379601834378, 13.8738271206403 ], [ 98.148382324639257, 13.873827028176159 ], [ 98.148385025056584, 13.873826675415868 ], [ 98.148387677079853, 13.873826065756717 ], [ 98.148390255168621, 13.873825205070052 ], [ 98.148392734494479, 13.873824101644756 ], [ 98.148395091180177, 13.873822766107423 ], [ 98.148397302529489, 13.87382121132001 ], [ 98.148399347245956, 13.873819452255974 ], [ 98.148401205637825, 13.873817505856072 ], [ 98.148721205631531, 13.873447505828297 ] ] ] } },
{ "type": "Feature", "properties": { "id": "KX-15", "name": "Clearing edge bare in Jan 2026", "kind": "exclude", "priority": 0, "split": 0, "description": "Rejected on chip review: the edge of a clearing and a track, already bare on 10 Jan 2026." }, "geometry": { "type": "Polygon", "coordinates": [ [ [ 98.14945, 13.8725 ], [ 98.14998, 13.8725 ], [ 98.14998, 13.87295 ], [ 98.14945, 13.87295 ], [ 98.14945, 13.8725 ] ] ] } },
{ "type": "Feature", "properties": { "id": "KX-7", "name": "Road south of the hill", "kind": "exclude", "priority": 0, "split": 0, "description": "Road bare on 10 Jan 2026." }, "geometry": { "type": "Polygon", "coordinates": [ [ [ 98.150188047481464, 13.871534227338282 ], [ 98.150190823826676, 13.871535035755734 ], [ 98.150590823880961, 13.871635035773673 ], [ 98.150594383008936, 13.871635745799262 ], [ 98.150597996231625, 13.871636111573212 ], [ 98.15060162875173, 13.871636129572916 ], [ 98.15060524558605, 13.871635799625032 ], [ 98.150608811902487, 13.871635124907135 ], [ 98.150612293355465, 13.87163411191713 ], [ 98.150615656416647, 13.871632770410669 ], [ 98.150618868697933, 13.871631113307194 ], [ 98.150621899263271, 13.871629156565525 ], [ 98.150624718926636, 13.871626919030167 ], [ 98.150627300533159, 13.871624422249806 ], [ 98.150629619220538, 13.871621690269812 ], [ 98.150631652658546, 13.87161874940066 ], [ 98.150633381264086, 13.871615627964525 ], [ 98.150634788389723, 13.871612356022558 ], [ 98.150635860484101, 13.871608965085354 ], [ 98.15063658722238, 13.871605487809497 ], [ 98.150636961605656, 13.871601957683055 ], [ 98.150636980028452, 13.871598408703083 ], [ 98.150636642313387, 13.87159487504819 ], [ 98.1506359517128, 13.871591390749417 ], [ 98.150634914877628, 13.871587989362453 ], [ 98.150633541793127, 13.871584703644514 ], [ 98.150631845682895, 13.871581565238859 ], [ 98.150629842881386, 13.87157860437004 ], [ 98.150627552676696, 13.871575849552833 ], [ 98.150624997124751, 13.871573327317632 ], [ 98.150622200836906, 13.871571061954931 ], [ 98.150619190742958, 13.871569075281398 ], [ 98.150615995831728, 13.871567386429785 ], [ 98.150612646871963, 13.871566011664649 ], [ 98.150609176115978, 13.871564964225719 ], [ 98.150210580544837, 13.871465315338561 ], [ 98.149911952551875, 13.871365772677452 ], [ 98.149908461165978, 13.87136479287847 ], [ 98.149904888294486, 13.871364152143265 ], [ 98.149901268346056, 13.871363856642466 ], [ 98.149897636182786, 13.871363909221907 ], [ 98.149894026784352, 13.871364309375215 ], [ 98.149890474911246, 13.871365053248699 ], [ 98.149887014769902, 13.871366133678452 ], [ 98.149883679683356, 13.871367540259346 ], [ 98.14988050177034, 13.871369259445244 ], [ 98.14987751163585, 13.87137127467946 ], [ 98.149874738076534, 13.87137356655418 ], [ 98.149872207803256, 13.871376112997417 ], [ 98.149869945183951, 13.871378889485525 ], [ 98.149867972008877, 13.87138186927943 ], [ 98.149866307280789, 13.871385023682084 ], [ 98.149864967031931, 13.871388322314877 ], [ 98.149863964169668, 13.871391733410173 ], [ 98.149863308352096, 13.871395224117272 ], [ 98.149863005895128, 13.871398760818753 ], [ 98.149863059711606, 13.871402309454252 ], [ 98.149863469283261, 13.871405835848471 ], [ 98.149864230665713, 13.871409306040304 ], [ 98.149865336526432, 13.871412686609903 ], [ 98.149866776215404, 13.871415945000535 ], [ 98.149868535867654, 13.871419049832111 ], [ 98.149870598536765, 13.871421971203393 ], [ 98.149872944358108, 13.871424680979981 ], [ 98.149875550740177, 13.87142715306523 ], [ 98.149878392582053, 13.871429363651606 ], [ 98.149881442515252, 13.871431291449941 ], [ 98.149884671167257, 13.871432917894483 ], [ 98.149888047444364, 13.871434227321664 ], [ 98.150188047481464, 13.871534227338282 ] ] ] } },
{ "type": "Feature", "properties": { "id": "KX-8", "name": "Houses and yards", "kind": "exclude", "priority": 0, "split": 0, "description": "Rejected on chip review: a roof and yard, not a landslide." }, "geometry": { "type": "Polygon", "coordinates": [ [ [ 98.15015, 13.8705 ], [ 98.1506, 13.8705 ], [ 98.1506, 13.8708 ], [ 98.15015, 13.8708 ], [ 98.15015, 13.8705 ] ] ] } },
{ "type": "Feature", "properties": { "id": "KX-9", "name": "Wet Thar Kin houses and yards", "kind": "exclude", "priority": 0, "split": 0, "description": "Rejected on chip review: roofs, yards and paths of Wet Thar Kin, not a landslide." }, "geometry": { "type": "Polygon", "coordinates": [ [ [ 98.13595, 13.8784 ], [ 98.13775, 13.8784 ], [ 98.13775, 13.88005 ], [ 98.13595, 13.88005 ], [ 98.13595, 13.8784 ] ] ] } },
{ "type": "Feature", "properties": { "id": "KX-10", "name": "Plantation rows", "kind": "exclude", "priority": 0, "split": 0, "description": "Rejected on chip review: young plantation rows, not a landslide." }, "geometry": { "type": "Polygon", "coordinates": [ [ [ 98.14238, 13.8776 ], [ 98.14275, 13.8776 ], [ 98.14275, 13.87802 ], [ 98.14238, 13.87802 ], [ 98.14238, 13.8776 ] ] ] } },
{ "type": "Feature", "properties": { "id": "KX-11", "name": "Roofs at the north edge", "kind": "exclude", "priority": 0, "split": 0, "description": "Rejected on chip review: roofs and a yard, not a landslide." }, "geometry": { "type": "Polygon", "coordinates": [ [ [ 98.1457, 13.87975 ], [ 98.14605, 13.87975 ], [ 98.14605, 13.88005 ], [ 98.1457, 13.88005 ], [ 98.1457, 13.87975 ] ] ] } },
{ "type": "Feature", "properties": { "id": "KX-12", "name": "Patches by the compound", "kind": "exclude", "priority": 0, "split": 0, "description": "Rejected on chip review: yards beside the compound buildings." }, "geometry": { "type": "Polygon", "coordinates": [ [ [ 98.1459, 13.8716 ], [ 98.1464, 13.8716 ], [ 98.1464, 13.87205 ], [ 98.1459, 13.87205 ], [ 98.1459, 13.8716 ] ] ] } },
{ "type": "Feature", "properties": { "id": "KX-13", "name": "Shade under trees", "kind": "exclude", "priority": 0, "split": 0, "description": "Rejected on chip review: shade and leaf litter under trees, not a landslide." }, "geometry": { "type": "Polygon", "coordinates": [ [ [ 98.14995, 13.87222 ], [ 98.15048, 13.87222 ], [ 98.15048, 13.87255 ], [ 98.14995, 13.87255 ], [ 98.14995, 13.87222 ] ] ] } }
]
}
