{
"type": "FeatureCollection",
"name": "envelopes",
"crs": { "type": "name", "properties": { "name": "urn:ogc:def:crs:OGC:1.3:CRS84" } },
"features": [
{ "type": "Feature", "properties": { "id": "TZ-OW1", "name": "Fan below the eastern slides", "kind": "outwash", "priority": 3, "split": 0, "description": "Grass and scrub at the foot of the hill east of the tidal flat, now under the sand and boulders the eastern slides spread across the track and down to the houses at the edge of the flat." }, "geometry": { "type": "Polygon", "coordinates": [ [ [ 98.0905, 13.9143 ], [ 98.087, 13.9147 ], [ 98.0855, 13.9142 ], [ 98.085, 13.9128 ], [ 98.086, 13.9118 ], [ 98.0884, 13.911 ], [ 98.0905, 13.9103 ], [ 98.0905, 13.9143 ] ] ] } },
{ "type": "Feature", "properties": { "id": "TN", "name": "Hills east and north of the tidal flat", "kind": "landslide", "priority": 5, "split": 1, "description": "Zone split into connected scars and scoured channels." }, "geometry": { "type": "Polygon", "coordinates": [ [ [ 98.078, 13.9157 ], [ 98.0838, 13.9157 ], [ 98.087, 13.9147 ], [ 98.0885, 13.9143 ], [ 98.089, 13.9124 ], [ 98.0884, 13.9113 ], [ 98.0905, 13.91 ], [ 98.0925, 13.9085 ], [ 98.0955, 13.9085 ], [ 98.0955, 13.9235 ], [ 98.078, 13.9235 ], [ 98.078, 13.9157 ] ] ] } },
{ "type": "Feature", "properties": { "id": "TS", "name": "Coastal hills south-east of Ti Zit", "kind": "landslide", "priority": 5, "split": 1, "description": "Zone split into connected scars and scoured channels; its western edge is the back of the beach." }, "geometry": { "type": "Polygon", "coordinates": [ [ [ 98.099, 13.9035 ], [ 98.112, 13.9035 ], [ 98.112, 13.871 ], [ 98.0947, 13.871 ], [ 98.0947, 13.8726 ], [ 98.0946, 13.8733 ], [ 98.0944, 13.8745 ], [ 98.095, 13.8751 ], [ 98.0951, 13.8771 ], [ 98.0952, 13.8789 ], [ 98.0943, 13.8794 ], [ 98.0939, 13.8803 ], [ 98.0939, 13.8812 ], [ 98.0943, 13.8822 ], [ 98.09495, 13.88345 ], [ 98.0951, 13.885 ], [ 98.0965, 13.8858 ], [ 98.0985, 13.8862 ], [ 98.0992, 13.8875 ], [ 98.0992, 13.889 ], [ 98.0985, 13.8904 ], [ 98.0978, 13.8915 ], [ 98.0972, 13.8928 ], [ 98.099, 13.8935 ], [ 98.099, 13.9035 ] ] ] } },
{ "type": "Feature", "properties": { "id": "ZX-1", "name": "Compound bare in Jan 2026", "kind": "exclude", "priority": 0, "split": 0, "description": "A levelled compound beside the track, already bare on the Esri Vivid image of 10 Jan 2026 (the eastern slides' debris has since run across it)." }, "geometry": { "type": "Polygon", "coordinates": [ [ [ 98.0868, 13.9133 ], [ 98.0905, 13.9133 ], [ 98.0905, 13.9152 ], [ 98.0868, 13.9152 ], [ 98.0868, 13.9133 ] ] ] } },
{ "type": "Feature", "properties": { "id": "ZX-2", "name": "Young plantation", "kind": "exclude", "priority": 0, "split": 0, "description": "Rows of young plantation on cleared ground." }, "geometry": { "type": "Polygon", "coordinates": [ [ [ 98.0903, 13.9108 ], [ 98.0932, 13.9108 ], [ 98.0932, 13.9133 ], [ 98.0903, 13.9133 ], [ 98.0903, 13.9108 ] ] ] } },
{ "type": "Feature", "properties": { "id": "ZX-3", "name": "Young plantation", "kind": "exclude", "priority": 0, "split": 0, "description": "Rows of young plantation on cleared ground." }, "geometry": { "type": "Polygon", "coordinates": [ [ [ 98.0808, 13.9186 ], [ 98.0824, 13.9186 ], [ 98.0824, 13.9202 ], [ 98.0808, 13.9202 ], [ 98.0808, 13.9186 ] ] ] } },
{ "type": "Feature", "properties": { "id": "ZX-4", "name": "Plantation rows", "kind": "exclude", "priority": 0, "split": 0, "description": "Rejected on chip review: rows of young plantation below the TN-05 slide." }, "geometry": { "type": "Polygon", "coordinates": [ [ [ 98.08573, 13.91496 ], [ 98.0864, 13.91496 ], [ 98.0864, 13.9154 ], [ 98.08573, 13.9154 ], [ 98.08573, 13.91496 ] ] ] } },
{ "type": "Feature", "properties": { "id": "ZX-5", "name": "Square earthworks", "kind": "exclude", "priority": 0, "split": 0, "description": "Rejected on chip review: a square cut plot beside the track, earthworks rather than a slide." }, "geometry": { "type": "Polygon", "coordinates": [ [ [ 98.07921, 13.91567 ], [ 98.07966, 13.91567 ], [ 98.07966, 13.91603 ], [ 98.07921, 13.91603 ], [ 98.07921, 13.91567 ] ] ] } },
{ "type": "Feature", "properties": { "id": "ZX-6", "name": "Houses and yards", "kind": "exclude", "priority": 0, "split": 0, "description": "Rejected on chip review: houses and yards at the edge of the village." }, "geometry": { "type": "Polygon", "coordinates": [ [ [ 98.0897, 13.91038 ], [ 98.09022, 13.91038 ], [ 98.09022, 13.91099 ], [ 98.0897, 13.91099 ], [ 98.0897, 13.91038 ] ] ] } },
{ "type": "Feature", "properties": { "id": "ZX-7", "name": "Yard by the track", "kind": "exclude", "priority": 0, "split": 0, "description": "Rejected on chip review: a yard beside the track." }, "geometry": { "type": "Polygon", "coordinates": [ [ [ 98.08263, 13.91567 ], [ 98.08294, 13.91567 ], [ 98.08294, 13.91601 ], [ 98.08263, 13.91601 ], [ 98.08263, 13.91567 ] ] ] } },
{ "type": "Feature", "properties": { "id": "ZX-8", "name": "Plot bare in Jan 2026", "kind": "exclude", "priority": 0, "split": 0, "description": "Rejected on chip review: a plot by the track, already bare on 10 Jan 2026." }, "geometry": { "type": "Polygon", "coordinates": [ [ [ 98.08839, 13.91118 ], [ 98.08876, 13.91118 ], [ 98.08876, 13.91144 ], [ 98.08839, 13.91144 ], [ 98.08839, 13.91118 ] ] ] } },
{ "type": "Feature", "properties": { "id": "ZX-9", "name": "Dry scrub", "kind": "exclude", "priority": 0, "split": 0, "description": "Rejected on chip review: scattered bare patches in dry scrub, as on 10 Jan 2026." }, "geometry": { "type": "Polygon", "coordinates": [ [ [ 98.08034, 13.91883 ], [ 98.08083, 13.91883 ], [ 98.08083, 13.91928 ], [ 98.08034, 13.91928 ], [ 98.08034, 13.91883 ] ] ] } },
{ "type": "Feature", "properties": { "id": "ZX-10", "name": "Sandy gardens and tracks", "kind": "exclude", "priority": 0, "split": 0, "description": "Rejected on chip review: sandy gardens, a clearing, houses and tracks behind the north end of the beach, pale or brown on 10 Jan 2026." }, "geometry": { "type": "Polygon", "coordinates": [ [ [ 98.09897, 13.89956 ], [ 98.1007, 13.89956 ], [ 98.1007, 13.90137 ], [ 98.09897, 13.90137 ], [ 98.09897, 13.89956 ] ] ] } },
{ "type": "Feature", "properties": { "id": "ZX-11", "name": "Garden plots and tracks", "kind": "exclude", "priority": 0, "split": 0, "description": "Rejected on chip review: garden plots, plantation rows and straight tracks, not landslides." }, "geometry": { "type": "Polygon", "coordinates": [ [ [ 98.09897, 13.89527 ], [ 98.10018, 13.89527 ], [ 98.10018, 13.89855 ], [ 98.09897, 13.89855 ], [ 98.09897, 13.89527 ] ] ] } },
{ "type": "Feature", "properties": { "id": "ZX-12", "name": "Canopy gaps", "kind": "exclude", "priority": 0, "split": 0, "description": "Rejected on chip review: canopy gaps." }, "geometry": { "type": "Polygon", "coordinates": [ [ [ 98.10135, 13.90106 ], [ 98.1018, 13.90106 ], [ 98.1018, 13.90153 ], [ 98.10135, 13.90153 ], [ 98.10135, 13.90106 ] ] ] } },
{ "type": "Feature", "properties": { "id": "ZX-13", "name": "Beach edge and paths", "kind": "exclude", "priority": 0, "split": 0, "description": "Rejected on chip review: the beach edge, a path and sandy scrub behind the beach, pale on 10 Jan 2026." }, "geometry": { "type": "Polygon", "coordinates": [ [ [ 98.09736, 13.89106 ], [ 98.09913, 13.89106 ], [ 98.09913, 13.8933 ], [ 98.09736, 13.8933 ], [ 98.09736, 13.89106 ] ] ] } },
{ "type": "Feature", "properties": { "id": "ZX-14", "name": "Beach edge", "kind": "exclude", "priority": 0, "split": 0, "description": "Rejected on chip review: the edge of the beach." }, "geometry": { "type": "Polygon", "coordinates": [ [ [ 98.0946, 13.87233 ], [ 98.09499, 13.87233 ], [ 98.09499, 13.87314 ], [ 98.0946, 13.87314 ], [ 98.0946, 13.87233 ] ] ] } },
{ "type": "Feature", "properties": { "id": "ZX-15", "name": "Plantation rows", "kind": "exclude", "priority": 0, "split": 0, "description": "Rejected on chip review: plantation rows at the edge of the flight." }, "geometry": { "type": "Polygon", "coordinates": [ [ [ 98.10621, 13.90143 ], [ 98.10658, 13.90143 ], [ 98.10658, 13.9018 ], [ 98.10621, 13.9018 ], [ 98.10621, 13.90143 ] ] ] } }
]
}
