{
"type": "FeatureCollection",
"name": "reach_zones",
"crs": { "type": "name", "properties": { "name": "urn:ogc:def:crs:OGC:1.3:CRS84" } },
"features": [
{ "type": "Feature", "properties": { "zone": "A", "alpha_deg": 13.8, "label": "Within reach of an open-slope debris flow (alpha 13.8 deg)" }, "geometry": { "type": "MultiPolygon", "coordinates": [ [ [ [ 98.150795007245961, 13.718088246924193 ], [ 98.150795982446638, 13.717817010743838 ], [ 98.150544484781591, 13.717816146351867 ], [ 98.150561905231839, 13.717884141336775 ], [ 98.150571913472334, 13.717911488261016 ], [ 98.150572780655509, 13.717914936916774 ], [ 98.150634788750239, 13.718087696275653 ], [ 98.150795007245961, 13.718088246924193 ] ] ], [ [ [ 98.149966604013372, 13.717000440744638 ], [ 98.149966147523699, 13.717127290595965 ], [ 98.150145466370816, 13.717226304336393 ], [ 98.150174198136455, 13.717240354765149 ], [ 98.150243078581255, 13.717268259400575 ], [ 98.150244038628344, 13.717001394863367 ], [ 98.151076342600248, 13.717004255351325 ], [ 98.151075367781502, 13.717275491569275 ], [ 98.151352802799593, 13.717276444462074 ], [ 98.151354751778968, 13.716733971981066 ], [ 98.151632186181232, 13.716734924523397 ], [ 98.15163121202059, 13.717006160786454 ], [ 98.152740951114765, 13.717009967920266 ], [ 98.15274289686711, 13.716467495231887 ], [ 98.153297765266956, 13.716469396852524 ], [ 98.153296793038265, 13.716740633238745 ], [ 98.153574227588294, 13.716741583601529 ], [ 98.153573255656994, 13.717012820001237 ], [ 98.154128125457234, 13.717014719831695 ], [ 98.154129096751575, 13.716743483392998 ], [ 98.154683965999141, 13.716745381939015 ], [ 98.154681053963841, 13.717559091353955 ], [ 98.154958489574668, 13.717560040218327 ], [ 98.154957519172626, 13.717831276697423 ], [ 98.155234955122992, 13.717832225269875 ], [ 98.155233014892787, 13.718374698248963 ], [ 98.155510451501215, 13.718375646548941 ], [ 98.155509481673079, 13.718646883048931 ], [ 98.155786918621075, 13.718647831056956 ], [ 98.155785949090415, 13.718919067570386 ], [ 98.156618261016121, 13.718921909784319 ], [ 98.156619229591186, 13.718650673212576 ], [ 98.156896666623254, 13.718651619974956 ], [ 98.156895698366725, 13.718922856566133 ], [ 98.157173135738304, 13.718923803036526 ], [ 98.157174103676326, 13.718652566425936 ], [ 98.158838726435306, 13.718658238592155 ], [ 98.158837760408474, 13.718929475319129 ], [ 98.159392635466233, 13.718931363588661 ], [ 98.159393600855992, 13.718660126822938 ], [ 98.160503349948556, 13.718663899547574 ], [ 98.160504314043308, 13.718392662698431 ], [ 98.160781751050223, 13.718393605081722 ], [ 98.160782714805549, 13.718122368207235 ], [ 98.161060151514832, 13.718123310259793 ], [ 98.161061114930746, 13.717852073359966 ], [ 98.161615987775008, 13.717853956492238 ], [ 98.161616950533002, 13.71758271954776 ], [ 98.161339514418941, 13.717581778156635 ], [ 98.161340477474539, 13.717310541225467 ], [ 98.161617913270135, 13.717311482597271 ], [ 98.161621764009794, 13.716226534735235 ], [ 98.161344329488117, 13.716225593440697 ], [ 98.161345292439293, 13.715954356479481 ], [ 98.161067858256985, 13.715953414892915 ], [ 98.161068821505722, 13.715682177945014 ], [ 98.161623689254327, 13.715684060768163 ], [ 98.161624651845273, 13.715412823775615 ], [ 98.161902085432445, 13.715413764700862 ], [ 98.161903047684078, 13.715142527682994 ], [ 98.162180480973689, 13.715143468277603 ], [ 98.162181442886009, 13.714872231234423 ], [ 98.162458875878045, 13.714873171498406 ], [ 98.162460799003227, 13.714330697355425 ], [ 98.163015663776207, 13.714332576872266 ], [ 98.163016624670675, 13.714061339753192 ], [ 98.162739192592184, 13.714060400169711 ], [ 98.162740153784213, 13.713789163063907 ], [ 98.163017585544296, 13.713790102628105 ], [ 98.163019507229023, 13.713247628359913 ], [ 98.163574369538139, 13.713249506477307 ], [ 98.163575329712458, 13.71297826929565 ], [ 98.163852760579886, 13.712979207868157 ], [ 98.163853720414991, 13.712707970661226 ], [ 98.164131150984858, 13.712708908903192 ], [ 98.164133069955867, 13.712166434432797 ], [ 98.164965359880128, 13.712169247175584 ], [ 98.164967276857723, 13.71162677256568 ], [ 98.165244706237388, 13.711627709485624 ], [ 98.165245664376641, 13.711356472152431 ], [ 98.165523093458731, 13.711357408741897 ], [ 98.165525009038205, 13.710814934019034 ], [ 98.165802437504411, 13.710815870258822 ], [ 98.165803394944646, 13.71054463286916 ], [ 98.166080823113305, 13.710545568778505 ], [ 98.166083694354427, 13.709731856515848 ], [ 98.166638548844162, 13.709733727285641 ], [ 98.166639505246408, 13.709462489814333 ], [ 98.167194359182574, 13.709464359300929 ], [ 98.167195314927483, 13.709193121785237 ], [ 98.167472741608393, 13.709194056042554 ], [ 98.167473697014273, 13.708922818501675 ], [ 98.168305976226506, 13.708925619348982 ], [ 98.168306930656826, 13.708654381744591 ], [ 98.16802950455029, 13.70865344845917 ], [ 98.168032368671746, 13.707839735667454 ], [ 98.167754943540743, 13.707838802128363 ], [ 98.167755898524703, 13.707567564538284 ], [ 98.168033323337468, 13.707568498058208 ], [ 98.168036187210291, 13.706754785194445 ], [ 98.167758763352253, 13.706753851732028 ], [ 98.167760673133643, 13.706211376497833 ], [ 98.168592942860627, 13.706214175836712 ], [ 98.168593896765614, 13.705942938153125 ], [ 98.168871319731153, 13.705943870624697 ], [ 98.168872273297239, 13.705672632915954 ], [ 98.169427118653985, 13.705674496887466 ], [ 98.169428071562976, 13.705403259134439 ], [ 98.169705493954197, 13.705404190634404 ], [ 98.169706446524316, 13.705132952856244 ], [ 98.168596758356344, 13.705129225066342 ], [ 98.168599619760727, 13.704315511925531 ], [ 98.168322198724994, 13.704314579257781 ], [ 98.168323152803211, 13.704043341551326 ], [ 98.168600573520777, 13.704044274199921 ], [ 98.168601527260137, 13.703773036468304 ], [ 98.169433788582566, 13.703775832490237 ], [ 98.169436646813125, 13.702962119087099 ], [ 98.169714066340902, 13.702963050414894 ], [ 98.169713113936197, 13.70323428824107 ], [ 98.170267953690015, 13.703236150001761 ], [ 98.170268905458457, 13.702964912137345 ], [ 98.169991485889341, 13.702963981431642 ], [ 98.169993390000485, 13.702421505723033 ], [ 98.16971597108828, 13.702420574744533 ], [ 98.169717875752966, 13.701878099050166 ], [ 98.169995294028936, 13.701879029990421 ], [ 98.169996246012175, 13.701607792115109 ], [ 98.1697188280543, 13.70160686119398 ], [ 98.169720732594939, 13.701064385463596 ], [ 98.169998149916637, 13.701065316346483 ], [ 98.170000053738406, 13.700522840553855 ], [ 98.169722637052857, 13.700521909709217 ], [ 98.169724541428096, 13.699979433930832 ], [ 98.170001957477538, 13.699980364737224 ], [ 98.170002909316082, 13.699709126819906 ], [ 98.169725493584707, 13.699708196032635 ], [ 98.169726445720627, 13.699436958128441 ], [ 98.170003861133978, 13.699437888896584 ], [ 98.170004812931197, 13.699166650967266 ], [ 98.169727397835899, 13.699165720218243 ], [ 98.169728830250435, 13.698757643884775 ], [ 98.169585571031845, 13.698764525026883 ], [ 98.169490517724711, 13.698778310849105 ], [ 98.169485010566419, 13.698778575371493 ], [ 98.169389957134015, 13.698792361205943 ], [ 98.169384449972853, 13.698792625728455 ], [ 98.169289396531767, 13.698806411563337 ], [ 98.169283889379329, 13.698806676085411 ], [ 98.169222283483521, 13.698815610944202 ], [ 98.169079511031001, 13.698809842543691 ], [ 98.169036414049145, 13.698809842567115 ], [ 98.168914989874636, 13.698815674962924 ], [ 98.168847471841602, 13.698812530433633 ], [ 98.168562900248929, 13.69879861448948 ], [ 98.168517458724082, 13.69879683021952 ], [ 98.168097116527576, 13.698784372590238 ], [ 98.168039059460796, 13.69878000477525 ], [ 98.168013069933806, 13.698776373535283 ], [ 98.167941404659217, 13.698767475291421 ], [ 98.167812113675012, 13.69875342519139 ], [ 98.167556735145212, 13.698739591859065 ], [ 98.167240690611621, 13.698739592031181 ], [ 98.167014094443815, 13.698750476011588 ], [ 98.166964757937961, 13.69875763139293 ], [ 98.166934078649234, 13.698756202558398 ], [ 98.166824080823659, 13.698753642560769 ], [ 98.166795349502408, 13.698753642576428 ], [ 98.166568915209965, 13.698764511106328 ], [ 98.166344658444714, 13.698797011955984 ], [ 98.166152780754913, 13.698843969275558 ], [ 98.166051538629048, 13.698848833208347 ], [ 98.165827079951853, 13.698881393699077 ], [ 98.165606967294877, 13.698935312448191 ], [ 98.165563999424137, 13.698950347487473 ], [ 98.165545525425145, 13.698950347494494 ], [ 98.165326909540283, 13.6989604767343 ], [ 98.1651102529962, 13.698990773519515 ], [ 98.164897497555373, 13.699040966315053 ], [ 98.164690550019415, 13.699110605269775 ], [ 98.164491265140867, 13.69919906624798 ], [ 98.164459406807111, 13.699216937464925 ], [ 98.1644480538246, 13.699218584005568 ], [ 98.164227983027345, 13.699272480958049 ], [ 98.164014374953368, 13.699347208579601 ], [ 98.163809286715136, 13.699442047218428 ], [ 98.163764918239337, 13.699468048226148 ], [ 98.163659411145872, 13.699461168927833 ], [ 98.163505581568828, 13.699456159502908 ], [ 98.163491215908209, 13.699456159510769 ], [ 98.163268629065627, 13.699466660933483 ], [ 98.163048110451214, 13.699498067392863 ], [ 98.162831709053535, 13.699550087066747 ], [ 98.162621435607818, 13.699622236601494 ], [ 98.162593825242638, 13.699634746318523 ], [ 98.16257506099312, 13.699635647611602 ], [ 98.162350646521617, 13.69966819484708 ], [ 98.162130575434858, 13.699722091783427 ], [ 98.162039299001606, 13.699754023466108 ], [ 98.16187113828596, 13.699762100576809 ], [ 98.161646723615362, 13.699794647684593 ], [ 98.161634092043855, 13.699797741240909 ], [ 98.161531349682349, 13.699788606197602 ], [ 98.161499344194453, 13.699785979552564 ], [ 98.161312590574681, 13.699771929485419 ], [ 98.16125676887323, 13.699768393472816 ], [ 98.161005441419817, 13.699755456363825 ], [ 98.1608586284041, 13.699745200107506 ], [ 98.160760245679825, 13.699735577950056 ], [ 98.160659323185158, 13.699724610665612 ], [ 98.160560112333968, 13.699712481715824 ], [ 98.160445187007568, 13.699698431608157 ], [ 98.160413728084535, 13.699694799461774 ], [ 98.160284437100273, 13.699680749362384 ], [ 98.160029056545525, 13.699666915948013 ], [ 98.159612452387861, 13.699666916176957 ], [ 98.159385855715669, 13.699677800094596 ], [ 98.159161441239078, 13.699710347162434 ], [ 98.158941370133888, 13.699764243939308 ], [ 98.158727761750768, 13.699838971380153 ], [ 98.158522673206974, 13.699933809834258 ], [ 98.158328079577089, 13.700047845975289 ], [ 98.158145854873609, 13.700179981596321 ], [ 98.157977754000356, 13.700328944185257 ], [ 98.157902362328699, 13.70041027232117 ], [ 98.15781972859925, 13.700483498171765 ], [ 98.157667370493698, 13.700647853127196 ], [ 98.157645449425743, 13.700676751503995 ], [ 98.157624297769956, 13.700679819142579 ], [ 98.157608783952966, 13.700683618573585 ], [ 98.157538103023896, 13.700693869480267 ], [ 98.157522589164543, 13.700697668921016 ], [ 98.157451908216032, 13.700707919829966 ], [ 98.157231836402275, 13.700761816680551 ], [ 98.157018227341325, 13.700836544162991 ], [ 98.156960120817857, 13.700863414125205 ], [ 98.156959558258308, 13.701021228661505 ], [ 98.156682141915795, 13.701020283161732 ], [ 98.156681174705952, 13.701291520123924 ], [ 98.156403758066361, 13.701290574293726 ], [ 98.156402790517419, 13.701561811230489 ], [ 98.155847956665085, 13.701559918598209 ], [ 98.155848448639304, 13.701422092839483 ], [ 98.155663871762584, 13.701507445689405 ], [ 98.155469277140639, 13.701621481779586 ], [ 98.155366290127688, 13.70169615980592 ], [ 98.155309239351183, 13.701715734972808 ], [ 98.155107045884563, 13.701807343852384 ], [ 98.154914812976898, 13.701917561015518 ], [ 98.154734326818655, 13.70204536235072 ], [ 98.154567264460027, 13.702189560357709 ], [ 98.154415178228604, 13.702348815180647 ], [ 98.154279481305664, 13.702521647057029 ], [ 98.154161434594826, 13.70270645006654 ], [ 98.154062135005361, 13.70290150705215 ], [ 98.153982505258966, 13.703105005574908 ], [ 98.153923285314505, 13.70331505475413 ], [ 98.15389940371405, 13.703449037124281 ], [ 98.153843927741789, 13.703573301620235 ], [ 98.153772698604683, 13.703790145780481 ], [ 98.153724150108388, 13.704012897409315 ], [ 98.153698775218402, 13.704239294960031 ], [ 98.153690051008695, 13.704384325975857 ], [ 98.153689275341605, 13.704389636049141 ], [ 98.153666052334501, 13.704709188289952 ], [ 98.153666049861201, 13.704962093548138 ], [ 98.153677179898793, 13.705183643695293 ], [ 98.153690213965419, 13.705269559106602 ], [ 98.15369154459836, 13.705296046131561 ], [ 98.1537248319312, 13.705515462830613 ], [ 98.153739149501774, 13.705571349736799 ], [ 98.153739197184834, 13.705571664044035 ], [ 98.153743054556841, 13.705586720827752 ], [ 98.153753543102368, 13.705655872124515 ], [ 98.153808643756349, 13.705870998830644 ], [ 98.15388504162047, 13.706079810806038 ], [ 98.153933593581101, 13.706180203528607 ], [ 98.153903770562067, 13.706187507194455 ], [ 98.15390354594841, 13.706187539769546 ], [ 98.153731829612397, 13.706229593120996 ], [ 98.153731156370625, 13.706229690759333 ], [ 98.153511079623925, 13.706283587541128 ], [ 98.153297465775296, 13.706358314925332 ], [ 98.15309237199267, 13.706453153262444 ], [ 98.153086187121559, 13.7064567776389 ], [ 98.153063640214768, 13.70646720364406 ], [ 98.153057455401665, 13.7064708279868 ], [ 98.153034908561864, 13.706481253960346 ], [ 98.153028636068001, 13.706484929684382 ], [ 98.153005952390174, 13.706495421622927 ], [ 98.152956557992326, 13.706524375018342 ], [ 98.152748849136287, 13.706534351570344 ], [ 98.152524428655198, 13.706566898710891 ], [ 98.152304351675355, 13.706620795489034 ], [ 98.15209073760181, 13.70669552286021 ], [ 98.151885643604416, 13.706790361175111 ], [ 98.151691044808217, 13.706904397109678 ], [ 98.151508815273488, 13.707036532460112 ], [ 98.151340709948755, 13.707185494718235 ], [ 98.1511883477705, 13.707349849325382 ], [ 98.151053196072382, 13.707528013486836 ], [ 98.150936556453786, 13.707718271413869 ], [ 98.15083955224425, 13.707918790846596 ], [ 98.15076311768415, 13.708127640698534 ], [ 98.15070798892603, 13.708342809653043 ], [ 98.150674696943312, 13.708562225532608 ], [ 98.150663562414692, 13.708783775254338 ], [ 98.150663561727427, 13.7088540267148 ], [ 98.150674691944275, 13.709075576626518 ], [ 98.150707979785039, 13.709294993096174 ], [ 98.150717069964458, 13.709330474937303 ], [ 98.150722344900913, 13.70936524459553 ], [ 98.150731435072387, 13.70940072639492 ], [ 98.150736710016787, 13.709435496094997 ], [ 98.150745800180331, 13.709470977852632 ], [ 98.150751075132618, 13.709505747594259 ], [ 98.150760165288247, 13.709541229310302 ], [ 98.150765440248463, 13.709575999093532 ], [ 98.150774530396149, 13.709611480767888 ], [ 98.150775459169779, 13.709617602757444 ], [ 98.150701745425295, 13.709695704948565 ], [ 98.150696310324506, 13.709701483721156 ], [ 98.15053828648459, 13.709870086241585 ], [ 98.15039303181679, 13.710041261901567 ], [ 98.150349933841341, 13.710097463332595 ], [ 98.150306836294064, 13.710153664205269 ], [ 98.150189782927413, 13.710321526688446 ], [ 98.1500886187861, 13.710498986887174 ], [ 98.150074252818285, 13.710527087358683 ], [ 98.149987451064135, 13.710718582029424 ], [ 98.14991915266458, 13.71091711019417 ], [ 98.149869944151291, 13.711120967070602 ], [ 98.149840248132989, 13.711328402114026 ], [ 98.149830319664886, 13.711537634049192 ], [ 98.149830319621131, 13.711542105654194 ], [ 98.149814535554199, 13.71158533000227 ], [ 98.149759630992676, 13.711800082258014 ], [ 98.14972826036643, 13.712007265946598 ], [ 98.149687960314964, 13.712164594020404 ], [ 98.149654683417154, 13.712383959270724 ], [ 98.149643553948977, 13.712605456857313 ], [ 98.149643553867179, 13.712613818233894 ], [ 98.149614524900244, 13.712662740932659 ], [ 98.149600158813257, 13.71269084163716 ], [ 98.149585792726839, 13.712718942340588 ], [ 98.149577549718401, 13.712735066032371 ], [ 98.149569102118306, 13.712741193230572 ], [ 98.149400979390279, 13.712890220337027 ], [ 98.149386613452378, 13.712904270691979 ], [ 98.149372247665937, 13.71291832089879 ], [ 98.149219948316002, 13.713082662209837 ], [ 98.149084853910963, 13.713260803635634 ], [ 98.148968264872593, 13.713451030431761 ], [ 98.148871303503114, 13.713651511519478 ], [ 98.14879490318107, 13.713860317110436 ], [ 98.148739799375321, 13.714075437281696 ], [ 98.148706522563671, 13.71429480132222 ], [ 98.14869539312447, 13.714516297664716 ], [ 98.148695392849433, 13.714544398248863 ], [ 98.14870652332911, 13.714765947951875 ], [ 98.148739811955494, 13.714985364214829 ], [ 98.148794938201775, 13.715200533934031 ], [ 98.148871371228893, 13.715409384896608 ], [ 98.148879141382508, 13.715425446943057 ], [ 98.148879471033084, 13.715431847774655 ], [ 98.14891444269189, 13.715656635529065 ], [ 98.148972337024617, 13.715876850959434 ], [ 98.149052568255755, 13.716090265679849 ], [ 98.149154324574226, 13.716294720115418 ], [ 98.149276576346111, 13.716488145355871 ], [ 98.149418086531696, 13.716668584091936 ], [ 98.149577423201848, 13.716834210422558 ], [ 98.149752974026882, 13.716983348332507 ], [ 98.149776790534858, 13.716999787782225 ], [ 98.149966604013372, 13.717000440744638 ] ], [ [ 98.166917888267321, 13.709192187216726 ], [ 98.166918844309762, 13.708920949714216 ], [ 98.167196270651644, 13.708921884263539 ], [ 98.167195314927483, 13.709193121785237 ], [ 98.166917888267321, 13.709192187216726 ] ], [ [ 98.16804573210635, 13.704042408591665 ], [ 98.168046686482015, 13.703771170898365 ], [ 98.168324106860723, 13.703772103838869 ], [ 98.168323152803211, 13.704043341551326 ], [ 98.16804573210635, 13.704042408591665 ] ], [ [ 98.169159227306039, 13.702961187448265 ], [ 98.169161133325929, 13.702418711854435 ], [ 98.169438552196766, 13.702419643454999 ], [ 98.169436646813125, 13.702962119087099 ], [ 98.169159227306039, 13.702961187448265 ] ], [ [ 98.168883714475783, 13.702417779942834 ], [ 98.168884667772801, 13.702146542156061 ], [ 98.169162086304823, 13.702147474048516 ], [ 98.169161133325929, 13.702418711854435 ], [ 98.168883714475783, 13.702417779942834 ] ], [ [ 98.15746121579096, 13.715941145934892 ], [ 98.157460248381327, 13.716212382624997 ], [ 98.15773768260992, 13.716213328278487 ], [ 98.157736715497776, 13.716484564981988 ], [ 98.158014150065824, 13.716485510343528 ], [ 98.158012216415557, 13.717027983771303 ], [ 98.157734781210564, 13.717027038370961 ], [ 98.157735748364658, 13.716755801679481 ], [ 98.157458313499134, 13.716754855987176 ], [ 98.157459280950732, 13.716483619309093 ], [ 98.157181846424649, 13.716482673324833 ], [ 98.157183781901807, 13.715940199989461 ], [ 98.15746121579096, 13.715941145934892 ] ], [ [ 98.15912195744518, 13.717031762258936 ], [ 98.158844522156329, 13.717030818104087 ], [ 98.158845488036519, 13.716759581335038 ], [ 98.159122923006862, 13.716760525470516 ], [ 98.15912195744518, 13.717031762258936 ] ], [ [ 98.158290618158659, 13.716757692129992 ], [ 98.158293517584283, 13.715943981903107 ], [ 98.158016083632191, 13.715943036891716 ], [ 98.158017050383933, 13.715671800156798 ], [ 98.158571917672148, 13.715673689829451 ], [ 98.158570951557309, 13.71594492660315 ], [ 98.158848385551323, 13.715945870991849 ], [ 98.158845488036519, 13.716759581335038 ], [ 98.158290618158659, 13.716757692129992 ] ], [ [ 98.150529276148546, 13.714832459023786 ], [ 98.150528300862092, 13.715103695250686 ], [ 98.150805733290198, 13.715104648609714 ], [ 98.150804758301021, 13.715375884850172 ], [ 98.15108219106871, 13.715376837917429 ], [ 98.151081216376824, 13.715648074171439 ], [ 98.150803783290698, 13.715647121084617 ], [ 98.150802808259215, 13.715918357313056 ], [ 98.15052537487577, 13.715917403895336 ], [ 98.150524399504704, 13.716188640098197 ], [ 98.149969532164391, 13.716186732289572 ], [ 98.149970508172402, 13.715915496125859 ], [ 98.149693074852451, 13.715914541774106 ], [ 98.149696003704761, 13.715100833305671 ], [ 98.149973436069359, 13.71510178759867 ], [ 98.149974411992687, 13.714830551410916 ], [ 98.150529276148546, 13.714832459023786 ] ], [ [ 98.153024221034158, 13.715383500670953 ], [ 98.153022276087526, 13.715925973446437 ], [ 98.152744842535071, 13.715925022519473 ], [ 98.152746788118606, 13.715382549783014 ], [ 98.153024221034158, 13.715383500670953 ] ], [ [ 98.151639978705717, 13.714565034202565 ], [ 98.151362546851047, 13.71456408181661 ], [ 98.151363521139928, 13.714292845519008 ], [ 98.151640952676203, 13.714293797885416 ], [ 98.151639978705717, 13.714565034202565 ] ], [ [ 98.151086089624798, 13.714291892841297 ], [ 98.151087064210969, 13.714020656557238 ], [ 98.151364495407691, 13.714021609215401 ], [ 98.151363521139928, 13.714292845519008 ], [ 98.151086089624798, 13.714291892841297 ] ], [ [ 98.149701860837553, 13.713473416206527 ], [ 98.149700884701687, 13.713744652404742 ], [ 98.149423453950334, 13.713743697898376 ], [ 98.149424430404579, 13.713472461719752 ], [ 98.149701860837553, 13.713473416206527 ] ], [ [ 98.157753153551212, 13.711873540205287 ], [ 98.157748319458932, 13.713229724143389 ], [ 98.157470888733016, 13.713228778703368 ], [ 98.157475724417139, 13.711872594862294 ], [ 98.157753153551212, 13.711873540205287 ] ], [ [ 98.158325398813943, 13.706993165838636 ], [ 98.158047975367168, 13.706992221467216 ], [ 98.158045077062141, 13.707805932230658 ], [ 98.15832250146363, 13.707806876660252 ], [ 98.15832056979194, 13.708349350511305 ], [ 98.158043144753933, 13.708348406042923 ], [ 98.158039279885926, 13.709433353595385 ], [ 98.157761853595787, 13.709432408738238 ], [ 98.157758953769715, 13.710246119281315 ], [ 98.157481526545652, 13.710245174054757 ], [ 98.157480559576683, 13.710516410871035 ], [ 98.157203132055287, 13.710515465313852 ], [ 98.157202164747019, 13.710786702104707 ], [ 98.156924736928289, 13.710785756216888 ], [ 98.15692570455488, 13.710514519445452 ], [ 98.156370849617048, 13.710512626774994 ], [ 98.156371817859267, 13.710241390036407 ], [ 98.156094390740193, 13.710240443253786 ], [ 98.156095359279703, 13.709969206528632 ], [ 98.156927639745064, 13.709972045884562 ], [ 98.156928607308657, 13.709700809095104 ], [ 98.157206033854138, 13.709701754905247 ], [ 98.157207968281767, 13.709159281269475 ], [ 98.156930542372862, 13.709158335498168 ], [ 98.156932477353067, 13.708615861877206 ], [ 98.157209902625439, 13.70861680760968 ], [ 98.157212803983512, 13.707803097074935 ], [ 98.157490228322075, 13.707804042437996 ], [ 98.157499894969291, 13.705091673404375 ], [ 98.157777316146692, 13.705092618262228 ], [ 98.15777538362147, 13.705635092155807 ], [ 98.158052805456222, 13.705636036741371 ], [ 98.158048941426912, 13.706720984534057 ], [ 98.15832636455545, 13.706721928886084 ], [ 98.158325398813943, 13.706993165838636 ] ], [ [ 98.15722247381288, 13.705090728235428 ], [ 98.157224407526911, 13.704548254395462 ], [ 98.157501828046975, 13.704549199525587 ], [ 98.157499894969291, 13.705091673404375 ], [ 98.15722247381288, 13.705090728235428 ] ], [ [ 98.162200676750402, 13.70944748910928 ], [ 98.162199715255397, 13.7097187262726 ], [ 98.161922288333159, 13.709717786064068 ], [ 98.161923250146444, 13.709446548920051 ], [ 98.162200676750402, 13.70944748910928 ] ], [ [ 98.167753988536049, 13.708110039712437 ], [ 98.167753033510635, 13.708381277290506 ], [ 98.167475607763819, 13.708380343401906 ], [ 98.167476563107513, 13.708109105843011 ], [ 98.167753988536049, 13.708110039712437 ] ], [ [ 98.16526865348213, 13.704846774354174 ], [ 98.165270568700436, 13.704304299381542 ], [ 98.165825410336282, 13.704306171249629 ], [ 98.165823496390644, 13.704848646299151 ], [ 98.166100917876065, 13.704849581805011 ], [ 98.166098047756392, 13.705663294391908 ], [ 98.166375470217133, 13.705664229644301 ], [ 98.166373557336598, 13.706206704710624 ], [ 98.165541288107434, 13.706203897904853 ], [ 98.165542245512697, 13.705932660432337 ], [ 98.165264822796075, 13.705931724227399 ], [ 98.165265780498771, 13.705660486768098 ], [ 98.165543202897197, 13.70566142295381 ], [ 98.165546074925999, 13.704847710482209 ], [ 98.16526865348213, 13.704846774354174 ] ], [ [ 98.168325060897516, 13.703500866120409 ], [ 98.168327922883634, 13.702687152929018 ], [ 98.168882761158059, 13.70268901772361 ], [ 98.168880854460539, 13.70323149326715 ], [ 98.168603434676726, 13.703230560987075 ], [ 98.168602480978777, 13.703501798730692 ], [ 98.168325060897516, 13.703500866120409 ] ], [ [ 98.156675371005846, 13.702918941771022 ], [ 98.156674403648992, 13.703190178691193 ], [ 98.156396984782646, 13.703189232724984 ], [ 98.156397952457638, 13.702917995824242 ], [ 98.156675371005846, 13.702918941771022 ] ], [ [ 98.164999852749958, 13.702404700522196 ], [ 98.164998894978595, 13.702675938034302 ], [ 98.164721476121485, 13.702675001438005 ], [ 98.164719559880112, 13.703217476405733 ], [ 98.16416472095581, 13.703215602203031 ], [ 98.164166638469695, 13.702673127312293 ], [ 98.163889219675028, 13.702672189782882 ], [ 98.163892096744092, 13.701858477459528 ], [ 98.1644469324456, 13.701860352091787 ], [ 98.164445015692806, 13.702402827057043 ], [ 98.164999852749958, 13.702404700522196 ] ], [ [ 98.168890387120285, 13.700519115309376 ], [ 98.168889433947442, 13.700790353132161 ], [ 98.169444267851276, 13.700792216414653 ], [ 98.169443315293904, 13.701063454269713 ], [ 98.16916589801356, 13.701062522764827 ], [ 98.169164945117416, 13.701333760594752 ], [ 98.168887527539681, 13.701332828759726 ], [ 98.168888480753907, 13.701061590948944 ], [ 98.168333646296688, 13.701059726384175 ], [ 98.168334600126386, 13.700788488605696 ], [ 98.168612017026561, 13.700789421024423 ], [ 98.168612970517472, 13.700518183220789 ], [ 98.168890387120285, 13.700519115309376 ] ] ], [ [ [ 98.169980059486278, 13.706218835179085 ], [ 98.169425212773959, 13.706216972375501 ], [ 98.169423306811197, 13.706759447839527 ], [ 98.169978154796397, 13.706761310719619 ], [ 98.169980059486278, 13.706218835179085 ] ] ], [ [ [ 98.168855105940992, 13.710554910754681 ], [ 98.169132534337734, 13.710555843240572 ], [ 98.169133487937358, 13.710284605614756 ], [ 98.169410916036469, 13.710285537770288 ], [ 98.169411869297093, 13.710014300119335 ], [ 98.168857013756195, 13.710012435535338 ], [ 98.168855105940992, 13.710554910754681 ] ] ], [ [ [ 98.166632809994866, 13.711361151987351 ], [ 98.166910239180794, 13.711362087020611 ], [ 98.166909282951622, 13.711633324469071 ], [ 98.168296430784139, 13.711637995062619 ], [ 98.168298340038319, 13.711095519967936 ], [ 98.168020911067046, 13.711094586510049 ], [ 98.168021865981402, 13.710823348972859 ], [ 98.166634723027656, 13.710818677110801 ], [ 98.166632809994866, 13.711361151987351 ] ] ], [ [ [ 98.17079234639408, 13.711917620232841 ], [ 98.17051491628159, 13.711916689518766 ], [ 98.170515868392911, 13.711645451827355 ], [ 98.17023843861945, 13.711644520821139 ], [ 98.170240343416808, 13.71110204545853 ], [ 98.169962914300683, 13.711101114179296 ], [ 98.169963866986706, 13.710829876508102 ], [ 98.168854152002339, 13.710826148355343 ], [ 98.168851290062179, 13.7116398611213 ], [ 98.169128719732257, 13.711640793683765 ], [ 98.169126812305379, 13.712183268869332 ], [ 98.169404242632865, 13.712184201158822 ], [ 98.169403289206755, 13.712455438761733 ], [ 98.169680719873284, 13.712456370759094 ], [ 98.169679766744864, 13.712727608375129 ], [ 98.170234628776726, 13.71272947147429 ], [ 98.170233676264374, 13.713000709122566 ], [ 98.171343401849583, 13.713004431661997 ], [ 98.171344353088401, 13.712733193937311 ], [ 98.171066921979502, 13.712732263788469 ], [ 98.171068825031966, 13.712189788359272 ], [ 98.170791394580462, 13.712188857937351 ], [ 98.17079234639408, 13.711917620232841 ] ] ], [ [ [ 98.165242789896496, 13.712170184133992 ], [ 98.164965359880128, 13.712169247175584 ], [ 98.164964401360152, 13.712440484471523 ], [ 98.165241831694871, 13.712441421449165 ], [ 98.165242789896496, 13.712170184133992 ] ] ], [ [ [ 98.150796957626184, 13.71754577455747 ], [ 98.150795982446638, 13.717817010743838 ], [ 98.151073418080571, 13.717817963987136 ], [ 98.151074392941595, 13.71754672778121 ], [ 98.150796957626184, 13.71754577455747 ] ] ], [ [ [ 98.17246737508016, 13.708939581575496 ], [ 98.171912521631256, 13.708937723990712 ], [ 98.171911571317935, 13.709208961837632 ], [ 98.172188998350364, 13.70920989080469 ], [ 98.172188048334718, 13.709481128664679 ], [ 98.172465475706062, 13.709482057339612 ], [ 98.172464525988104, 13.709753295212666 ], [ 98.172741953698363, 13.709754223595462 ], [ 98.172742903098026, 13.70948298570335 ], [ 98.173020330510582, 13.70948391375588 ], [ 98.17302317763108, 13.70867019998636 ], [ 98.1724683247363, 13.708668343684433 ], [ 98.17246737508016, 13.708939581575496 ] ] ], [ [ [ 98.172734357759367, 13.711924126516196 ], [ 98.173011788036888, 13.711925054740217 ], [ 98.173013686508554, 13.711382579007958 ], [ 98.173291116169949, 13.711383506882626 ], [ 98.173292065056543, 13.711112268988439 ], [ 98.173569494420192, 13.711113196532825 ], [ 98.173570442967858, 13.710841958613591 ], [ 98.173761512757991, 13.710842597233997 ], [ 98.173769097966385, 13.710441786189358 ], [ 98.173849645406847, 13.710335602371186 ], [ 98.173849768430699, 13.710300409933149 ], [ 98.173876273991098, 13.71030049849942 ], [ 98.17390369107612, 13.710264355149908 ], [ 98.174020329498944, 13.710074094416399 ], [ 98.174117331673628, 13.709873572319484 ], [ 98.174128801226033, 13.709842231425787 ], [ 98.174129092558545, 13.709758860841346 ], [ 98.174159274717738, 13.709758961654687 ], [ 98.174193763453218, 13.709664720021653 ], [ 98.174248888803916, 13.709449548906113 ], [ 98.17428217689195, 13.709230131205224 ], [ 98.174282842003919, 13.709216892020335 ], [ 98.174130988154289, 13.709216384860705 ], [ 98.174131935921309, 13.708945146861376 ], [ 98.17357708222525, 13.708943293010829 ], [ 98.173574236952717, 13.709757006876611 ], [ 98.17329680918067, 13.709756079427434 ], [ 98.173295860397019, 13.710027317351644 ], [ 98.173018432327268, 13.710026389572212 ], [ 98.173017483204717, 13.710297627471368 ], [ 98.172462626490358, 13.710295770940757 ], [ 98.172461676710569, 13.710567008795795 ], [ 98.171906819442, 13.710565150982166 ], [ 98.171905869004959, 13.710836388793059 ], [ 98.171628440083282, 13.710835459400331 ], [ 98.171626538510623, 13.711377934965942 ], [ 98.17134910897289, 13.71137700522381 ], [ 98.17134530430657, 13.712461956206623 ], [ 98.171622735117722, 13.712462886025104 ], [ 98.171621784217933, 13.712734123774879 ], [ 98.1718992153681, 13.712735053301172 ], [ 98.171900165949523, 13.712463815532313 ], [ 98.172455027674943, 13.712465673612927 ], [ 98.172455977599014, 13.712194435799923 ], [ 98.172733408174295, 13.712195364354265 ], [ 98.172734357759367, 13.711924126516196 ] ] ] ] } },
{ "type": "Feature", "properties": { "zone": "B", "alpha_deg": 13.1, "label": "Within reach only of a channelised flow (alpha 13.1 deg)" }, "geometry": { "type": "MultiPolygon", "coordinates": [ [ [ [ 98.151352802799593, 13.717276444462074 ], [ 98.151075367781502, 13.717275491569275 ], [ 98.151074392941595, 13.71754672778121 ], [ 98.151073418080571, 13.717817963987136 ], [ 98.151350853735636, 13.717818916919047 ], [ 98.151352802799593, 13.717276444462074 ] ] ], [ [ [ 98.151630237838802, 13.717277397043503 ], [ 98.15163121202059, 13.717006160786454 ], [ 98.151632186181232, 13.716734924523397 ], [ 98.151354751778968, 13.716733971981066 ], [ 98.151352802799593, 13.717276444462074 ], [ 98.151630237838802, 13.717277397043503 ] ] ], [ [ [ 98.154956548749524, 13.718102513170509 ], [ 98.155233985018413, 13.718103461762423 ], [ 98.155234955122992, 13.717832225269875 ], [ 98.154957519172626, 13.717831276697423 ], [ 98.154956548749524, 13.718102513170509 ] ] ], [ [ [ 98.15495557830539, 13.718373749637582 ], [ 98.154953637353969, 13.718916222553702 ], [ 98.155508511823896, 13.718918119542908 ], [ 98.155507541953682, 13.719189356030876 ], [ 98.155784979538737, 13.719190304077804 ], [ 98.155785949090415, 13.718919067570386 ], [ 98.155786918621075, 13.718647831056956 ], [ 98.155509481673079, 13.718646883048931 ], [ 98.155510451501215, 13.718375646548941 ], [ 98.155233014892787, 13.718374698248963 ], [ 98.15495557830539, 13.718373749637582 ] ] ], [ [ [ 98.156062417144824, 13.71919125181331 ], [ 98.156894730089178, 13.719194093151293 ], [ 98.156895698366725, 13.718922856566133 ], [ 98.156896666623254, 13.718651619974956 ], [ 98.156619229591186, 13.718650673212576 ], [ 98.156618261016121, 13.718921909784319 ], [ 98.15606338637798, 13.718920015286445 ], [ 98.156062417144824, 13.71919125181331 ] ] ], [ [ [ 98.159670073026504, 13.718932307256299 ], [ 98.159947510607722, 13.718933250612519 ], [ 98.159948475360437, 13.71866201380808 ], [ 98.159671038097756, 13.718661070471216 ], [ 98.159670073026504, 13.718932307256299 ] ] ], [ [ [ 98.160780787274007, 13.718664841950202 ], [ 98.160781751050223, 13.718393605081722 ], [ 98.160504314043308, 13.718392662698431 ], [ 98.160503349948556, 13.718663899547574 ], [ 98.160780787274007, 13.718664841950202 ] ] ], [ [ [ 98.161337588245033, 13.718124252000948 ], [ 98.161338551342425, 13.717853015081799 ], [ 98.161061114930746, 13.717852073359966 ], [ 98.161060151514832, 13.718123310259793 ], [ 98.161337588245033, 13.718124252000948 ] ] ], [ [ [ 98.168033323337468, 13.707568498058208 ], [ 98.167755898524703, 13.707567564538284 ], [ 98.167754943540743, 13.707838802128363 ], [ 98.168032368671746, 13.707839735667454 ], [ 98.168033323337468, 13.707568498058208 ] ] ], [ [ [ 98.169148742717397, 13.705944802785146 ], [ 98.169149695965274, 13.705673565057262 ], [ 98.168872273297239, 13.705672632915954 ], [ 98.168871319731153, 13.705943870624697 ], [ 98.169148742717397, 13.705944802785146 ] ] ], [ [ [ 98.158569985421536, 13.716216163370843 ], [ 98.158847419734002, 13.716217107778924 ], [ 98.158848385551323, 13.715945870991849 ], [ 98.158570951557309, 13.71594492660315 ], [ 98.158571917672148, 13.715673689829451 ], [ 98.158017050383933, 13.715671800156798 ], [ 98.158016083632191, 13.715943036891716 ], [ 98.158293517584283, 13.715943981903107 ], [ 98.158290618158659, 13.716757692129992 ], [ 98.158568053087095, 13.7167586368882 ], [ 98.158569985421536, 13.716216163370843 ] ] ], [ [ [ 98.156372786080482, 13.709970153291811 ], [ 98.156095359279703, 13.709969206528632 ], [ 98.156094390740193, 13.710240443253786 ], [ 98.156371817859267, 13.710241390036407 ], [ 98.156372786080482, 13.709970153291811 ] ] ], [ [ [ 98.170255578820004, 13.706762241692964 ], [ 98.17025653085706, 13.706491003906583 ], [ 98.169979107151676, 13.706490072952356 ], [ 98.169978154796397, 13.706761310719619 ], [ 98.170255578820004, 13.706762241692964 ] ] ], [ [ [ 98.172190898319798, 13.708667415066699 ], [ 98.172189948345391, 13.708938652938699 ], [ 98.17246737508016, 13.708939581575496 ], [ 98.1724683247363, 13.708668343684433 ], [ 98.172190898319798, 13.708667415066699 ] ] ], [ [ [ 98.169409962755154, 13.710556775415238 ], [ 98.169410916036469, 13.710285537770288 ], [ 98.169133487937358, 13.710284605614756 ], [ 98.169132534337734, 13.710555843240572 ], [ 98.169409962755154, 13.710556775415238 ] ] ], [ [ [ 98.173010838770168, 13.712196292597344 ], [ 98.173011788036888, 13.711925054740217 ], [ 98.172734357759367, 13.711924126516196 ], [ 98.172733408174295, 13.712195364354265 ], [ 98.173010838770168, 13.712196292597344 ] ] ], [ [ [ 98.173290167262763, 13.711654744770808 ], [ 98.173291116169949, 13.711383506882626 ], [ 98.173013686508554, 13.711382579007958 ], [ 98.173012737283003, 13.711653816877089 ], [ 98.173290167262763, 13.711654744770808 ] ] ], [ [ [ 98.173568545851936, 13.711384434446053 ], [ 98.173569494420192, 13.711113196532825 ], [ 98.173292065056543, 13.711112268988439 ], [ 98.173291116169949, 13.711383506882626 ], [ 98.173568545851936, 13.711384434446053 ] ] ], [ [ [ 98.17390369107612, 13.710264355149908 ], [ 98.173876273991098, 13.71030049849942 ], [ 98.173849768430699, 13.710300409933149 ], [ 98.173849645406847, 13.710335602371186 ], [ 98.17390369107612, 13.710264355149908 ] ] ], [ [ [ 98.171067873516051, 13.712461026076875 ], [ 98.171066921979502, 13.712732263788469 ], [ 98.171344353088401, 13.712733193937311 ], [ 98.171621784217933, 13.712734123774879 ], [ 98.171622735117722, 13.712462886025104 ], [ 98.17134530430657, 13.712461956206623 ], [ 98.171067873516051, 13.712461026076875 ] ] ], [ [ [ 98.168575769030298, 13.711096453114587 ], [ 98.168574814731898, 13.711367690684092 ], [ 98.168852244062947, 13.711368623538654 ], [ 98.168853198042996, 13.711097385950001 ], [ 98.168575769030298, 13.711096453114587 ] ] ], [ [ [ 98.168850336040734, 13.711911098697938 ], [ 98.169127766029163, 13.711912031279548 ], [ 98.169128719732257, 13.711640793683765 ], [ 98.168851290062179, 13.7116398611213 ], [ 98.168850336040734, 13.711911098697938 ] ] ], [ [ [ 98.166631853447328, 13.711632389416614 ], [ 98.166909282951622, 13.711633324469071 ], [ 98.166910239180794, 13.711362087020611 ], [ 98.166632809994866, 13.711361151987351 ], [ 98.166631853447328, 13.711632389416614 ] ] ], [ [ [ 98.167740616294083, 13.711907365258945 ], [ 98.168018046199663, 13.711908299085577 ], [ 98.168019001176177, 13.711637061566405 ], [ 98.167741571588948, 13.711636127758947 ], [ 98.167740616294083, 13.711907365258945 ] ] ], [ [ [ 98.157183781901807, 13.715940199989461 ], [ 98.157181846424649, 13.716482673324833 ], [ 98.157459280950732, 13.716483619309093 ], [ 98.157458313499134, 13.716754855987176 ], [ 98.157735748364658, 13.716755801679481 ], [ 98.157734781210564, 13.717027038370961 ], [ 98.158012216415557, 13.717027983771303 ], [ 98.158014150065824, 13.716485510343528 ], [ 98.157736715497776, 13.716484564981988 ], [ 98.15773768260992, 13.716213328278487 ], [ 98.157460248381327, 13.716212382624997 ], [ 98.15746121579096, 13.715941145934892 ], [ 98.157183781901807, 13.715940199989461 ] ] ], [ [ [ 98.158844522156329, 13.717030818104087 ], [ 98.15912195744518, 13.717031762258936 ], [ 98.159122923006862, 13.716760525470516 ], [ 98.158845488036519, 13.716759581335038 ], [ 98.158844522156329, 13.717030818104087 ] ] ], [ [ [ 98.157475724417139, 13.711872594862294 ], [ 98.157470888733016, 13.713228778703368 ], [ 98.157748319458932, 13.713229724143389 ], [ 98.157753153551212, 13.711873540205287 ], [ 98.157475724417139, 13.711872594862294 ] ] ], [ [ [ 98.167476563107513, 13.708109105843011 ], [ 98.167475607763819, 13.708380343401906 ], [ 98.167753033510635, 13.708381277290506 ], [ 98.167753988536049, 13.708110039712437 ], [ 98.167476563107513, 13.708109105843011 ] ] ] ] } }
]
}
